{
"type": "FeatureCollection",
"name": "10_valued_city_landscape",
"crs": { "type": "name", "properties": { "name": "urn:ogc:def:crs:OGC:1.3:CRS84" } },
"features": [
{ "type": "Feature", "properties": { "fid": 1, "Layer": "10 - ценные фрагменты благоустройства", "PaperSpace": null, "SubClasses": "AcDbEntity:AcDbPolyline", "Linetype": "ByLayer", "EntityHandle": "5AB", "Text": null, "ogr_style": "PEN(c:#000000)", "font": null, "angle": null, "size": null, "size_u": null, "anchor": null, "color": "#000000", "underline": null, "plaintext": null, "fcolor": null, "flnum": null, "bold": null, "italic": null, "dx": null, "dx_u": null, "dy": null, "dy_u": null }, "geometry": { "type": "MultiPolygon", "coordinates": [ [ [ [ 131.892376664499807, 43.104938937229868 ], [ 131.892376758439923, 43.104885450294731 ], [ 131.892204772220225, 43.104885287991749 ], [ 131.892204678130298, 43.104938774926566 ], [ 131.892376664499807, 43.104938937229868 ] ] ] ] } },
{ "type": "Feature", "properties": { "fid": 2, "Layer": "10 - ценные фрагменты благоустройства", "PaperSpace": null, "SubClasses": "AcDbEntity:AcDbPolyline", "Linetype": "ByLayer", "EntityHandle": "5AD", "Text": null, "ogr_style": "PEN(c:#000000)", "font": null, "angle": null, "size": null, "size_u": null, "anchor": null, "color": "#000000", "underline": null, "plaintext": null, "fcolor": null, "flnum": null, "bold": null, "italic": null, "dx": null, "dx_u": null, "dy": null, "dy_u": null }, "geometry": { "type": "MultiPolygon", "coordinates": [ [ [ [ 131.898199976153649, 43.11749574386868 ], [ 131.898403123647114, 43.117466878288049 ], [ 131.899369150528457, 43.117735666570304 ], [ 131.899610699154408, 43.11794988280225 ], [ 131.899760298409518, 43.117848592543083 ], [ 131.899685647604457, 43.117792072575376 ], [ 131.899007286722025, 43.117414452100014 ], [ 131.898732375662178, 43.117325266310651 ], [ 131.898460350023242, 43.117268352140073 ], [ 131.897972571083812, 43.117173721146656 ], [ 131.898199976153649, 43.11749574386868 ] ] ] ] } },
{ "type": "Feature", "properties": { "fid": 3, "Layer": "10 - ценные фрагменты благоустройства", "PaperSpace": null, "SubClasses": "AcDbEntity:AcDbPolyline", "Linetype": "ByLayer", "EntityHandle": "5AF", "Text": null, "ogr_style": "PEN(c:#000000)", "font": null, "angle": null, "size": null, "size_u": null, "anchor": null, "color": "#000000", "underline": null, "plaintext": null, "fcolor": null, "flnum": null, "bold": null, "italic": null, "dx": null, "dx_u": null, "dy": null, "dy_u": null }, "geometry": { "type": "MultiPolygon", "coordinates": [ [ [ [ 131.923159536694754, 43.111914599912119 ], [ 131.922855227398003, 43.111923795891208 ], [ 131.922570575310289, 43.111934176203938 ], [ 131.92255956856971, 43.11186155406488 ], [ 131.922533298642804, 43.111858358219223 ], [ 131.922003212301973, 43.11184191873744 ], [ 131.922002259377052, 43.111866050819287 ], [ 131.92201344411157, 43.112102963757778 ], [ 131.922704187975228, 43.112080349833668 ], [ 131.922947784256678, 43.112072186309369 ], [ 131.923171743586352, 43.112063357634867 ], [ 131.923159536694754, 43.111914599912119 ] ] ] ] } },
{ "type": "Feature", "properties": { "fid": 4, "Layer": "10 - ценные фрагменты благоустройства", "PaperSpace": null, "SubClasses": "AcDbEntity:AcDbPolyline", "Linetype": "ByLayer", "EntityHandle": "5B1", "Text": null, "ogr_style": "PEN(c:#000000)", "font": null, "angle": null, "size": null, "size_u": null, "anchor": null, "color": "#000000", "underline": null, "plaintext": null, "fcolor": null, "flnum": null, "bold": null, "italic": null, "dx": null, "dx_u": null, "dy": null, "dy_u": null }, "geometry": { "type": "MultiPolygon", "coordinates": [ [ [ [ 131.925544678138749, 43.111708355911489 ], [ 131.925456980908848, 43.111684618907269 ], [ 131.925383400942451, 43.111641560123111 ], [ 131.925331363922595, 43.111625637486931 ], [ 131.925312894737431, 43.11155490290421 ], [ 131.925307516363461, 43.111525075643563 ], [ 131.92518518066305, 43.11153293850046 ], [ 131.925058680034084, 43.111485217640023 ], [ 131.924999523912788, 43.111488362606607 ], [ 131.924898127750538, 43.111493805946587 ], [ 131.924732118456689, 43.111576025685991 ], [ 131.924759202575984, 43.111891886697066 ], [ 131.925351910624158, 43.111798715455812 ], [ 131.925431967278627, 43.111789909456647 ], [ 131.925567961218206, 43.111765979012759 ], [ 131.925544678138749, 43.111708355911489 ] ] ] ] } },
{ "type": "Feature", "properties": { "fid": 5, "Layer": "10 - ценные фрагменты благоустройства", "PaperSpace": null, "SubClasses": "AcDbEntity:AcDbPolyline", "Linetype": "ByLayer", "EntityHandle": "5B3", "Text": null, "ogr_style": "PEN(c:#000000)", "font": null, "angle": null, "size": null, "size_u": null, "anchor": null, "color": "#000000", "underline": null, "plaintext": null, "fcolor": null, "flnum": null, "bold": null, "italic": null, "dx": null, "dx_u": null, "dy": null, "dy_u": null }, "geometry": { "type": "MultiPolygon", "coordinates": [ [ [ [ 131.881814180993899, 43.11561395148739 ], [ 131.881831034797045, 43.115655482442733 ], [ 131.881858283962003, 43.115670986534369 ], [ 131.882004726934525, 43.115651955854617 ], [ 131.881988525306241, 43.115605334678555 ], [ 131.881978822502674, 43.115596323297588 ], [ 131.881974013744269, 43.115578196423883 ], [ 131.881963638492721, 43.115552058010095 ], [ 131.881857087187484, 43.115270639683295 ], [ 131.881824431695094, 43.115182778327359 ], [ 131.88176400713769, 43.115241013035501 ], [ 131.881728392847378, 43.115359253892372 ], [ 131.881814180993899, 43.11561395148739 ] ] ] ] } },
{ "type": "Feature", "properties": { "fid": 6, "Layer": "10 - ценные фрагменты благоустройства", "PaperSpace": null, "SubClasses": "AcDbEntity:AcDbPolyline", "Linetype": "ByLayer", "EntityHandle": "5B5", "Text": null, "ogr_style": "PEN(c:#000000)", "font": null, "angle": null, "size": null, "size_u": null, "anchor": null, "color": "#000000", "underline": null, "plaintext": null, "fcolor": null, "flnum": null, "bold": null, "italic": null, "dx": null, "dx_u": null, "dy": null, "dy_u": null }, "geometry": { "type": "MultiPolygon", "coordinates": [ [ [ [ 131.875198758326349, 43.114905072014174 ], [ 131.875247320149469, 43.114920338865829 ], [ 131.875261567081054, 43.114917747035413 ], [ 131.87527841023072, 43.114911839739499 ], [ 131.875299798447941, 43.114899300304593 ], [ 131.875310504852422, 43.114886986168258 ], [ 131.875410727972877, 43.114684166522068 ], [ 131.875414371527881, 43.114669513065735 ], [ 131.875414579387865, 43.11465695675723 ], [ 131.875405783887743, 43.114624202576117 ], [ 131.875388139875838, 43.114593424804397 ], [ 131.875152343639655, 43.114355265589133 ], [ 131.874925677450676, 43.114120349380812 ], [ 131.874896348547253, 43.114085180417909 ], [ 131.874885404511929, 43.114058309414325 ], [ 131.874877637201536, 43.114027613368911 ], [ 131.87487521836411, 43.113978644911612 ], [ 131.874877932556672, 43.113956462244666 ], [ 131.874944510194069, 43.113677198420433 ], [ 131.874948644784411, 43.113637780327828 ], [ 131.874958242983467, 43.113598876413754 ], [ 131.874973204765325, 43.113560892066474 ], [ 131.874993374215279, 43.113524223091375 ], [ 131.875018541154361, 43.113489251586735 ], [ 131.875048443329973, 43.113456341962205 ], [ 131.875082769149259, 43.113425837141705 ], [ 131.875121160925431, 43.113398054990178 ], [ 131.875130324780542, 43.113383004273821 ], [ 131.875138783223576, 43.113356262365762 ], [ 131.875142839164937, 43.113321486977419 ], [ 131.875141489645983, 43.113296291339651 ], [ 131.875134826443769, 43.113272367354057 ], [ 131.875118508422815, 43.11324599808507 ], [ 131.875095214408958, 43.113220571357957 ], [ 131.875062787316637, 43.113197998697359 ], [ 131.875031696953016, 43.11318190183686 ], [ 131.87500817689525, 43.113179533603287 ], [ 131.874633119628953, 43.11387807741604 ], [ 131.87458393251157, 43.113957558468194 ], [ 131.87457029970372, 43.113991782841332 ], [ 131.874562107337937, 43.114026013189878 ], [ 131.874558673408274, 43.114054068925924 ], [ 131.874560828540638, 43.11408219294519 ], [ 131.874568079493002, 43.11411908206604 ], [ 131.874577138578417, 43.114156297187264 ], [ 131.874612488734726, 43.114260306230115 ], [ 131.874637903419995, 43.114314961869603 ], [ 131.874668340235957, 43.114363636329728 ], [ 131.874695061417498, 43.114398754076113 ], [ 131.874891194894445, 43.114602450380318 ], [ 131.874894467059846, 43.114600638412043 ], [ 131.875198758326349, 43.114905072014174 ] ] ] ] } },
{ "type": "Feature", "properties": { "fid": 7, "Layer": "10 - ценные фрагменты благоустройства", "PaperSpace": null, "SubClasses": "AcDbEntity:AcDbPolyline", "Linetype": "ByLayer", "EntityHandle": "5B7", "Text": null, "ogr_style": "PEN(c:#000000)", "font": null, "angle": null, "size": null, "size_u": null, "anchor": null, "color": "#000000", "underline": null, "plaintext": null, "fcolor": null, "flnum": null, "bold": null, "italic": null, "dx": null, "dx_u": null, "dy": null, "dy_u": null }, "geometry": { "type": "MultiPolygon", "coordinates": [ [ [ [ 131.887128294059636, 43.12209583763422 ], [ 131.887562285671294, 43.122022392310171 ], [ 131.887420163756843, 43.121545971504112 ], [ 131.887205759807102, 43.121587818012699 ], [ 131.887135146410998, 43.121396494469074 ], [ 131.886875790896596, 43.121447263652264 ], [ 131.887128294059636, 43.12209583763422 ] ] ] ] } },
{ "type": "Feature", "properties": { "fid": 8, "Layer": "10 - ценные фрагменты благоустройства", "PaperSpace": null, "SubClasses": "AcDbEntity:AcDbPolyline", "Linetype": "ByLayer", "EntityHandle": "5B9", "Text": null, "ogr_style": "PEN(c:#000000)", "font": null, "angle": null, "size": null, "size_u": null, "anchor": null, "color": "#000000", "underline": null, "plaintext": null, "fcolor": null, "flnum": null, "bold": null, "italic": null, "dx": null, "dx_u": null, "dy": null, "dy_u": null }, "geometry": { "type": "MultiPolygon", "coordinates": [ [ [ [ 131.913718371925228, 43.113517850140603 ], [ 131.914624987257213, 43.113334182717018 ], [ 131.914534424834585, 43.113139257693227 ], [ 131.913639658767778, 43.11333065676817 ], [ 131.913718371925228, 43.113517850140603 ] ] ] ] } },
{ "type": "Feature", "properties": { "fid": 9, "Layer": "10 - ценные фрагменты благоустройства", "PaperSpace": null, "SubClasses": "AcDbEntity:AcDbPolyline", "Linetype": "ByLayer", "EntityHandle": "5BB", "Text": null, "ogr_style": "PEN(c:#000000)", "font": null, "angle": null, "size": null, "size_u": null, "anchor": null, "color": "#000000", "underline": null, "plaintext": null, "fcolor": null, "flnum": null, "bold": null, "italic": null, "dx": null, "dx_u": null, "dy": null, "dy_u": null }, "geometry": { "type": "MultiPolygon", "coordinates": [ [ [ [ 131.880385227837252, 43.119125861207642 ], [ 131.881292025112799, 43.118942458274311 ], [ 131.881186125450313, 43.118608755270678 ], [ 131.880197721883405, 43.118812677071006 ], [ 131.880308528268927, 43.119085489843279 ], [ 131.880385227837252, 43.119125861207642 ] ] ] ] } },
{ "type": "Feature", "properties": { "fid": 10, "Layer": "10 - ценные фрагменты благоустройства", "PaperSpace": null, "SubClasses": "AcDbEntity:AcDbPolyline", "Linetype": "ByLayer", "EntityHandle": "5BD", "Text": null, "ogr_style": "PEN(c:#000000)", "font": null, "angle": null, "size": null, "size_u": null, "anchor": null, "color": "#000000", "underline": null, "plaintext": null, "fcolor": null, "flnum": null, "bold": null, "italic": null, "dx": null, "dx_u": null, "dy": null, "dy_u": null }, "geometry": { "type": "MultiPolygon", "coordinates": [ [ [ [ 131.940728921576635, 43.125358967658954 ], [ 131.942405221090695, 43.125229508012204 ], [ 131.943103177479628, 43.12490362281914 ], [ 131.943855098684622, 43.124254159786958 ], [ 131.944683423794658, 43.123706881133806 ], [ 131.945185865349345, 43.123720804684062 ], [ 131.945934890116689, 43.123477829786189 ], [ 131.943432044257833, 43.119075464835468 ], [ 131.94310748838771, 43.118940019657636 ], [ 131.942168995657909, 43.119079644494022 ], [ 131.942049041725937, 43.11916150934848 ], [ 131.941214838102155, 43.119475239134793 ], [ 131.941708876620964, 43.120694559760622 ], [ 131.940552101368354, 43.121075558068171 ], [ 131.939699158399065, 43.12136635254577 ], [ 131.939374916661194, 43.120864945299708 ], [ 131.9403112860671, 43.120579906305764 ], [ 131.940312905112364, 43.119677456388651 ], [ 131.940008232835282, 43.118881410125404 ], [ 131.939788605697771, 43.117811371792797 ], [ 131.939059718561168, 43.116162683124706 ], [ 131.938490903782764, 43.116129985967071 ], [ 131.93776882760406, 43.11611258505598 ], [ 131.937566763922092, 43.11612271764097 ], [ 131.937498298013395, 43.116135970196211 ], [ 131.937430811636602, 43.116155691508851 ], [ 131.937348329641338, 43.116191363314705 ], [ 131.93715629578108, 43.116318819411845 ], [ 131.936975800727424, 43.116531449842867 ], [ 131.936905158565395, 43.116606137838588 ], [ 131.936829110871685, 43.116729899692203 ], [ 131.936904248789546, 43.116866444531674 ], [ 131.937170085332582, 43.117329307501862 ], [ 131.937243085559288, 43.117410439951307 ], [ 131.937403824021914, 43.11782118680879 ], [ 131.93745993073577, 43.117961084975349 ], [ 131.937506682360123, 43.118102816767767 ], [ 131.937543968156575, 43.118246046670251 ], [ 131.937571699793068, 43.118390435618252 ], [ 131.937589811553067, 43.118535641801195 ], [ 131.937598260492138, 43.118681321471314 ], [ 131.937597026540232, 43.118827129757605 ], [ 131.937586112549582, 43.118972721482137 ], [ 131.937479767959417, 43.119663276647977 ], [ 131.938154108605232, 43.12113235090797 ], [ 131.940236836850119, 43.124681508669042 ], [ 131.940422227391423, 43.125314543549081 ], [ 131.940728921576635, 43.125358967658954 ] ] ] ] } },
{ "type": "Feature", "properties": { "fid": 11, "Layer": "10 - ценные фрагменты благоустройства", "PaperSpace": null, "SubClasses": "AcDbEntity:AcDbPolyline", "Linetype": "ByLayer", "EntityHandle": "5BF", "Text": null, "ogr_style": "PEN(c:#000000)", "font": null, "angle": null, "size": null, "size_u": null, "anchor": null, "color": "#000000", "underline": null, "plaintext": null, "fcolor": null, "flnum": null, "bold": null, "italic": null, "dx": null, "dx_u": null, "dy": null, "dy_u": null }, "geometry": { "type": "MultiPolygon", "coordinates": [ [ [ [ 131.894170381146097, 43.117097812636494 ], [ 131.895344028299036, 43.116860350575521 ], [ 131.895041262048295, 43.115991675403556 ], [ 131.895036808177764, 43.115983426189125 ], [ 131.895022528072417, 43.115971468819161 ], [ 131.894998556069083, 43.115966060221218 ], [ 131.894972482309925, 43.115970385680477 ], [ 131.894922123797016, 43.115993605539835 ], [ 131.894875652731514, 43.11602358229198 ], [ 131.894847246018884, 43.116050823976835 ], [ 131.894038013634258, 43.117065582672076 ], [ 131.894055578411383, 43.117090128187193 ], [ 131.894088275271599, 43.117101172582593 ], [ 131.894170381146097, 43.117097812636494 ] ] ] ] } },
{ "type": "Feature", "properties": { "fid": 12, "Layer": "10 - ценные фрагменты благоустройства", "PaperSpace": null, "SubClasses": "AcDbEntity:AcDbPolyline", "Linetype": "ByLayer", "EntityHandle": "5C1", "Text": null, "ogr_style": "PEN(c:#000000)", "font": null, "angle": null, "size": null, "size_u": null, "anchor": null, "color": "#000000", "underline": null, "plaintext": null, "fcolor": null, "flnum": null, "bold": null, "italic": null, "dx": null, "dx_u": null, "dy": null, "dy_u": null }, "geometry": { "type": "MultiPolygon", "coordinates": [ [ [ [ 131.89294716211316, 43.115643041500462 ], [ 131.893694833345648, 43.115500293079656 ], [ 131.893496245927338, 43.114919551578822 ], [ 131.893452631792542, 43.114880282017943 ], [ 131.89342461564712, 43.114869992730299 ], [ 131.893077305473241, 43.114806869482308 ], [ 131.892957100556288, 43.114527192084644 ], [ 131.892597109293149, 43.114590702449178 ], [ 131.892860940727445, 43.115348724545427 ], [ 131.89285514936924, 43.115375090236931 ], [ 131.892861695660798, 43.11540739500095 ], [ 131.89294716211316, 43.115643041500462 ] ] ] ] } },
{ "type": "Feature", "properties": { "fid": 13, "Layer": "10 - ценные фрагменты благоустройства", "PaperSpace": null, "SubClasses": "AcDbEntity:AcDbPolyline", "Linetype": "ByLayer", "EntityHandle": "5C3", "Text": null, "ogr_style": "PEN(c:#000000)", "font": null, "angle": null, "size": null, "size_u": null, "anchor": null, "color": "#000000", "underline": null, "plaintext": null, "fcolor": null, "flnum": null, "bold": null, "italic": null, "dx": null, "dx_u": null, "dy": null, "dy_u": null }, "geometry": { "type": "MultiPolygon", "coordinates": [ [ [ [ 131.901196959343253, 43.115354273447522 ], [ 131.901315281761583, 43.115445798198003 ], [ 131.901595288554404, 43.115521446887875 ], [ 131.90171633258521, 43.115262277731375 ], [ 131.9014706093038, 43.115082118230184 ], [ 131.901430270631039, 43.115080491940283 ], [ 131.901348899584434, 43.11504413041353 ], [ 131.901333613766468, 43.115023416878856 ], [ 131.901352005508954, 43.114995551004903 ], [ 131.901297865978279, 43.114971443310104 ], [ 131.901311625256199, 43.114947394334365 ], [ 131.901200247140849, 43.114884931541724 ], [ 131.901092941119856, 43.115114721960417 ], [ 131.901073722536267, 43.115206989017182 ], [ 131.901027842714512, 43.115313603996505 ], [ 131.901196959343253, 43.115354273447522 ] ] ] ] } },
{ "type": "Feature", "properties": { "fid": 14, "Layer": "10 - ценные фрагменты благоустройства", "PaperSpace": null, "SubClasses": "AcDbEntity:AcDbPolyline", "Linetype": "ByLayer", "EntityHandle": "5C5", "Text": null, "ogr_style": "PEN(c:#000000)", "font": null, "angle": null, "size": null, "size_u": null, "anchor": null, "color": "#000000", "underline": null, "plaintext": null, "fcolor": null, "flnum": null, "bold": null, "italic": null, "dx": null, "dx_u": null, "dy": null, "dy_u": null }, "geometry": { "type": "MultiPolygon", "coordinates": [ [ [ [ 131.902762544487871, 43.114686764825393 ], [ 131.902989616868808, 43.114755339090813 ], [ 131.903017298443274, 43.114687272914537 ], [ 131.902868566833689, 43.114516139782971 ], [ 131.902889435122603, 43.114476810131755 ], [ 131.902631016434896, 43.114134010848908 ], [ 131.902578273865515, 43.114113128747185 ], [ 131.902478283651476, 43.113923344646963 ], [ 131.902436285355265, 43.113879848083556 ], [ 131.90226441570212, 43.113966085818454 ], [ 131.902117694830196, 43.114065686439702 ], [ 131.902124771143889, 43.114111477481451 ], [ 131.902050525383316, 43.114117635616793 ], [ 131.90205406456073, 43.114140537895942 ], [ 131.901784869527745, 43.114162865213586 ], [ 131.901782690252702, 43.114148762566103 ], [ 131.901684838385904, 43.114156878341298 ], [ 131.901591183822177, 43.114185879684335 ], [ 131.901508573434285, 43.114340528697916 ], [ 131.901420623941533, 43.114318429110455 ], [ 131.901342352495703, 43.11448020207709 ], [ 131.901181627755165, 43.114452725512201 ], [ 131.901121997486456, 43.114591358144942 ], [ 131.901863595741503, 43.114795301159774 ], [ 131.901885647709861, 43.114749151317632 ], [ 131.901929017492392, 43.114758831878824 ], [ 131.902026709383904, 43.114529904464874 ], [ 131.902762544487871, 43.114686764825393 ] ] ] ] } },
{ "type": "Feature", "properties": { "fid": 15, "Layer": "10 - ценные фрагменты благоустройства", "PaperSpace": null, "SubClasses": "AcDbEntity:AcDbPolyline", "Linetype": "ByLayer", "EntityHandle": "5C7", "Text": null, "ogr_style": "PEN(c:#000000)", "font": null, "angle": null, "size": null, "size_u": null, "anchor": null, "color": "#000000", "underline": null, "plaintext": null, "fcolor": null, "flnum": null, "bold": null, "italic": null, "dx": null, "dx_u": null, "dy": null, "dy_u": null }, "geometry": { "type": "MultiPolygon", "coordinates": [ [ [ [ 131.908219850729836, 43.116662641963373 ], [ 131.908469252754486, 43.116600738346655 ], [ 131.908491592374617, 43.116566285405291 ], [ 131.908208371071794, 43.115992396734178 ], [ 131.908170284573487, 43.115988534007258 ], [ 131.907909175239666, 43.116121521880267 ], [ 131.908219850729836, 43.116662641963373 ] ] ] ] } },
{ "type": "Feature", "properties": { "fid": 16, "Layer": "10 - ценные фрагменты благоустройства", "PaperSpace": null, "SubClasses": "AcDbEntity:AcDbPolyline", "Linetype": "ByLayer", "EntityHandle": "5C9", "Text": null, "ogr_style": "PEN(c:#000000)", "font": null, "angle": null, "size": null, "size_u": null, "anchor": null, "color": "#000000", "underline": null, "plaintext": null, "fcolor": null, "flnum": null, "bold": null, "italic": null, "dx": null, "dx_u": null, "dy": null, "dy_u": null }, "geometry": { "type": "MultiPolygon", "coordinates": [ [ [ [ 131.911402201334027, 43.114127715118052 ], [ 131.911468019293324, 43.114304652009999 ], [ 131.911475653899799, 43.114340798876057 ], [ 131.911612371799407, 43.114610454379189 ], [ 131.911690041503448, 43.114718118628389 ], [ 131.911776162332245, 43.114825556358596 ], [ 131.911790590913654, 43.11483897912472 ], [ 131.911809064242505, 43.114843906512185 ], [ 131.911836276710432, 43.114843230977598 ], [ 131.912214742280383, 43.114753492953326 ], [ 131.912111756357547, 43.114520118301797 ], [ 131.912073180685752, 43.11452798372909 ], [ 131.911831964666931, 43.113922126400674 ], [ 131.91186158823254, 43.113901032945918 ], [ 131.911815773977565, 43.113785957159067 ], [ 131.911491985112832, 43.113871421773915 ], [ 131.911515198355573, 43.113985062628302 ], [ 131.911402201334027, 43.114127715118052 ] ] ] ] } },
{ "type": "Feature", "properties": { "fid": 17, "Layer": "10 - ценные фрагменты благоустройства", "PaperSpace": null, "SubClasses": "AcDbEntity:AcDbPolyline", "Linetype": "ByLayer", "EntityHandle": "5CB", "Text": null, "ogr_style": "PEN(c:#000000)", "font": null, "angle": null, "size": null, "size_u": null, "anchor": null, "color": "#000000", "underline": null, "plaintext": null, "fcolor": null, "flnum": null, "bold": null, "italic": null, "dx": null, "dx_u": null, "dy": null, "dy_u": null }, "geometry": { "type": "MultiPolygon", "coordinates": [ [ [ [ 131.89799671354308, 43.113855991661545 ], [ 131.899792928256943, 43.114264015120888 ], [ 131.8998283486373, 43.11422785518149 ], [ 131.899832503545468, 43.11420557140103 ], [ 131.89984124400371, 43.114186436069126 ], [ 131.89985228426093, 43.114167949738778 ], [ 131.899865535920668, 43.114150260421816 ], [ 131.899880892881129, 43.114133509748456 ], [ 131.899898232184711, 43.114117831833589 ], [ 131.899917415002335, 43.114103352202832 ], [ 131.899938287744874, 43.114090186787728 ], [ 131.899960683293443, 43.114078440997439 ], [ 131.899914113428622, 43.113997393823702 ], [ 131.899706479953664, 43.113945376476153 ], [ 131.899716800049475, 43.113905648322884 ], [ 131.899698713003289, 43.113870059227445 ], [ 131.899675832740002, 43.113861725233058 ], [ 131.899064793340983, 43.113758224256976 ], [ 131.899047921283994, 43.113764043274593 ], [ 131.899011276431708, 43.113758195528639 ], [ 131.89898990348803, 43.113763013814001 ], [ 131.898962381988667, 43.113764315017292 ], [ 131.898927699882023, 43.113761767633804 ], [ 131.898749917545672, 43.11373013894223 ], [ 131.898606655334959, 43.113706549405677 ], [ 131.898520631299448, 43.113688887288532 ], [ 131.898474030149629, 43.113675780902682 ], [ 131.898416910928518, 43.113645172723061 ], [ 131.898355992423546, 43.113566168822459 ], [ 131.898305805145441, 43.113522668360055 ], [ 131.898248968868444, 43.113463328262661 ], [ 131.898176519869509, 43.113438288618049 ], [ 131.898068101252193, 43.113414609083009 ], [ 131.897864023547953, 43.113377938991071 ], [ 131.897609168432211, 43.113376329026906 ], [ 131.897522359685581, 43.113364154484024 ], [ 131.897374761462117, 43.113313672180709 ], [ 131.897315734411393, 43.11330511239273 ], [ 131.897219313042285, 43.113457001302613 ], [ 131.897073448240633, 43.11368893346279 ], [ 131.897825588362196, 43.113818077895701 ], [ 131.89799671354308, 43.113855991661545 ] ] ] ] } },
{ "type": "Feature", "properties": { "fid": 18, "Layer": "10 - ценные фрагменты благоустройства", "PaperSpace": null, "SubClasses": "AcDbEntity:AcDbPolyline", "Linetype": "ByLayer", "EntityHandle": "5CD", "Text": null, "ogr_style": "PEN(c:#000000)", "font": null, "angle": null, "size": null, "size_u": null, "anchor": null, "color": "#000000", "underline": null, "plaintext": null, "fcolor": null, "flnum": null, "bold": null, "italic": null, "dx": null, "dx_u": null, "dy": null, "dy_u": null }, "geometry": { "type": "MultiPolygon", "coordinates": [ [ [ [ 131.896659233273226, 43.114346231312766 ], [ 131.89680683739445, 43.114340330003998 ], [ 131.896929118170931, 43.114340146426599 ], [ 131.897371945889006, 43.114388599884251 ], [ 131.897453013938076, 43.114184415531447 ], [ 131.897492602992315, 43.114170231456448 ], [ 131.897692557051272, 43.114211678874092 ], [ 131.897775011367884, 43.114022163800975 ], [ 131.89749278720376, 43.113988239754242 ], [ 131.897348281923882, 43.113969060799285 ], [ 131.897032823479407, 43.113935133745443 ], [ 131.896734660090374, 43.113902185728975 ], [ 131.896659928808219, 43.113933977590847 ], [ 131.896655933153681, 43.114015202872778 ], [ 131.896659233273226, 43.114346231312766 ] ] ] ] } },
{ "type": "Feature", "properties": { "fid": 19, "Layer": "10 - ценные фрагменты благоустройства", "PaperSpace": null, "SubClasses": "AcDbEntity:AcDbPolyline", "Linetype": "ByLayer", "EntityHandle": "5CF", "Text": null, "ogr_style": "PEN(c:#000000)", "font": null, "angle": null, "size": null, "size_u": null, "anchor": null, "color": "#000000", "underline": null, "plaintext": null, "fcolor": null, "flnum": null, "bold": null, "italic": null, "dx": null, "dx_u": null, "dy": null, "dy_u": null }, "geometry": { "type": "MultiPolygon", "coordinates": [ [ [ [ 131.876755248017645, 43.116282936581158 ], [ 131.876782595231532, 43.116301592857596 ], [ 131.876788189889112, 43.116322816891397 ], [ 131.87695696531901, 43.116458692703823 ], [ 131.877087271568001, 43.116552907250103 ], [ 131.87709697749068, 43.116556150084747 ], [ 131.877115518519389, 43.116556601027447 ], [ 131.877235717182316, 43.116542886466164 ], [ 131.877258103904694, 43.116535786671911 ], [ 131.877268051391923, 43.116519481427325 ], [ 131.877270329913756, 43.116501041697276 ], [ 131.877247118106538, 43.116349274921788 ], [ 131.87725201136999, 43.116339810881428 ], [ 131.877500061910951, 43.116301326388694 ], [ 131.877548171497267, 43.116277654320349 ], [ 131.877603376407649, 43.116275166169757 ], [ 131.877665948948902, 43.116278724201912 ], [ 131.877733880081053, 43.116292541214463 ], [ 131.877758084191896, 43.116186454633237 ], [ 131.877792448319695, 43.1161530492545 ], [ 131.877795449417874, 43.116124372661531 ], [ 131.877790335651554, 43.116114464179688 ], [ 131.877765979524526, 43.116095820218355 ], [ 131.877607206244534, 43.115999182785735 ], [ 131.877439277488946, 43.115871425885253 ], [ 131.877396857208481, 43.115822433276477 ], [ 131.87721147882155, 43.115815850599049 ], [ 131.877165888043351, 43.115777274724302 ], [ 131.876968259185105, 43.115798614962735 ], [ 131.876916506727213, 43.115797002690705 ], [ 131.876874652814365, 43.115788131556705 ], [ 131.876591599127522, 43.115575352666667 ], [ 131.876575568640021, 43.11553813272841 ], [ 131.876509163946508, 43.115537972215606 ], [ 131.876171947063995, 43.115829172763384 ], [ 131.876533985285164, 43.116116706681737 ], [ 131.876556381100329, 43.116107676314861 ], [ 131.876763699507563, 43.116277099087917 ], [ 131.876755248017645, 43.116282936581158 ] ] ] ] } },
{ "type": "Feature", "properties": { "fid": 20, "Layer": "10 - ценные фрагменты благоустройства", "PaperSpace": null, "SubClasses": "AcDbEntity:AcDbPolyline", "Linetype": "ByLayer", "EntityHandle": "5D1", "Text": null, "ogr_style": "PEN(c:#000000)", "font": null, "angle": null, "size": null, "size_u": null, "anchor": null, "color": "#000000", "underline": null, "plaintext": null, "fcolor": null, "flnum": null, "bold": null, "italic": null, "dx": null, "dx_u": null, "dy": null, "dy_u": null }, "geometry": { "type": "MultiPolygon", "coordinates": [ [ [ [ 131.88841771235613, 43.115158322097656 ], [ 131.889116968274379, 43.11501767987918 ], [ 131.889022436565511, 43.114754745661486 ], [ 131.888310707946061, 43.114883951670222 ], [ 131.888286589847667, 43.114903731041458 ], [ 131.888272247159705, 43.114905483311581 ], [ 131.888258648523276, 43.11490925539087 ], [ 131.888246318423313, 43.11491490179435 ], [ 131.888235732418678, 43.1149222047463 ], [ 131.888227298801183, 43.114930882579593 ], [ 131.888221342847487, 43.114940600599454 ], [ 131.888218094273725, 43.114950983991712 ], [ 131.888217678375497, 43.114961632279616 ], [ 131.888287583663782, 43.115140332533251 ], [ 131.888336523936488, 43.115175492064978 ], [ 131.88841771235613, 43.115158322097656 ] ] ] ] } },
{ "type": "Feature", "properties": { "fid": 21, "Layer": "10 - ценные фрагменты благоустройства", "PaperSpace": null, "SubClasses": "AcDbEntity:AcDbPolyline", "Linetype": "ByLayer", "EntityHandle": "5D3", "Text": null, "ogr_style": "PEN(c:#000000)", "font": null, "angle": null, "size": null, "size_u": null, "anchor": null, "color": "#000000", "underline": null, "plaintext": null, "fcolor": null, "flnum": null, "bold": null, "italic": null, "dx": null, "dx_u": null, "dy": null, "dy_u": null }, "geometry": { "type": "MultiPolygon", "coordinates": [ [ [ [ 131.925739986422684, 43.11273740648155 ], [ 131.92574651189895, 43.112673688314047 ], [ 131.925570904085134, 43.112658386640568 ], [ 131.925601232387351, 43.112411958466623 ], [ 131.925499446425334, 43.112409836037571 ], [ 131.924748704481772, 43.112420786317486 ], [ 131.924753281766669, 43.113442217917701 ], [ 131.925088262875278, 43.113441038071244 ], [ 131.925747137451168, 43.113423475241888 ], [ 131.925687159695542, 43.113338643400489 ], [ 131.925695535124021, 43.113119285843837 ], [ 131.925776329672118, 43.113085813015886 ], [ 131.925808101806552, 43.112739043078342 ], [ 131.925739986422684, 43.11273740648155 ] ] ] ] } },
{ "type": "Feature", "properties": { "fid": 22, "Layer": "10 - ценные фрагменты благоустройства", "PaperSpace": null, "SubClasses": "AcDbEntity:AcDbPolyline", "Linetype": "ByLayer", "EntityHandle": "5D5", "Text": null, "ogr_style": "PEN(c:#000000)", "font": null, "angle": null, "size": null, "size_u": null, "anchor": null, "color": "#000000", "underline": null, "plaintext": null, "fcolor": null, "flnum": null, "bold": null, "italic": null, "dx": null, "dx_u": null, "dy": null, "dy_u": null }, "geometry": { "type": "MultiPolygon", "coordinates": [ [ [ [ 131.893323740315424, 43.113866272098171 ], [ 131.893848635917522, 43.113766656990578 ], [ 131.89365223733148, 43.113197326874982 ], [ 131.893370061418779, 43.113226505977565 ], [ 131.893103893987728, 43.113280308750333 ], [ 131.893323740315424, 43.113866272098171 ] ] ] ] } },
{ "type": "Feature", "properties": { "fid": 23, "Layer": "10 - ценные фрагменты благоустройства", "PaperSpace": null, "SubClasses": "AcDbEntity:AcDbPolyline", "Linetype": "ByLayer", "EntityHandle": "5D7", "Text": null, "ogr_style": "PEN(c:#000000)", "font": null, "angle": null, "size": null, "size_u": null, "anchor": null, "color": "#000000", "underline": null, "plaintext": null, "fcolor": null, "flnum": null, "bold": null, "italic": null, "dx": null, "dx_u": null, "dy": null, "dy_u": null }, "geometry": { "type": "MultiPolygon", "coordinates": [ [ [ [ 131.891550470901308, 43.11449228577726 ], [ 131.892388290869008, 43.114334453172752 ], [ 131.892438778861504, 43.11422240865808 ], [ 131.892197949888327, 43.113448350070676 ], [ 131.890516764970641, 43.113868923263091 ], [ 131.890636448745454, 43.114142693588327 ], [ 131.891382846706989, 43.114012952128697 ], [ 131.891550470901308, 43.11449228577726 ] ] ] ] } },
{ "type": "Feature", "properties": { "fid": 24, "Layer": "10 - ценные фрагменты благоустройства", "PaperSpace": null, "SubClasses": "AcDbEntity:AcDbPolyline", "Linetype": "ByLayer", "EntityHandle": "5D9", "Text": null, "ogr_style": "PEN(c:#000000)", "font": null, "angle": null, "size": null, "size_u": null, "anchor": null, "color": "#000000", "underline": null, "plaintext": null, "fcolor": null, "flnum": null, "bold": null, "italic": null, "dx": null, "dx_u": null, "dy": null, "dy_u": null }, "geometry": { "type": "MultiPolygon", "coordinates": [ [ [ [ 131.891842986043486, 43.118607105274585 ], [ 131.892564762396859, 43.118470920276152 ], [ 131.892363240300426, 43.117821122522194 ], [ 131.892318615061725, 43.117769905518408 ], [ 131.891599215720959, 43.117907078250653 ], [ 131.891527642529638, 43.117916110931723 ], [ 131.891512882774862, 43.117873417649427 ], [ 131.891410556208768, 43.117891631330586 ], [ 131.891235923666699, 43.117938703378307 ], [ 131.891123880171932, 43.11800275649373 ], [ 131.891057905861572, 43.118052929816407 ], [ 131.89101267505842, 43.118113928437218 ], [ 131.890988872420678, 43.118177044844401 ], [ 131.890987906255333, 43.118224166916633 ], [ 131.891023613701179, 43.118361989966367 ], [ 131.891134906759163, 43.118683811692861 ], [ 131.891209427463622, 43.118699982936164 ], [ 131.891842986043486, 43.118607105274585 ] ] ] ] } },
{ "type": "Feature", "properties": { "fid": 25, "Layer": "10 - ценные фрагменты благоустройства", "PaperSpace": null, "SubClasses": "AcDbEntity:AcDbPolyline", "Linetype": "ByLayer", "EntityHandle": "5DB", "Text": null, "ogr_style": "PEN(c:#000000)", "font": null, "angle": null, "size": null, "size_u": null, "anchor": null, "color": "#000000", "underline": null, "plaintext": null, "fcolor": null, "flnum": null, "bold": null, "italic": null, "dx": null, "dx_u": null, "dy": null, "dy_u": null }, "geometry": { "type": "MultiPolygon", "coordinates": [ [ [ [ 131.893075779744919, 43.117188424978153 ], [ 131.893139613014938, 43.117176971111903 ], [ 131.893207464547885, 43.117193530500423 ], [ 131.893288152054538, 43.117107330136136 ], [ 131.893258543806724, 43.117044810553004 ], [ 131.893239198290502, 43.117045218585197 ], [ 131.893238774861771, 43.117013591300967 ], [ 131.89317560354317, 43.116844735548391 ], [ 131.892924818778567, 43.11610290186735 ], [ 131.89285891229494, 43.115944820246121 ], [ 131.892671404500305, 43.115944226907587 ], [ 131.892651631749942, 43.115989616239872 ], [ 131.89253594456514, 43.116043502142759 ], [ 131.892513129705407, 43.116097163830403 ], [ 131.892493715748714, 43.116430858654716 ], [ 131.892523785653879, 43.116422718630766 ], [ 131.892599170318988, 43.116580185554234 ], [ 131.892588923903389, 43.11660333397306 ], [ 131.892766546185072, 43.116934553955637 ], [ 131.892832470489907, 43.116918754380315 ], [ 131.892883805681606, 43.116951275328262 ], [ 131.893013533796392, 43.117065676414335 ], [ 131.893039987404791, 43.117101944946498 ], [ 131.893075779744919, 43.117188424978153 ] ] ] ] } },
{ "type": "Feature", "properties": { "fid": 26, "Layer": "10 - ценные фрагменты благоустройства", "PaperSpace": null, "SubClasses": "AcDbEntity:AcDbPolyline", "Linetype": "ByLayer", "EntityHandle": "5DD", "Text": null, "ogr_style": "PEN(c:#000000)", "font": null, "angle": null, "size": null, "size_u": null, "anchor": null, "color": "#000000", "underline": null, "plaintext": null, "fcolor": null, "flnum": null, "bold": null, "italic": null, "dx": null, "dx_u": null, "dy": null, "dy_u": null }, "geometry": { "type": "MultiPolygon", "coordinates": [ [ [ [ 131.905131188923491, 43.115854491137618 ], [ 131.905107847589591, 43.115900366826672 ], [ 131.905557910989046, 43.116018511509104 ], [ 131.90558623497563, 43.115972895603186 ], [ 131.9065032911098, 43.115734591304339 ], [ 131.906502589395558, 43.11569321369906 ], [ 131.906493933285986, 43.115661110242783 ], [ 131.906478170918319, 43.115649468379402 ], [ 131.906432730346154, 43.115643529194493 ], [ 131.905866639248188, 43.115732581755964 ], [ 131.905131188923491, 43.115854491137618 ] ] ] ] } },
{ "type": "Feature", "properties": { "fid": 27, "Layer": "10 - ценные фрагменты благоустройства", "PaperSpace": null, "SubClasses": "AcDbEntity:AcDbPolyline", "Linetype": "ByLayer", "EntityHandle": "5DF", "Text": null, "ogr_style": "PEN(c:#000000)", "font": null, "angle": null, "size": null, "size_u": null, "anchor": null, "color": "#000000", "underline": null, "plaintext": null, "fcolor": null, "flnum": null, "bold": null, "italic": null, "dx": null, "dx_u": null, "dy": null, "dy_u": null }, "geometry": { "type": "MultiPolygon", "coordinates": [ [ [ [ 131.890884555790393, 43.115996695270169 ], [ 131.890686170833987, 43.115973437183598 ], [ 131.89059500690621, 43.115973652278555 ], [ 131.89047729076691, 43.115979630394513 ], [ 131.890342850120646, 43.116004142412265 ], [ 131.890268981245555, 43.116047835813333 ], [ 131.89022947293364, 43.116115030056896 ], [ 131.890229282772935, 43.116201533776668 ], [ 131.890256064353224, 43.116291361393351 ], [ 131.890274833283058, 43.116411965348576 ], [ 131.890516817842609, 43.116414884233308 ], [ 131.89070588827866, 43.116567855793981 ], [ 131.890763098006374, 43.116533244241822 ], [ 131.89098272937278, 43.116530180624693 ], [ 131.891496998120289, 43.116437050423308 ], [ 131.891441138197735, 43.116368764494752 ], [ 131.8912844863072, 43.116291971814256 ], [ 131.891144943268472, 43.116229585317441 ], [ 131.891072993372006, 43.116257957459503 ], [ 131.890919895413674, 43.116187068613634 ], [ 131.890824015661622, 43.116114152322687 ], [ 131.890830566352264, 43.11606475840162 ], [ 131.890876845873009, 43.116030438957566 ], [ 131.890884555790393, 43.115996695270169 ] ] ] ] } },
{ "type": "Feature", "properties": { "fid": 28, "Layer": "10 - ценные фрагменты благоустройства", "PaperSpace": null, "SubClasses": "AcDbEntity:AcDbPolyline", "Linetype": "ByLayer", "EntityHandle": "5E1", "Text": null, "ogr_style": "PEN(c:#000000)", "font": null, "angle": null, "size": null, "size_u": null, "anchor": null, "color": "#000000", "underline": null, "plaintext": null, "fcolor": null, "flnum": null, "bold": null, "italic": null, "dx": null, "dx_u": null, "dy": null, "dy_u": null }, "geometry": { "type": "MultiPolygon", "coordinates": [ [ [ [ 131.90068178056859, 43.116409085755855 ], [ 131.901166963846549, 43.116300266977021 ], [ 131.901403395635924, 43.116229138327 ], [ 131.901468449865774, 43.116209127522353 ], [ 131.901588681087247, 43.11615522555217 ], [ 131.901684272162242, 43.116072414644101 ], [ 131.90174172424986, 43.115968057120845 ], [ 131.901206755491359, 43.115826657609745 ], [ 131.901058983207548, 43.11578738927517 ], [ 131.900896226713229, 43.116113261151177 ], [ 131.900829217137044, 43.116099928478263 ], [ 131.90068178056859, 43.116409085755855 ] ] ] ] } },
{ "type": "Feature", "properties": { "fid": 29, "Layer": "10 - ценные фрагменты благоустройства", "PaperSpace": null, "SubClasses": "AcDbEntity:AcDbPolyline", "Linetype": "ByLayer", "EntityHandle": "5E3", "Text": null, "ogr_style": "PEN(c:#000000)", "font": null, "angle": null, "size": null, "size_u": null, "anchor": null, "color": "#000000", "underline": null, "plaintext": null, "fcolor": null, "flnum": null, "bold": null, "italic": null, "dx": null, "dx_u": null, "dy": null, "dy_u": null }, "geometry": { "type": "MultiPolygon", "coordinates": [ [ [ [ 131.874602898864254, 43.113404275699466 ], [ 131.874626469098246, 43.11340958931514 ], [ 131.874771384759242, 43.113119990038555 ], [ 131.874818673315758, 43.112799742949228 ], [ 131.874778366012265, 43.112790016219542 ], [ 131.874733945718788, 43.112785568585068 ], [ 131.874452509718907, 43.112839737177389 ], [ 131.874433906809372, 43.112845215688814 ], [ 131.874409836922922, 43.112856987766428 ], [ 131.874390842984525, 43.11286990459498 ], [ 131.87437569075334, 43.112886623715532 ], [ 131.874602898864254, 43.113404275699466 ] ] ] ] } },
{ "type": "Feature", "properties": { "fid": 30, "Layer": "10 - ценные фрагменты благоустройства", "PaperSpace": null, "SubClasses": "AcDbEntity:AcDbPolyline", "Linetype": "ByLayer", "EntityHandle": "5E5", "Text": null, "ogr_style": "PEN(c:#000000)", "font": null, "angle": null, "size": null, "size_u": null, "anchor": null, "color": "#000000", "underline": null, "plaintext": null, "fcolor": null, "flnum": null, "bold": null, "italic": null, "dx": null, "dx_u": null, "dy": null, "dy_u": null }, "geometry": { "type": "MultiPolygon", "coordinates": [ [ [ [ 131.881814180993899, 43.11561395148739 ], [ 131.881831034797045, 43.115655482442733 ], [ 131.881858283962003, 43.115670986534369 ], [ 131.882004726934525, 43.115651955854617 ], [ 131.881988525306241, 43.115605334678555 ], [ 131.881978822502674, 43.115596323297588 ], [ 131.881974013744269, 43.115578196423883 ], [ 131.881963638492721, 43.115552058010095 ], [ 131.881857087187484, 43.115270639683295 ], [ 131.881824431695094, 43.115182778327359 ], [ 131.88176400713769, 43.115241013035501 ], [ 131.881728392847378, 43.115359253892372 ], [ 131.881814180993899, 43.11561395148739 ] ] ] ] } },
{ "type": "Feature", "properties": { "fid": 31, "Layer": "10 - ценные фрагменты благоустройства", "PaperSpace": null, "SubClasses": "AcDbEntity:AcDbPolyline", "Linetype": "ByLayer", "EntityHandle": "5E7", "Text": null, "ogr_style": "PEN(c:#000000)", "font": null, "angle": null, "size": null, "size_u": null, "anchor": null, "color": "#000000", "underline": null, "plaintext": null, "fcolor": null, "flnum": null, "bold": null, "italic": null, "dx": null, "dx_u": null, "dy": null, "dy_u": null }, "geometry": { "type": "MultiPolygon", "coordinates": [ [ [ [ 131.877616487316544, 43.118853877901543 ], [ 131.8778018269131, 43.118559254953965 ], [ 131.879689549401178, 43.118210887594451 ], [ 131.879339143490199, 43.117192036995789 ], [ 131.879189265386941, 43.117141135041805 ], [ 131.877904027750816, 43.11738499044877 ], [ 131.877614962727904, 43.117447967473318 ], [ 131.877196166128641, 43.117149281997925 ], [ 131.876693099825218, 43.116719548362852 ], [ 131.876710244744373, 43.11668048703087 ], [ 131.876599341578611, 43.116579055430179 ], [ 131.876521735589648, 43.116594000015638 ], [ 131.876357303732163, 43.116435389184389 ], [ 131.875875604921504, 43.116094082247038 ], [ 131.875708976648497, 43.115957327222858 ], [ 131.875742475801474, 43.115938100408826 ], [ 131.875528988281559, 43.115740369714921 ], [ 131.875482394472186, 43.115632153641307 ], [ 131.875260118302009, 43.115405714325057 ], [ 131.875130729329612, 43.115312687334004 ], [ 131.874850210268022, 43.115109564338134 ], [ 131.874663971444932, 43.114916535790023 ], [ 131.874284958771199, 43.115164051000932 ], [ 131.874229589751025, 43.115117853710949 ], [ 131.87408457200263, 43.115210938138091 ], [ 131.87437746511705, 43.115358132763788 ], [ 131.874518513593785, 43.115453769995831 ], [ 131.874613242635434, 43.115580602218756 ], [ 131.874962635823266, 43.115868060123361 ], [ 131.876411863102646, 43.117106044394703 ], [ 131.876753001062752, 43.117210982320209 ], [ 131.877189272698985, 43.117604799063905 ], [ 131.877306340726932, 43.117821204266484 ], [ 131.877341237320138, 43.118110706751224 ], [ 131.877334183797331, 43.118397624735842 ], [ 131.877175894160331, 43.118831797618959 ], [ 131.877115206990027, 43.119002636275191 ], [ 131.876809981137626, 43.119293754282737 ], [ 131.87661203428803, 43.119433901714658 ], [ 131.876423537434249, 43.119656422495979 ], [ 131.875529225046904, 43.120231826526393 ], [ 131.875804916521787, 43.120388509559099 ], [ 131.875461286889816, 43.120723821580917 ], [ 131.875632266062297, 43.120818044739913 ], [ 131.876810962665729, 43.119612163029302 ], [ 131.877047306346299, 43.119600016267732 ], [ 131.877199142453776, 43.119351797454271 ], [ 131.877616487316544, 43.118853877901543 ] ] ] ] } },
{ "type": "Feature", "properties": { "fid": 32, "Layer": "10 - ценные фрагменты благоустройства", "PaperSpace": null, "SubClasses": "AcDbEntity:AcDbPolyline", "Linetype": "ByLayer", "EntityHandle": "5E9", "Text": null, "ogr_style": "PEN(c:#000000)", "font": null, "angle": null, "size": null, "size_u": null, "anchor": null, "color": "#000000", "underline": null, "plaintext": null, "fcolor": null, "flnum": null, "bold": null, "italic": null, "dx": null, "dx_u": null, "dy": null, "dy_u": null }, "geometry": { "type": "MultiPolygon", "coordinates": [ [ [ [ 131.880385227837252, 43.119125861207642 ], [ 131.881292025112799, 43.118942458274311 ], [ 131.881186125450313, 43.118608755270678 ], [ 131.880197721883405, 43.118812677071006 ], [ 131.880308528268927, 43.119085489843279 ], [ 131.880385227837252, 43.119125861207642 ] ] ] ] } },
{ "type": "Feature", "properties": { "fid": 33, "Layer": "10 - ценные фрагменты благоустройства", "PaperSpace": null, "SubClasses": "AcDbEntity:AcDbPolyline", "Linetype": "ByLayer", "EntityHandle": "5EB", "Text": null, "ogr_style": "PEN(c:#000000)", "font": null, "angle": null, "size": null, "size_u": null, "anchor": null, "color": "#000000", "underline": null, "plaintext": null, "fcolor": null, "flnum": null, "bold": null, "italic": null, "dx": null, "dx_u": null, "dy": null, "dy_u": null }, "geometry": { "type": "MultiPolygon", "coordinates": [ [ [ [ 131.88841771235613, 43.115158322097656 ], [ 131.889116968274379, 43.11501767987918 ], [ 131.889022436565511, 43.114754745661486 ], [ 131.888310707946061, 43.114883951670222 ], [ 131.888286589847667, 43.114903731041458 ], [ 131.888272247159705, 43.114905483311581 ], [ 131.888258648523276, 43.11490925539087 ], [ 131.888246318423313, 43.11491490179435 ], [ 131.888235732418678, 43.1149222047463 ], [ 131.888227298801183, 43.114930882579593 ], [ 131.888221342847487, 43.114940600599454 ], [ 131.888218094273725, 43.114950983991712 ], [ 131.888217678375497, 43.114961632279616 ], [ 131.888287583663782, 43.115140332533251 ], [ 131.888336523936488, 43.115175492064978 ], [ 131.88841771235613, 43.115158322097656 ] ] ] ] } },
{ "type": "Feature", "properties": { "fid": 34, "Layer": "10 - ценные фрагменты благоустройства", "PaperSpace": null, "SubClasses": "AcDbEntity:AcDbPolyline", "Linetype": "ByLayer", "EntityHandle": "5ED", "Text": null, "ogr_style": "PEN(c:#000000)", "font": null, "angle": null, "size": null, "size_u": null, "anchor": null, "color": "#000000", "underline": null, "plaintext": null, "fcolor": null, "flnum": null, "bold": null, "italic": null, "dx": null, "dx_u": null, "dy": null, "dy_u": null }, "geometry": { "type": "MultiPolygon", "coordinates": [ [ [ [ 131.891550470901308, 43.11449228577726 ], [ 131.892388290869008, 43.114334453172752 ], [ 131.892438778861504, 43.11422240865808 ], [ 131.892197949888327, 43.113448350070676 ], [ 131.890516764970641, 43.113868923263091 ], [ 131.890636448745454, 43.114142693588327 ], [ 131.891382846706989, 43.114012952128697 ], [ 131.891550470901308, 43.11449228577726 ] ] ] ] } },
{ "type": "Feature", "properties": { "fid": 35, "Layer": "10 - ценные фрагменты благоустройства", "PaperSpace": null, "SubClasses": "AcDbEntity:AcDbPolyline", "Linetype": "ByLayer", "EntityHandle": "5EF", "Text": null, "ogr_style": "PEN(c:#000000)", "font": null, "angle": null, "size": null, "size_u": null, "anchor": null, "color": "#000000", "underline": null, "plaintext": null, "fcolor": null, "flnum": null, "bold": null, "italic": null, "dx": null, "dx_u": null, "dy": null, "dy_u": null }, "geometry": { "type": "MultiPolygon", "coordinates": [ [ [ [ 131.856362959715796, 43.08499789015719 ], [ 131.856691019152862, 43.084993774952032 ], [ 131.856818081545896, 43.084988778946695 ], [ 131.857013350154233, 43.084982495894607 ], [ 131.857033288490982, 43.084981817584158 ], [ 131.85715386100398, 43.084977955013407 ], [ 131.857208560015209, 43.084976061929929 ], [ 131.857331986242599, 43.084971790162825 ], [ 131.857354063110222, 43.084963649006603 ], [ 131.857483735961068, 43.084864497918915 ], [ 131.857680879428955, 43.084713756220125 ], [ 131.857691120986317, 43.084623731334148 ], [ 131.857644702775872, 43.084570906520611 ], [ 131.85758587921373, 43.084551060024218 ], [ 131.857440697044098, 43.084548562018512 ], [ 131.85699187021126, 43.084546590687708 ], [ 131.856894544211656, 43.084546633784491 ], [ 131.856797249276781, 43.084544831065877 ], [ 131.856666347182255, 43.084605859339163 ], [ 131.856587281954859, 43.084665562671653 ], [ 131.856343458626867, 43.084862461084455 ], [ 131.856339749330743, 43.084920736298926 ], [ 131.856362959715796, 43.08499789015719 ] ] ] ] } },
{ "type": "Feature", "properties": { "fid": 36, "Layer": "10 - ценные фрагменты благоустройства", "PaperSpace": null, "SubClasses": "AcDbEntity:AcDbPolyline", "Linetype": "ByLayer", "EntityHandle": "5F1", "Text": null, "ogr_style": "PEN(c:#000000)", "font": null, "angle": null, "size": null, "size_u": null, "anchor": null, "color": "#000000", "underline": null, "plaintext": null, "fcolor": null, "flnum": null, "bold": null, "italic": null, "dx": null, "dx_u": null, "dy": null, "dy_u": null }, "geometry": { "type": "MultiPolygon", "coordinates": [ [ [ [ 131.864819697505226, 43.100251777974336 ], [ 131.864996935224383, 43.100419116732155 ], [ 131.865095102028107, 43.1005146857675 ], [ 131.86554896949346, 43.100894385010882 ], [ 131.865758229492229, 43.100764573828975 ], [ 131.865830740330352, 43.100697829737967 ], [ 131.865868943411613, 43.100699950846852 ], [ 131.866034610699899, 43.100781229267305 ], [ 131.866202987595614, 43.100904205507042 ], [ 131.866288438088674, 43.100901816965298 ], [ 131.86634151551192, 43.100869599373091 ], [ 131.866233411207588, 43.100800202073202 ], [ 131.865761676865759, 43.100490594720952 ], [ 131.865315825296761, 43.10020777632085 ], [ 131.864632062877774, 43.099791374510176 ], [ 131.864542447730543, 43.099739277891295 ], [ 131.864466745853008, 43.099736624302665 ], [ 131.864438965997863, 43.099760525274604 ], [ 131.864415866313209, 43.099805278836662 ], [ 131.864413193989407, 43.099845791306116 ], [ 131.864416706964363, 43.099886269300768 ], [ 131.864819697505226, 43.100251777974336 ] ] ] ] } },
{ "type": "Feature", "properties": { "fid": 37, "Layer": "10 - ценные фрагменты благоустройства", "PaperSpace": null, "SubClasses": "AcDbEntity:AcDbPolyline", "Linetype": "ByLayer", "EntityHandle": "5F3", "Text": null, "ogr_style": "PEN(c:#000000)", "font": null, "angle": null, "size": null, "size_u": null, "anchor": null, "color": "#000000", "underline": null, "plaintext": null, "fcolor": null, "flnum": null, "bold": null, "italic": null, "dx": null, "dx_u": null, "dy": null, "dy_u": null }, "geometry": { "type": "MultiPolygon", "coordinates": [ [ [ [ 131.86776169264175, 43.10199488315385 ], [ 131.867812771275879, 43.101900575741595 ], [ 131.867221287989992, 43.101478147240009 ], [ 131.866825999769929, 43.101185266028821 ], [ 131.866787692340608, 43.101207211912289 ], [ 131.866671453988147, 43.101256668802066 ], [ 131.866607398447769, 43.101286271420101 ], [ 131.866569268132423, 43.10132080698164 ], [ 131.866514757098912, 43.10136169775901 ], [ 131.866198160029057, 43.101476823675256 ], [ 131.866389059615983, 43.1016315278398 ], [ 131.866599900533544, 43.101715272230926 ], [ 131.867065105493282, 43.10185627596838 ], [ 131.867170608135439, 43.101879912558061 ], [ 131.867470627319562, 43.101971302627177 ], [ 131.867737167052837, 43.102048326609726 ], [ 131.86776169264175, 43.10199488315385 ] ] ] ] } },
{ "type": "Feature", "properties": { "fid": 38, "Layer": "10 - ценные фрагменты благоустройства", "PaperSpace": null, "SubClasses": "AcDbEntity:AcDbPolyline", "Linetype": "ByLayer", "EntityHandle": "5F5", "Text": null, "ogr_style": "PEN(c:#000000)", "font": null, "angle": null, "size": null, "size_u": null, "anchor": null, "color": "#000000", "underline": null, "plaintext": null, "fcolor": null, "flnum": null, "bold": null, "italic": null, "dx": null, "dx_u": null, "dy": null, "dy_u": null }, "geometry": { "type": "MultiPolygon", "coordinates": [ [ [ [ 131.873581725171192, 43.10527968164147 ], [ 131.873610365282047, 43.10528991789365 ], [ 131.873702125404549, 43.105312348429948 ], [ 131.873848857589167, 43.105316913695411 ], [ 131.874159034520517, 43.105300022924929 ], [ 131.874145228574037, 43.105285463084776 ], [ 131.873726695593461, 43.1050886209092 ], [ 131.873047793118559, 43.104772252708798 ], [ 131.872865752937713, 43.104692863085845 ], [ 131.872276729957889, 43.104413112741248 ], [ 131.872235404363579, 43.104410469597362 ], [ 131.872069545083491, 43.104337613868502 ], [ 131.871969193460899, 43.104403615948229 ], [ 131.871906989828886, 43.104367705829262 ], [ 131.871838416269895, 43.104436326993898 ], [ 131.87192068260137, 43.104505117414284 ], [ 131.872112127563184, 43.104603080776684 ], [ 131.872857392252513, 43.104945530403576 ], [ 131.873581725171192, 43.10527968164147 ] ] ] ] } },
{ "type": "Feature", "properties": { "fid": 39, "Layer": "10 - ценные фрагменты благоустройства", "PaperSpace": null, "SubClasses": "AcDbEntity:AcDbPolyline", "Linetype": "ByLayer", "EntityHandle": "5F7", "Text": null, "ogr_style": "PEN(c:#000000)", "font": null, "angle": null, "size": null, "size_u": null, "anchor": null, "color": "#000000", "underline": null, "plaintext": null, "fcolor": null, "flnum": null, "bold": null, "italic": null, "dx": null, "dx_u": null, "dy": null, "dy_u": null }, "geometry": { "type": "MultiPolygon", "coordinates": [ [ [ [ 131.876908251641879, 43.10735042811892 ], [ 131.876845323971423, 43.107146297988585 ], [ 131.877028755752775, 43.107074494491549 ], [ 131.877285809449575, 43.107025171453053 ], [ 131.877359155817658, 43.107014756672214 ], [ 131.877227176508541, 43.106873373170309 ], [ 131.87727964990043, 43.106812140542786 ], [ 131.877283312878944, 43.106723925215064 ], [ 131.877155102224719, 43.106661226545178 ], [ 131.877087664106824, 43.10663553672557 ], [ 131.87696915863495, 43.106598843040224 ], [ 131.876939249877154, 43.106608867611378 ], [ 131.877032044009241, 43.106741235186902 ], [ 131.876686101803301, 43.106871479717697 ], [ 131.876572779473634, 43.106757952492906 ], [ 131.876545301915513, 43.106740588544859 ], [ 131.876519611389654, 43.1067332878701 ], [ 131.876346943723092, 43.106437006543196 ], [ 131.876354526620048, 43.106350607788116 ], [ 131.876316515500577, 43.106289334445606 ], [ 131.876301892812563, 43.106243576277066 ], [ 131.876284643589599, 43.106253922462642 ], [ 131.87625101748344, 43.106411964949871 ], [ 131.876224040682729, 43.106427630409613 ], [ 131.875994530360856, 43.106478202261954 ], [ 131.8759612769027, 43.106480249354028 ], [ 131.875927164230376, 43.106475824245265 ], [ 131.875834161013586, 43.106442921612491 ], [ 131.875773613781718, 43.106417791307202 ], [ 131.875781081148176, 43.106448949988014 ], [ 131.875844558584078, 43.106538229468761 ], [ 131.87589917970962, 43.10665946301846 ], [ 131.876021340941747, 43.106928982908599 ], [ 131.876088851689246, 43.107062687519942 ], [ 131.876136306681417, 43.107149158739546 ], [ 131.876191376914505, 43.107196487394468 ], [ 131.876621522901303, 43.107517793317221 ], [ 131.876774183420139, 43.107411733838489 ], [ 131.876908251641879, 43.10735042811892 ] ] ] ] } },
{ "type": "Feature", "properties": { "fid": 40, "Layer": "10 - ценные фрагменты благоустройства", "PaperSpace": null, "SubClasses": "AcDbEntity:AcDbPolyline", "Linetype": "ByLayer", "EntityHandle": "5F9", "Text": null, "ogr_style": "PEN(c:#000000)", "font": null, "angle": null, "size": null, "size_u": null, "anchor": null, "color": "#000000", "underline": null, "plaintext": null, "fcolor": null, "flnum": null, "bold": null, "italic": null, "dx": null, "dx_u": null, "dy": null, "dy_u": null }, "geometry": { "type": "MultiPolygon", "coordinates": [ [ [ [ 131.875215242207133, 43.114897474851738 ], [ 131.875247320149469, 43.114920338865829 ], [ 131.875261567081054, 43.114917747035413 ], [ 131.87527841023072, 43.114911839739499 ], [ 131.875299798447941, 43.114899300304593 ], [ 131.875310504852422, 43.114886986168258 ], [ 131.875410727972877, 43.114684166522068 ], [ 131.875414371527881, 43.114669513065735 ], [ 131.875414579387865, 43.11465695675723 ], [ 131.875405783887743, 43.114624202576117 ], [ 131.875388139875838, 43.114593424804397 ], [ 131.875152343639655, 43.114355265589133 ], [ 131.874925677450676, 43.114120349380812 ], [ 131.874896348547253, 43.114085180417909 ], [ 131.874885404511929, 43.114058309414325 ], [ 131.874877637201536, 43.114027613368911 ], [ 131.87487521836411, 43.113978644911612 ], [ 131.874877932556672, 43.113956462244666 ], [ 131.874944510194069, 43.113677198420433 ], [ 131.874948644784411, 43.113637780327828 ], [ 131.874958242983467, 43.113598876413754 ], [ 131.874973204765325, 43.113560892066474 ], [ 131.874993374215279, 43.113524223091375 ], [ 131.875018541154361, 43.113489251586735 ], [ 131.875048443329973, 43.113456341962205 ], [ 131.875082769149259, 43.113425837141705 ], [ 131.875121160925431, 43.113398054990178 ], [ 131.875130324780542, 43.113383004273821 ], [ 131.875138783223576, 43.113356262365762 ], [ 131.875142839164937, 43.113321486977419 ], [ 131.875141489645983, 43.113296291339651 ], [ 131.875134826443769, 43.113272367354057 ], [ 131.875118508422815, 43.11324599808507 ], [ 131.875095214408958, 43.113220571357957 ], [ 131.875062787316637, 43.113197998697359 ], [ 131.875031696953016, 43.11318190183686 ], [ 131.87500817689525, 43.113179533603287 ], [ 131.874633119628953, 43.11387807741604 ], [ 131.87458393251157, 43.113957558468194 ], [ 131.87457029970372, 43.113991782841332 ], [ 131.874562107337937, 43.114026013189878 ], [ 131.874558673408274, 43.114054068925924 ], [ 131.874560828540638, 43.11408219294519 ], [ 131.874568079493002, 43.11411908206604 ], [ 131.874577138578417, 43.114156297187264 ], [ 131.874612488734726, 43.114260306230115 ], [ 131.874637903419995, 43.114314961869603 ], [ 131.874668340235957, 43.114363636329728 ], [ 131.874695061417498, 43.114398754076113 ], [ 131.874891194894445, 43.114602450380318 ], [ 131.874894467059846, 43.114600638412043 ], [ 131.875215242207133, 43.114897474851738 ] ] ] ] } },
{ "type": "Feature", "properties": { "fid": 41, "Layer": "10 - ценные фрагменты благоустройства", "PaperSpace": null, "SubClasses": "AcDbEntity:AcDbPolyline", "Linetype": "ByLayer", "EntityHandle": "5FB", "Text": null, "ogr_style": "PEN(c:#000000)", "font": null, "angle": null, "size": null, "size_u": null, "anchor": null, "color": "#000000", "underline": null, "plaintext": null, "fcolor": null, "flnum": null, "bold": null, "italic": null, "dx": null, "dx_u": null, "dy": null, "dy_u": null }, "geometry": { "type": "MultiPolygon", "coordinates": [ [ [ [ 131.877499796244336, 43.111255215897046 ], [ 131.877604568873863, 43.111592802016041 ], [ 131.877908179799164, 43.111546641742329 ], [ 131.877976082939853, 43.111587038927354 ], [ 131.878002823774835, 43.111603127600787 ], [ 131.8783295489566, 43.111544438442941 ], [ 131.878258245164005, 43.111381480315231 ], [ 131.878173719681115, 43.111126516362958 ], [ 131.878137756591173, 43.11102712002311 ], [ 131.87807979303912, 43.111080954259577 ], [ 131.878100675413322, 43.111138751616906 ], [ 131.877858130456843, 43.111184945829159 ], [ 131.877833906880369, 43.111114293302165 ], [ 131.877633340670769, 43.110537272771531 ], [ 131.877597156817785, 43.110439726947369 ], [ 131.877297766395515, 43.110496782544004 ], [ 131.877282342365334, 43.110501941562759 ], [ 131.877246224109115, 43.110519468091574 ], [ 131.877499796244336, 43.111255215897046 ] ] ] ] } },
{ "type": "Feature", "properties": { "fid": 42, "Layer": "10 - ценные фрагменты благоустройства", "PaperSpace": null, "SubClasses": "AcDbEntity:AcDbPolyline", "Linetype": "ByLayer", "EntityHandle": "5FD", "Text": null, "ogr_style": "PEN(c:#000000)", "font": null, "angle": null, "size": null, "size_u": null, "anchor": null, "color": "#000000", "underline": null, "plaintext": null, "fcolor": null, "flnum": null, "bold": null, "italic": null, "dx": null, "dx_u": null, "dy": null, "dy_u": null }, "geometry": { "type": "MultiPolygon", "coordinates": [ [ [ [ 131.861161541402026, 43.097762264073651 ], [ 131.861237920024365, 43.097739252735664 ], [ 131.861232253822408, 43.097726353235004 ], [ 131.861252850483652, 43.097719457957432 ], [ 131.861263469089323, 43.097717480086516 ], [ 131.861268804876232, 43.097720940315739 ], [ 131.861273038064695, 43.097727984901105 ], [ 131.861435135479041, 43.097675675927015 ], [ 131.861326709953289, 43.097578372532048 ], [ 131.861169776937061, 43.097442922783912 ], [ 131.861103947776684, 43.097387750433207 ], [ 131.861100594937028, 43.097385088278038 ], [ 131.861096814031725, 43.097382754362506 ], [ 131.861092664449188, 43.097380785346559 ], [ 131.861088211368923, 43.097379212158486 ], [ 131.861083524737779, 43.097378059509133 ], [ 131.861078678170998, 43.097377345503645 ], [ 131.861073747795473, 43.097377081357315 ], [ 131.861068811055247, 43.097377271219166 ], [ 131.861063945494067, 43.097377912106957 ], [ 131.861059227537567, 43.09737899395396 ], [ 131.861054731293024, 43.097380499767127 ], [ 131.861050527385032, 43.097382405893832 ], [ 131.861046681846375, 43.097384682393745 ], [ 131.861043255080773, 43.097387293508724 ], [ 131.861040300914425, 43.097390198224787 ], [ 131.86103786574958, 43.09739335091605 ], [ 131.861035987836857, 43.097396702061729 ], [ 131.861034696673528, 43.097400199023724 ], [ 131.861034364607718, 43.097416125772185 ], [ 131.861053675368595, 43.097564844918885 ], [ 131.861085932443615, 43.097786272612481 ], [ 131.861161541402026, 43.097762264073651 ] ] ] ] } },
{ "type": "Feature", "properties": { "fid": 43, "Layer": "10 - ценные фрагменты благоустройства", "PaperSpace": null, "SubClasses": "AcDbEntity:AcDbPolyline", "Linetype": "ByLayer", "EntityHandle": "5FF", "Text": null, "ogr_style": "PEN(c:#000000)", "font": null, "angle": null, "size": null, "size_u": null, "anchor": null, "color": "#000000", "underline": null, "plaintext": null, "fcolor": null, "flnum": null, "bold": null, "italic": null, "dx": null, "dx_u": null, "dy": null, "dy_u": null }, "geometry": { "type": "MultiPolygon", "coordinates": [ [ [ [ 131.879439037805497, 43.111936215070223 ], [ 131.879643491269633, 43.111879128610404 ], [ 131.879664013923701, 43.111856783905743 ], [ 131.879944208697793, 43.111783939124614 ], [ 131.880046763605066, 43.111754837927023 ], [ 131.880381469362703, 43.111683115606674 ], [ 131.880295164570526, 43.111449609247202 ], [ 131.880189045256373, 43.11147329378565 ], [ 131.879969141493802, 43.111524819888835 ], [ 131.879526760331828, 43.111603280102528 ], [ 131.879432365698761, 43.111361332423122 ], [ 131.879240346619781, 43.111395348332181 ], [ 131.879337299846412, 43.111634372046595 ], [ 131.879439037805497, 43.111936215070223 ] ] ] ] } }
]
}
