{
"type": "FeatureCollection",
"name": "11_natural_landscape",
"crs": { "type": "name", "properties": { "name": "urn:ogc:def:crs:OGC:1.3:CRS84" } },
"features": [
{ "type": "Feature", "properties": { "fid": 1, "Layer": "11 - фрагменты природного ландшафта", "PaperSpace": null, "SubClasses": "AcDbEntity:AcDbPolyline", "Linetype": "ByLayer", "EntityHandle": "519", "Text": null, "ogr_style": "PEN(c:#000000)", "font": null, "angle": null, "size": null, "size_u": null, "anchor": null, "color": "#000000", "underline": null, "plaintext": null, "fcolor": null, "flnum": null, "bold": null, "italic": null, "dx": null, "dx_u": null, "dy": null, "dy_u": null }, "geometry": { "type": "MultiPolygon", "coordinates": [ [ [ [ 131.913550347420511, 43.114866260178125 ], [ 131.913496020476259, 43.115098519789804 ], [ 131.913467137676889, 43.115173712007291 ], [ 131.913443765194614, 43.115361451865674 ], [ 131.913634700109554, 43.115474940627493 ], [ 131.913680898267756, 43.115382950233126 ], [ 131.913888398823104, 43.115421526734231 ], [ 131.913899802853678, 43.115542016982225 ], [ 131.913934131818962, 43.115557139937046 ], [ 131.914013326112837, 43.115592136236479 ], [ 131.914105334263496, 43.115649485350254 ], [ 131.914200775939605, 43.115686593147167 ], [ 131.914238747295343, 43.115687457280671 ], [ 131.914277817956446, 43.115674013018392 ], [ 131.914362236987273, 43.11566634142892 ], [ 131.91442256040682, 43.11567606342507 ], [ 131.914473430489863, 43.115688303319807 ], [ 131.914462371787494, 43.115444615237955 ], [ 131.914568135885702, 43.115242663488544 ], [ 131.914688805055789, 43.115089589207578 ], [ 131.914856555495732, 43.115023151636748 ], [ 131.914899972351407, 43.114965066438984 ], [ 131.915152436808171, 43.11489537947611 ], [ 131.915260868780905, 43.114776193490044 ], [ 131.915397707466781, 43.114770066458988 ], [ 131.915481292606501, 43.114709392160457 ], [ 131.915605260195633, 43.114695989214759 ], [ 131.915835652628544, 43.114688018019159 ], [ 131.915818880972893, 43.114605239746943 ], [ 131.915612870567742, 43.114575533907335 ], [ 131.915425242863279, 43.114568588254038 ], [ 131.915146667940775, 43.114568685703603 ], [ 131.914630968312736, 43.114608859872057 ], [ 131.91427682880007, 43.114686648141927 ], [ 131.913983561151525, 43.114796379673798 ], [ 131.913902839252358, 43.114783812366262 ], [ 131.913550347420511, 43.114866260178125 ] ] ] ] } },
{ "type": "Feature", "properties": { "fid": 2, "Layer": "11 - фрагменты природного ландшафта", "PaperSpace": null, "SubClasses": "AcDbEntity:AcDbPolyline", "Linetype": "ByLayer", "EntityHandle": "51B", "Text": null, "ogr_style": "PEN(c:#000000)", "font": null, "angle": null, "size": null, "size_u": null, "anchor": null, "color": "#000000", "underline": null, "plaintext": null, "fcolor": null, "flnum": null, "bold": null, "italic": null, "dx": null, "dx_u": null, "dy": null, "dy_u": null }, "geometry": { "type": "MultiPolygon", "coordinates": [ [ [ [ 131.875908268537756, 43.116117226185608 ], [ 131.876356530655869, 43.116434841427072 ], [ 131.87652127951057, 43.116594320187907 ], [ 131.876599691984666, 43.116579037791773 ], [ 131.876709978800932, 43.116680500132524 ], [ 131.876692809304302, 43.116719501063919 ], [ 131.877195973991633, 43.117148601710085 ], [ 131.877348697458018, 43.117044617091622 ], [ 131.87698638818614, 43.116739300922561 ], [ 131.876546264987667, 43.11638961894247 ], [ 131.876307663176703, 43.116211373663162 ], [ 131.87615437750614, 43.116098206697146 ], [ 131.875880108518061, 43.115909505540579 ], [ 131.875441108666621, 43.115462427785943 ], [ 131.874753358076816, 43.114767172791367 ], [ 131.874548746444987, 43.114559693270579 ], [ 131.874327384250506, 43.114336425244666 ], [ 131.874309489326464, 43.114292851000208 ], [ 131.874292093040879, 43.114191223048088 ], [ 131.87431088135466, 43.114100374299205 ], [ 131.873995469781619, 43.114000606635827 ], [ 131.873957540878791, 43.114034191441881 ], [ 131.873923251997894, 43.114055385558082 ], [ 131.873851037551248, 43.114032318535664 ], [ 131.873702064546563, 43.113937027503923 ], [ 131.873608475622973, 43.11387369685103 ], [ 131.873537242277024, 43.113852560310413 ], [ 131.873527632301574, 43.113865700704579 ], [ 131.87365043439857, 43.113970266226339 ], [ 131.873814805546203, 43.114086541101841 ], [ 131.874093486661792, 43.114278526982936 ], [ 131.874208137362672, 43.114451421661613 ], [ 131.874610225957383, 43.114860897192322 ], [ 131.874850210268022, 43.115109564338134 ], [ 131.875260185050649, 43.115405591297545 ], [ 131.875482799467278, 43.115632328699931 ], [ 131.875528988281559, 43.115740369714921 ], [ 131.875742475801474, 43.115938100408826 ], [ 131.875708976648497, 43.115957327222858 ], [ 131.875908268537756, 43.116117226185608 ] ] ] ] } },
{ "type": "Feature", "properties": { "fid": 3, "Layer": "11 - фрагменты природного ландшафта", "PaperSpace": null, "SubClasses": "AcDbEntity:AcDbPolyline", "Linetype": "ByLayer", "EntityHandle": "51D", "Text": null, "ogr_style": "PEN(c:#000000)", "font": null, "angle": null, "size": null, "size_u": null, "anchor": null, "color": "#000000", "underline": null, "plaintext": null, "fcolor": null, "flnum": null, "bold": null, "italic": null, "dx": null, "dx_u": null, "dy": null, "dy_u": null }, "geometry": { "type": "MultiPolygon", "coordinates": [ [ [ [ 131.8964418099863, 43.120163632865072 ], [ 131.896115613525495, 43.120255297158828 ], [ 131.896046023959144, 43.120406694725339 ], [ 131.895795106333736, 43.120508923808899 ], [ 131.89581009132516, 43.120559806310148 ], [ 131.89588292156526, 43.120801098585048 ], [ 131.895706591446526, 43.120839460347021 ], [ 131.895856363979817, 43.121101022728766 ], [ 131.89564482228235, 43.121449479048394 ], [ 131.89554678315443, 43.121488834206986 ], [ 131.895515758888223, 43.121460169881182 ], [ 131.895364223673567, 43.121516458152222 ], [ 131.895307421775129, 43.121405968184625 ], [ 131.89512578098757, 43.12148785961714 ], [ 131.895004809051585, 43.121529610756603 ], [ 131.89470119064373, 43.121632920132392 ], [ 131.89453968853536, 43.121739806728364 ], [ 131.894338385078129, 43.121898589641042 ], [ 131.89437907851061, 43.122136703062004 ], [ 131.894723322744113, 43.122459903948709 ], [ 131.895216427446769, 43.122817575684834 ], [ 131.895521999131688, 43.122950166639207 ], [ 131.895819220458122, 43.123114977143501 ], [ 131.896059792401275, 43.123170915957502 ], [ 131.896194114511843, 43.123158730112344 ], [ 131.896254713016873, 43.123153244848332 ], [ 131.89623932344756, 43.122991513601029 ], [ 131.896317080445897, 43.122875340840885 ], [ 131.896133378802404, 43.122800275980289 ], [ 131.896209266247467, 43.122670538942131 ], [ 131.896512743342981, 43.122635795280864 ], [ 131.896660180715003, 43.12263288594778 ], [ 131.896513293897698, 43.121914442523952 ], [ 131.89649622825192, 43.121851249915395 ], [ 131.89648448127474, 43.121821847037332 ], [ 131.896614842563281, 43.121335061668816 ], [ 131.896894950216591, 43.121364127532665 ], [ 131.897267793954967, 43.12142958209202 ], [ 131.897541908454627, 43.121479644236771 ], [ 131.898274499542111, 43.121647565240558 ], [ 131.898503237043087, 43.121745295923539 ], [ 131.898563267684494, 43.121821313204428 ], [ 131.898642173843882, 43.121939280617703 ], [ 131.898987436281004, 43.122020685531275 ], [ 131.899051126802675, 43.122060983020361 ], [ 131.899205440103827, 43.122161822359175 ], [ 131.899280857492386, 43.122198488066829 ], [ 131.899501316561356, 43.122396846668259 ], [ 131.899579563009127, 43.122465527254626 ], [ 131.899648518327098, 43.122555816730269 ], [ 131.899674868081775, 43.122590469050003 ], [ 131.899719809864564, 43.122646172024048 ], [ 131.900046868286267, 43.122675374852577 ], [ 131.90007747756357, 43.12268874016948 ], [ 131.900174136495167, 43.122724465524335 ], [ 131.900335784691435, 43.122784902033274 ], [ 131.900359422770862, 43.122806350457793 ], [ 131.900573220905812, 43.123015847353287 ], [ 131.9007566877481, 43.122997032272899 ], [ 131.900983758436979, 43.123347011568896 ], [ 131.900980917230214, 43.123444170466044 ], [ 131.901193992799307, 43.123676863393023 ], [ 131.901301912219566, 43.123716521775535 ], [ 131.901326346635642, 43.123785578157054 ], [ 131.901258534601709, 43.123882143019188 ], [ 131.901720686908703, 43.124034249273834 ], [ 131.901758886383192, 43.123874172222678 ], [ 131.901707908580619, 43.123658671066998 ], [ 131.901552924653856, 43.123256031469744 ], [ 131.901300032076989, 43.123007605824974 ], [ 131.900808512682005, 43.122625730716905 ], [ 131.900640616845465, 43.122515312769458 ], [ 131.900602838780316, 43.122538026620248 ], [ 131.900393551978169, 43.122371238859721 ], [ 131.900410882746627, 43.122358727930326 ], [ 131.900210221871561, 43.122205892494534 ], [ 131.899689816242216, 43.121803698469925 ], [ 131.898795042813049, 43.12128853401726 ], [ 131.898394787268757, 43.121286457027288 ], [ 131.897753500043649, 43.121223407930266 ], [ 131.89753615711885, 43.121148240393183 ], [ 131.897063598379191, 43.120843023749842 ], [ 131.896538799547614, 43.120626195615671 ], [ 131.8964418099863, 43.120163632865072 ] ] ] ] } },
{ "type": "Feature", "properties": { "fid": 4, "Layer": "11 - фрагменты природного ландшафта", "PaperSpace": null, "SubClasses": "AcDbEntity:AcDbPolyline", "Linetype": "ByLayer", "EntityHandle": "51F", "Text": null, "ogr_style": "PEN(c:#000000)", "font": null, "angle": null, "size": null, "size_u": null, "anchor": null, "color": "#000000", "underline": null, "plaintext": null, "fcolor": null, "flnum": null, "bold": null, "italic": null, "dx": null, "dx_u": null, "dy": null, "dy_u": null }, "geometry": { "type": "MultiPolygon", "coordinates": [ [ [ [ 131.89364902573746, 43.118641474216346 ], [ 131.89336874528891, 43.118699122755636 ], [ 131.893365984166337, 43.118933194277602 ], [ 131.893278203707609, 43.118976391155776 ], [ 131.893436590348273, 43.119287901171639 ], [ 131.893448505403654, 43.11949496767167 ], [ 131.893391133198293, 43.119638573264616 ], [ 131.893384675079204, 43.119857747182927 ], [ 131.893553906371068, 43.119835653490739 ], [ 131.893911464412099, 43.119787870466602 ], [ 131.894103436568685, 43.119713075623288 ], [ 131.894212895210387, 43.119679815032129 ], [ 131.894532161938287, 43.119594726997768 ], [ 131.894624845850728, 43.119645151335476 ], [ 131.894755684919346, 43.119701592321043 ], [ 131.89496375174383, 43.119581665650514 ], [ 131.894860073906415, 43.119448809125203 ], [ 131.894433968335278, 43.119369617543036 ], [ 131.894216175042487, 43.119277157190908 ], [ 131.894180019050253, 43.119063879881651 ], [ 131.894211433252252, 43.118902969730847 ], [ 131.894435767096269, 43.118881845416709 ], [ 131.894622470275891, 43.118905723124087 ], [ 131.894813809089925, 43.118922092041778 ], [ 131.894826876032965, 43.118836508015541 ], [ 131.894754949248551, 43.118802827217145 ], [ 131.894659225384515, 43.118623362117347 ], [ 131.894644574161163, 43.118487345915902 ], [ 131.894658337224683, 43.118420213323809 ], [ 131.894441880945834, 43.118397777005264 ], [ 131.894462491818928, 43.118457414671013 ], [ 131.894122399283901, 43.118526446048072 ], [ 131.89364902573746, 43.118641474216346 ] ] ] ] } },
{ "type": "Feature", "properties": { "fid": 5, "Layer": "11 - фрагменты природного ландшафта", "PaperSpace": null, "SubClasses": "AcDbEntity:AcDbPolyline", "Linetype": "ByLayer", "EntityHandle": "521", "Text": null, "ogr_style": "PEN(c:#000000)", "font": null, "angle": null, "size": null, "size_u": null, "anchor": null, "color": "#000000", "underline": null, "plaintext": null, "fcolor": null, "flnum": null, "bold": null, "italic": null, "dx": null, "dx_u": null, "dy": null, "dy_u": null }, "geometry": { "type": "MultiPolygon", "coordinates": [ [ [ [ 131.879759418483332, 43.115241319248767 ], [ 131.879611162104368, 43.115306685102688 ], [ 131.879695389724873, 43.115551972266907 ], [ 131.879621037936289, 43.115583512053902 ], [ 131.879627840488467, 43.11565077211052 ], [ 131.879863484437692, 43.11579636845584 ], [ 131.880057685978215, 43.115647213294373 ], [ 131.880113545870984, 43.115638364289389 ], [ 131.880166349077086, 43.115384097482085 ], [ 131.88014688421282, 43.115245559028139 ], [ 131.880075165624163, 43.115240270103563 ], [ 131.879759418483332, 43.115241319248767 ] ] ] ] } },
{ "type": "Feature", "properties": { "fid": 6, "Layer": "11 - фрагменты природного ландшафта", "PaperSpace": null, "SubClasses": "AcDbEntity:AcDbPolyline", "Linetype": "ByLayer", "EntityHandle": "523", "Text": null, "ogr_style": "PEN(c:#000000)", "font": null, "angle": null, "size": null, "size_u": null, "anchor": null, "color": "#000000", "underline": null, "plaintext": null, "fcolor": null, "flnum": null, "bold": null, "italic": null, "dx": null, "dx_u": null, "dy": null, "dy_u": null }, "geometry": { "type": "MultiPolygon", "coordinates": [ [ [ [ 131.916891658916597, 43.118895405713175 ], [ 131.916917464423165, 43.119065258020314 ], [ 131.917270228234884, 43.119630524369882 ], [ 131.917447802309567, 43.119757198584701 ], [ 131.917392671461187, 43.119847478171621 ], [ 131.916925614191001, 43.119746294405878 ], [ 131.916219417033972, 43.119279154994992 ], [ 131.91571363237685, 43.119418870498059 ], [ 131.914889212185614, 43.119477204797747 ], [ 131.914499927167583, 43.119330380350789 ], [ 131.914131042089906, 43.119434231271661 ], [ 131.91393592059859, 43.119468420264397 ], [ 131.913687059886399, 43.119497937231287 ], [ 131.913623152726558, 43.119517038496447 ], [ 131.913611680977112, 43.119658947281494 ], [ 131.913685215110121, 43.119712185430103 ], [ 131.913826185354935, 43.119941076286104 ], [ 131.913915447046122, 43.120044352113908 ], [ 131.914039652534058, 43.120150347082536 ], [ 131.914301689016952, 43.120330059682118 ], [ 131.914384404916802, 43.120322406536062 ], [ 131.914368320519429, 43.120297177246691 ], [ 131.914346543271051, 43.120250026872704 ], [ 131.914231152118077, 43.119945677513208 ], [ 131.914076717343363, 43.119724496039829 ], [ 131.914454373738067, 43.119592970713882 ], [ 131.914642299862862, 43.119879817915098 ], [ 131.914938527617522, 43.120129557555543 ], [ 131.914986564867178, 43.120145476276228 ], [ 131.915204792801774, 43.119884980595835 ], [ 131.916044045704922, 43.119875343268454 ], [ 131.915865952196668, 43.119721938711315 ], [ 131.915909519091741, 43.119681426765062 ], [ 131.916159075078838, 43.119561705513661 ], [ 131.916349925706754, 43.119707684900234 ], [ 131.916346196414821, 43.119762091325263 ], [ 131.916668712774452, 43.119961687234344 ], [ 131.917150459546036, 43.120330004928441 ], [ 131.917328211924143, 43.120371435959719 ], [ 131.918010882721831, 43.120350949696252 ], [ 131.918083678063169, 43.120359906795159 ], [ 131.918245113055775, 43.120484228844745 ], [ 131.918491423914219, 43.120688490213269 ], [ 131.918741781254454, 43.121005223677692 ], [ 131.918903152155821, 43.121239090189682 ], [ 131.918676907698426, 43.12141356994124 ], [ 131.918184038261074, 43.121413435066408 ], [ 131.917784029134737, 43.121392610811505 ], [ 131.917214509564985, 43.121318386161143 ], [ 131.916846898497141, 43.121232500032178 ], [ 131.916483754784309, 43.120708566916086 ], [ 131.916300653385633, 43.120696884339409 ], [ 131.916330041316655, 43.121407052210337 ], [ 131.918279099298076, 43.122082937097403 ], [ 131.918283683406031, 43.122160209353858 ], [ 131.919086886561729, 43.122106676701051 ], [ 131.919688360739173, 43.121898458184468 ], [ 131.919940919503205, 43.121649709820147 ], [ 131.92010440549808, 43.121307744961349 ], [ 131.920056793371799, 43.121110399035921 ], [ 131.920008428634645, 43.120987501012245 ], [ 131.919778825964727, 43.120777126475311 ], [ 131.919699506151233, 43.12082404655574 ], [ 131.919568275399882, 43.12070498983902 ], [ 131.919628004839296, 43.120630282014559 ], [ 131.919094676639759, 43.119716019648344 ], [ 131.918914340621228, 43.119739370744881 ], [ 131.91865368128046, 43.119530130267329 ], [ 131.918116754773877, 43.119445122583627 ], [ 131.917696090427995, 43.119359169762014 ], [ 131.917375825735661, 43.119230752709527 ], [ 131.917228935199063, 43.119165054745523 ], [ 131.917184135979682, 43.119098465673396 ], [ 131.917155984769465, 43.118997227290713 ], [ 131.917099829461989, 43.118896552695119 ], [ 131.916891658916597, 43.118895405713175 ] ] ] ] } },
{ "type": "Feature", "properties": { "fid": 7, "Layer": "11 - фрагменты природного ландшафта", "PaperSpace": null, "SubClasses": "AcDbEntity:AcDbPolyline", "Linetype": "ByLayer", "EntityHandle": "525", "Text": null, "ogr_style": "PEN(c:#000000)", "font": null, "angle": null, "size": null, "size_u": null, "anchor": null, "color": "#000000", "underline": null, "plaintext": null, "fcolor": null, "flnum": null, "bold": null, "italic": null, "dx": null, "dx_u": null, "dy": null, "dy_u": null }, "geometry": { "type": "MultiPolygon", "coordinates": [ [ [ [ 131.83161193842102, 43.074337803978786 ], [ 131.831612085105661, 43.074284316893554 ], [ 131.831440184923707, 43.074284063407546 ], [ 131.831440038089653, 43.074337550492338 ], [ 131.83161193842102, 43.074337803978786 ] ] ] ] } },
{ "type": "Feature", "properties": { "fid": 8, "Layer": "11 - фрагменты природного ландшафта", "PaperSpace": null, "SubClasses": "AcDbEntity:AcDbPolyline", "Linetype": "ByLayer", "EntityHandle": "527", "Text": null, "ogr_style": "PEN(c:#000000)", "font": null, "angle": null, "size": null, "size_u": null, "anchor": null, "color": "#000000", "underline": null, "plaintext": null, "fcolor": null, "flnum": null, "bold": null, "italic": null, "dx": null, "dx_u": null, "dy": null, "dy_u": null }, "geometry": { "type": "MultiPolygon", "coordinates": [ [ [ [ 131.879759418483332, 43.115241319248767 ], [ 131.879611162104368, 43.115306685102688 ], [ 131.879695389724873, 43.115551972266907 ], [ 131.879621037936289, 43.115583512053902 ], [ 131.879627840488467, 43.11565077211052 ], [ 131.879863484437692, 43.11579636845584 ], [ 131.880057685978215, 43.115647213294373 ], [ 131.880113545870984, 43.115638364289389 ], [ 131.880166349077086, 43.115384097482085 ], [ 131.88014688421282, 43.115245559028139 ], [ 131.880075165624163, 43.115240270103563 ], [ 131.879759418483332, 43.115241319248767 ] ] ] ] } },
{ "type": "Feature", "properties": { "fid": 9, "Layer": "11 - фрагменты природного ландшафта", "PaperSpace": null, "SubClasses": "AcDbEntity:AcDbPolyline", "Linetype": "ByLayer", "EntityHandle": "529", "Text": null, "ogr_style": "PEN(c:#000000)", "font": null, "angle": null, "size": null, "size_u": null, "anchor": null, "color": "#000000", "underline": null, "plaintext": null, "fcolor": null, "flnum": null, "bold": null, "italic": null, "dx": null, "dx_u": null, "dy": null, "dy_u": null }, "geometry": { "type": "MultiPolygon", "coordinates": [ [ [ [ 131.875908268537756, 43.116117226185608 ], [ 131.876356530655869, 43.116434841427072 ], [ 131.87652127951057, 43.116594320187907 ], [ 131.876599691984666, 43.116579037791773 ], [ 131.876709978800932, 43.116680500132524 ], [ 131.876692809304302, 43.116719501063919 ], [ 131.877195973991633, 43.117148601710085 ], [ 131.877348697458018, 43.117044617091622 ], [ 131.87698638818614, 43.116739300922561 ], [ 131.876546264987667, 43.11638961894247 ], [ 131.876307663176703, 43.116211373663162 ], [ 131.87615437750614, 43.116098206697146 ], [ 131.875880108518061, 43.115909505540579 ], [ 131.875441108666621, 43.115462427785943 ], [ 131.874753358076816, 43.114767172791367 ], [ 131.874548746444987, 43.114559693270579 ], [ 131.874327384250506, 43.114336425244666 ], [ 131.874309489326464, 43.114292851000208 ], [ 131.874292093040879, 43.114191223048088 ], [ 131.87431088135466, 43.114100374299205 ], [ 131.873995469781619, 43.114000606635827 ], [ 131.873957540878791, 43.114034191441881 ], [ 131.873923251997894, 43.114055385558082 ], [ 131.873851037551248, 43.114032318535664 ], [ 131.873702064546563, 43.113937027503923 ], [ 131.873608475622973, 43.11387369685103 ], [ 131.873537242277024, 43.113852560310413 ], [ 131.873527632301574, 43.113865700704579 ], [ 131.87365043439857, 43.113970266226339 ], [ 131.873814805546203, 43.114086541101841 ], [ 131.874093486661792, 43.114278526982936 ], [ 131.874208137362672, 43.114451421661613 ], [ 131.874610225957383, 43.114860897192322 ], [ 131.874850210268022, 43.115109564338134 ], [ 131.875260185050649, 43.115405591297545 ], [ 131.875482799467278, 43.115632328699931 ], [ 131.875528988281559, 43.115740369714921 ], [ 131.875742475801474, 43.115938100408826 ], [ 131.875708976648497, 43.115957327222858 ], [ 131.875908268537756, 43.116117226185608 ] ] ] ] } },
{ "type": "Feature", "properties": { "fid": 10, "Layer": "11 - фрагменты природного ландшафта", "PaperSpace": null, "SubClasses": "AcDbEntity:AcDbPolyline", "Linetype": "ByLayer", "EntityHandle": "52B", "Text": null, "ogr_style": "PEN(c:#000000)", "font": null, "angle": null, "size": null, "size_u": null, "anchor": null, "color": "#000000", "underline": null, "plaintext": null, "fcolor": null, "flnum": null, "bold": null, "italic": null, "dx": null, "dx_u": null, "dy": null, "dy_u": null }, "geometry": { "type": "MultiPolygon", "coordinates": [ [ [ [ 131.860875095139534, 43.097411731690855 ], [ 131.860799311141051, 43.097414387870181 ], [ 131.860829075806066, 43.098289107142207 ], [ 131.860652671871975, 43.098515201425698 ], [ 131.860897431502679, 43.099290225525749 ], [ 131.861074330680282, 43.099452599528931 ], [ 131.861481715731628, 43.099973064093675 ], [ 131.86154034756234, 43.100143118412923 ], [ 131.861385169453797, 43.100232148341711 ], [ 131.861513832751967, 43.100478367174645 ], [ 131.861819789669426, 43.100371707683429 ], [ 131.861871897868781, 43.100089627018484 ], [ 131.861805949836196, 43.099968099170155 ], [ 131.861762247955056, 43.09988756584314 ], [ 131.861483272759784, 43.099524095696466 ], [ 131.861332173984152, 43.099391578344438 ], [ 131.861102942346946, 43.099166139042474 ], [ 131.861049665567975, 43.099075579065321 ], [ 131.860968027559721, 43.098899970719202 ], [ 131.860951048356725, 43.098687350761459 ], [ 131.860974165426711, 43.098514036308643 ], [ 131.861024252916337, 43.098443044775337 ], [ 131.861036582808993, 43.098280628805682 ], [ 131.860978949783259, 43.098120982675418 ], [ 131.860953101429743, 43.098091716993387 ], [ 131.860875095139534, 43.097411731690855 ] ] ] ] } },
{ "type": "Feature", "properties": { "fid": 11, "Layer": "11 - фрагменты природного ландшафта", "PaperSpace": null, "SubClasses": "AcDbEntity:AcDbPolyline", "Linetype": "ByLayer", "EntityHandle": "52D", "Text": null, "ogr_style": "PEN(c:#000000)", "font": null, "angle": null, "size": null, "size_u": null, "anchor": null, "color": "#000000", "underline": null, "plaintext": null, "fcolor": null, "flnum": null, "bold": null, "italic": null, "dx": null, "dx_u": null, "dy": null, "dy_u": null }, "geometry": { "type": "MultiPolygon", "coordinates": [ [ [ [ 131.862886840249843, 43.101489512930378 ], [ 131.862607719142574, 43.101576854023811 ], [ 131.86263685699123, 43.101717595423445 ], [ 131.862688396912176, 43.10207704922621 ], [ 131.862668077513291, 43.102189128174295 ], [ 131.862471885685835, 43.102508079721552 ], [ 131.862204712709371, 43.102895094683397 ], [ 131.862121657851276, 43.102971309000147 ], [ 131.862209639622279, 43.102979339617903 ], [ 131.862424196169513, 43.102772503366182 ], [ 131.862612235649834, 43.102573223239546 ], [ 131.862743544028149, 43.10240808559562 ], [ 131.862849925293887, 43.10215129466652 ], [ 131.862941021864458, 43.101911489061131 ], [ 131.862980935429135, 43.101792452779407 ], [ 131.862966877961384, 43.101730304914483 ], [ 131.862935673159768, 43.101631333644917 ], [ 131.862886840249843, 43.101489512930378 ] ] ] ] } },
{ "type": "Feature", "properties": { "fid": 12, "Layer": "11 - фрагменты природного ландшафта", "PaperSpace": null, "SubClasses": "AcDbEntity:AcDbPolyline", "Linetype": "ByLayer", "EntityHandle": "52F", "Text": null, "ogr_style": "PEN(c:#000000)", "font": null, "angle": null, "size": null, "size_u": null, "anchor": null, "color": "#000000", "underline": null, "plaintext": null, "fcolor": null, "flnum": null, "bold": null, "italic": null, "dx": null, "dx_u": null, "dy": null, "dy_u": null }, "geometry": { "type": "MultiPolygon", "coordinates": [ [ [ [ 131.866754306720679, 43.09377030000757 ], [ 131.865012535435568, 43.093914437654533 ], [ 131.864999839665671, 43.093931757454854 ], [ 131.865000686594072, 43.09418747485816 ], [ 131.865181439531341, 43.094283684849998 ], [ 131.865448379528374, 43.094450229462851 ], [ 131.865682645531564, 43.094669128785462 ], [ 131.865587385417541, 43.094727675000584 ], [ 131.865689638008604, 43.094792270406224 ], [ 131.865808749960792, 43.094880625210301 ], [ 131.865853714925322, 43.094932943301551 ], [ 131.86591428671602, 43.094957929556578 ], [ 131.866017901218612, 43.094911235243352 ], [ 131.866089578193453, 43.094854059336726 ], [ 131.866152695583082, 43.09489281980315 ], [ 131.866356571741278, 43.094564976828714 ], [ 131.866465441209186, 43.09422989233353 ], [ 131.866648881022229, 43.09402939727098 ], [ 131.866832415114828, 43.093796158807358 ], [ 131.866754306720679, 43.09377030000757 ] ] ] ] } },
{ "type": "Feature", "properties": { "fid": 13, "Layer": "11 - фрагменты природного ландшафта", "PaperSpace": null, "SubClasses": "AcDbEntity:AcDbPolyline", "Linetype": "ByLayer", "EntityHandle": "531", "Text": null, "ogr_style": "PEN(c:#000000)", "font": null, "angle": null, "size": null, "size_u": null, "anchor": null, "color": "#000000", "underline": null, "plaintext": null, "fcolor": null, "flnum": null, "bold": null, "italic": null, "dx": null, "dx_u": null, "dy": null, "dy_u": null }, "geometry": { "type": "MultiPolygon", "coordinates": [ [ [ [ 131.868437879688628, 43.095346493564641 ], [ 131.868488249999444, 43.095347002527781 ], [ 131.868704534442088, 43.0952987324548 ], [ 131.868774560105322, 43.09529975017977 ], [ 131.868844481085091, 43.095302734118583 ], [ 131.868914194623898, 43.095307679885899 ], [ 131.868983598268898, 43.095314580213383 ], [ 131.869083626078094, 43.095339223743792 ], [ 131.869140310926923, 43.095365417925009 ], [ 131.869389682321071, 43.095461245837782 ], [ 131.869437122423136, 43.095467757962517 ], [ 131.869483737993988, 43.095476926260474 ], [ 131.869529252550564, 43.095488696353513 ], [ 131.869573396140083, 43.095502998431719 ], [ 131.869589953463958, 43.095519579240886 ], [ 131.86960372792484, 43.095537474928001 ], [ 131.869614527399676, 43.095556435891183 ], [ 131.86962220125875, 43.095576197670347 ], [ 131.869633502144239, 43.095612291706267 ], [ 131.869649484195179, 43.095647422737514 ], [ 131.869650301580918, 43.095660428733495 ], [ 131.869659551075245, 43.095671544861027 ], [ 131.86967495427217, 43.095678032906505 ], [ 131.869692716932491, 43.095678294682003 ], [ 131.869783622934193, 43.095682719929698 ], [ 131.869622208127083, 43.095809152069123 ], [ 131.869687709306362, 43.095813205361566 ], [ 131.869762900754154, 43.095981921892538 ], [ 131.869799894619661, 43.096080970870666 ], [ 131.869912000788048, 43.096231205388797 ], [ 131.87000013522686, 43.096282105498972 ], [ 131.869978528638683, 43.09636568722113 ], [ 131.869818694983536, 43.096442589272847 ], [ 131.868970374747136, 43.096861613130827 ], [ 131.868428030954988, 43.097021679823342 ], [ 131.867937567314755, 43.097064474529894 ], [ 131.867929833013619, 43.097135498497053 ], [ 131.868494802859828, 43.0971406930855 ], [ 131.868506237249903, 43.097173709457586 ], [ 131.868627876947926, 43.097159202353161 ], [ 131.869112874493794, 43.096989293108663 ], [ 131.869777510466946, 43.096637740408077 ], [ 131.870468309306261, 43.09626711115483 ], [ 131.870508091532201, 43.09622149324985 ], [ 131.870545265055654, 43.096174708575703 ], [ 131.870579766263177, 43.096126837200785 ], [ 131.870611536114779, 43.096077961053155 ], [ 131.870640520245757, 43.096028163780261 ], [ 131.870666669059062, 43.09597753060573 ], [ 131.870689937810312, 43.095926148183636 ], [ 131.870710286684755, 43.095874104449969 ], [ 131.870773915952554, 43.095631036382144 ], [ 131.870777727872479, 43.095589965997824 ], [ 131.8707787120521, 43.09554880703687 ], [ 131.870776865998494, 43.095507663993075 ], [ 131.870772194404054, 43.095466641319646 ], [ 131.870764709134619, 43.095425843163852 ], [ 131.87075442919911, 43.095385373102978 ], [ 131.870741380701276, 43.095345333880964 ], [ 131.870725596773752, 43.095305827147847 ], [ 131.870558030832967, 43.095141099738662 ], [ 131.870322700974725, 43.094951852222849 ], [ 131.869799619927761, 43.094601027269931 ], [ 131.869057448774299, 43.09408410572685 ], [ 131.868962004402221, 43.094258211357484 ], [ 131.86898209099823, 43.094416607249677 ], [ 131.868867816960545, 43.094540863672343 ], [ 131.868758358119976, 43.094748608019998 ], [ 131.868713773073239, 43.094794096362492 ], [ 131.868678633408933, 43.094804955854244 ], [ 131.8685122268366, 43.094792067182283 ], [ 131.868333020674214, 43.094805955687839 ], [ 131.868281347355691, 43.094824084066353 ], [ 131.868437879688628, 43.095346493564641 ] ] ] ] } },
{ "type": "Feature", "properties": { "fid": 14, "Layer": "11 - фрагменты природного ландшафта", "PaperSpace": null, "SubClasses": "AcDbEntity:AcDbPolyline", "Linetype": "ByLayer", "EntityHandle": "533", "Text": null, "ogr_style": "PEN(c:#000000)", "font": null, "angle": null, "size": null, "size_u": null, "anchor": null, "color": "#000000", "underline": null, "plaintext": null, "fcolor": null, "flnum": null, "bold": null, "italic": null, "dx": null, "dx_u": null, "dy": null, "dy_u": null }, "geometry": { "type": "MultiPolygon", "coordinates": [ [ [ [ 131.857247298769693, 43.091263354776046 ], [ 131.85707793036508, 43.091115131458515 ], [ 131.857011411535552, 43.091128012682063 ], [ 131.856455329136253, 43.091253503809391 ], [ 131.856262830687996, 43.091425869913152 ], [ 131.856241257839287, 43.09163848543141 ], [ 131.856534210526945, 43.091856053148462 ], [ 131.856445716582812, 43.091929791654287 ], [ 131.856212133679861, 43.091787923624317 ], [ 131.856078331818424, 43.091761930909072 ], [ 131.856023039996074, 43.091851352486955 ], [ 131.856075139461069, 43.091925654735533 ], [ 131.856223268932752, 43.091993495175061 ], [ 131.856217083377857, 43.092545975544702 ], [ 131.856214673684292, 43.092884174395522 ], [ 131.856159286873265, 43.093164362857578 ], [ 131.856040329127467, 43.093411561995843 ], [ 131.855945958107071, 43.093786843549843 ], [ 131.856144151995863, 43.094251212237403 ], [ 131.856589130727514, 43.094500675844046 ], [ 131.857293206517653, 43.094770484606201 ], [ 131.858263763604555, 43.095070196421219 ], [ 131.858456622646656, 43.095110709047596 ], [ 131.858452649156902, 43.095039429041819 ], [ 131.857923303181025, 43.094836239561175 ], [ 131.857650189098365, 43.094712900366382 ], [ 131.857266457661012, 43.094586161599423 ], [ 131.856920944991629, 43.094506432809609 ], [ 131.856431797046838, 43.094132351926532 ], [ 131.856435768101989, 43.094088964212823 ], [ 131.856273116508333, 43.093960567710106 ], [ 131.856239205992665, 43.093920219644914 ], [ 131.856247991977625, 43.093844251490651 ], [ 131.856259742514766, 43.093808939537979 ], [ 131.856254156414678, 43.093739505386907 ], [ 131.856270616076955, 43.093732950594003 ], [ 131.856524911315432, 43.093550212847504 ], [ 131.856519887346991, 43.093511107375754 ], [ 131.856525433305535, 43.093327962879023 ], [ 131.856533923836565, 43.093097714977162 ], [ 131.856685550084052, 43.092840843229659 ], [ 131.856692910974232, 43.092681447474163 ], [ 131.856688891384778, 43.092537557243482 ], [ 131.856740433613595, 43.092522011701725 ], [ 131.856660085240264, 43.091990927123184 ], [ 131.856654168185941, 43.091916905620188 ], [ 131.856673408014615, 43.091875514995209 ], [ 131.857113310988638, 43.091389537610496 ], [ 131.857247298769693, 43.091263354776046 ] ] ] ] } },
{ "type": "Feature", "properties": { "fid": 15, "Layer": "11 - фрагменты природного ландшафта", "PaperSpace": null, "SubClasses": "AcDbEntity:AcDbPolyline", "Linetype": "ByLayer", "EntityHandle": "535", "Text": null, "ogr_style": "PEN(c:#000000)", "font": null, "angle": null, "size": null, "size_u": null, "anchor": null, "color": "#000000", "underline": null, "plaintext": null, "fcolor": null, "flnum": null, "bold": null, "italic": null, "dx": null, "dx_u": null, "dy": null, "dy_u": null }, "geometry": { "type": "MultiPolygon", "coordinates": [ [ [ [ 131.857883222086372, 43.08447302794437 ], [ 131.858095622287266, 43.084715291488934 ], [ 131.858152259589872, 43.084789347228281 ], [ 131.858508023020477, 43.085242726902273 ], [ 131.858746383464222, 43.085557886997982 ], [ 131.85904160323031, 43.085802154938477 ], [ 131.859103928398923, 43.08584281261421 ], [ 131.859339311682788, 43.085744680909244 ], [ 131.859142637434303, 43.085592832231526 ], [ 131.858659258239442, 43.085109748092812 ], [ 131.858432735357951, 43.084728633306931 ], [ 131.858494154838439, 43.08464202383081 ], [ 131.858415341800992, 43.08454638888059 ], [ 131.85830289829687, 43.084409971001101 ], [ 131.858235206780847, 43.08422575590059 ], [ 131.858058951253014, 43.084401923950104 ], [ 131.857883222086372, 43.08447302794437 ] ] ] ] } },
{ "type": "Feature", "properties": { "fid": 16, "Layer": "11 - фрагменты природного ландшафта", "PaperSpace": null, "SubClasses": "AcDbEntity:AcDbPolyline", "Linetype": "ByLayer", "EntityHandle": "537", "Text": null, "ogr_style": "PEN(c:#000000)", "font": null, "angle": null, "size": null, "size_u": null, "anchor": null, "color": "#000000", "underline": null, "plaintext": null, "fcolor": null, "flnum": null, "bold": null, "italic": null, "dx": null, "dx_u": null, "dy": null, "dy_u": null }, "geometry": { "type": "MultiPolygon", "coordinates": [ [ [ [ 131.849379434506972, 43.079758557283888 ], [ 131.849075548163029, 43.079646977986272 ], [ 131.848677814355199, 43.079546947654265 ], [ 131.848256522043641, 43.079561285210509 ], [ 131.847282270739015, 43.079888929047776 ], [ 131.846975287075338, 43.080036251837463 ], [ 131.846263472604392, 43.08031177892817 ], [ 131.846436000133366, 43.080571177535276 ], [ 131.847221644831052, 43.080473408631086 ], [ 131.848152662310724, 43.080065999955799 ], [ 131.848679108839349, 43.07996329787796 ], [ 131.849083303774108, 43.080141522058298 ], [ 131.849309453394483, 43.080339292872132 ], [ 131.849548024440594, 43.080238141912929 ], [ 131.849961853183487, 43.080384862151625 ], [ 131.849988199994812, 43.080375239924713 ], [ 131.850212755461627, 43.080337106810418 ], [ 131.850323267504336, 43.080396458067902 ], [ 131.851624031591996, 43.080645803084131 ], [ 131.851712712417907, 43.080632149688348 ], [ 131.851878895023987, 43.080634192020405 ], [ 131.851996698976649, 43.080623122081562 ], [ 131.852320096593104, 43.080627024622423 ], [ 131.852808832178596, 43.080849504351555 ], [ 131.852951719693436, 43.081003310229811 ], [ 131.853223405618138, 43.081009249039354 ], [ 131.853536896201234, 43.081147000478083 ], [ 131.853735837179102, 43.081470970655182 ], [ 131.853486059101812, 43.081553336226413 ], [ 131.853469984439045, 43.081703968803296 ], [ 131.853541256866265, 43.081768357469997 ], [ 131.854060073493343, 43.081745708600266 ], [ 131.854290523740104, 43.081778323677085 ], [ 131.854279759453902, 43.082059081206864 ], [ 131.854649068472526, 43.082134919813313 ], [ 131.854825725227215, 43.081924661365775 ], [ 131.854861198273369, 43.081716751268459 ], [ 131.854889430639673, 43.081494998115353 ], [ 131.854758369874872, 43.081168058170384 ], [ 131.854415096667111, 43.080741491480978 ], [ 131.854033278843502, 43.080704316279643 ], [ 131.85362010185807, 43.080500808902514 ], [ 131.852827346374227, 43.080417363150445 ], [ 131.852174872900179, 43.080265369600653 ], [ 131.851222046361386, 43.080201262375574 ], [ 131.851049629655279, 43.08016741631797 ], [ 131.85071316046276, 43.080120433520136 ], [ 131.850369312039362, 43.080112768442334 ], [ 131.850196152658498, 43.080105212214484 ], [ 131.850047996609788, 43.080001814446824 ], [ 131.849379434506972, 43.079758557283888 ] ] ] ] } },
{ "type": "Feature", "properties": { "fid": 17, "Layer": "11 - фрагменты природного ландшафта", "PaperSpace": null, "SubClasses": "AcDbEntity:AcDbPolyline", "Linetype": "ByLayer", "EntityHandle": "539", "Text": null, "ogr_style": "PEN(c:#000000)", "font": null, "angle": null, "size": null, "size_u": null, "anchor": null, "color": "#000000", "underline": null, "plaintext": null, "fcolor": null, "flnum": null, "bold": null, "italic": null, "dx": null, "dx_u": null, "dy": null, "dy_u": null }, "geometry": { "type": "MultiPolygon", "coordinates": [ [ [ [ 131.842423233390775, 43.079710113858503 ], [ 131.843201568479429, 43.079933217571877 ], [ 131.843350772029169, 43.079932379495304 ], [ 131.843527265461773, 43.079981229181236 ], [ 131.843637171930339, 43.080022051529866 ], [ 131.844364094609631, 43.080416227501338 ], [ 131.844648040953643, 43.080527845015638 ], [ 131.844751854131687, 43.080544408782828 ], [ 131.844915397494901, 43.080540458552683 ], [ 131.845354831230139, 43.080455771478313 ], [ 131.846188565186765, 43.080216569847593 ], [ 131.846143072579537, 43.080096135407565 ], [ 131.84561810806693, 43.080161443059659 ], [ 131.845554654681024, 43.080184817642056 ], [ 131.845147117590585, 43.08026492207587 ], [ 131.84505886477578, 43.080260301415137 ], [ 131.844923304822714, 43.080240950677762 ], [ 131.844774833855894, 43.080213324217432 ], [ 131.844646364798024, 43.080185246210235 ], [ 131.844636474326478, 43.080208386985078 ], [ 131.844474601143389, 43.080171089309097 ], [ 131.844406685736971, 43.080139451211984 ], [ 131.844173962396894, 43.08002427725949 ], [ 131.843752388703052, 43.079835891961388 ], [ 131.843726874663218, 43.079823991470576 ], [ 131.843260859953062, 43.07961777342922 ], [ 131.843215952847117, 43.079641333745151 ], [ 131.843027473073022, 43.079538064666956 ], [ 131.84277714937673, 43.079507583181588 ], [ 131.842515349918926, 43.079567947042143 ], [ 131.842423233390775, 43.079710113858503 ] ] ] ] } },
{ "type": "Feature", "properties": { "fid": 18, "Layer": "11 - фрагменты природного ландшафта", "PaperSpace": null, "SubClasses": "AcDbEntity:AcDbPolyline", "Linetype": "ByLayer", "EntityHandle": "53B", "Text": null, "ogr_style": "PEN(c:#000000)", "font": null, "angle": null, "size": null, "size_u": null, "anchor": null, "color": "#000000", "underline": null, "plaintext": null, "fcolor": null, "flnum": null, "bold": null, "italic": null, "dx": null, "dx_u": null, "dy": null, "dy_u": null }, "geometry": { "type": "MultiPolygon", "coordinates": [ [ [ [ 131.8429494076575, 43.080508462400864 ], [ 131.842805708529966, 43.080229071388572 ], [ 131.842320708865117, 43.080231546356011 ], [ 131.842096181383994, 43.080290808766918 ], [ 131.842129762606106, 43.080359172193653 ], [ 131.842311784966654, 43.080669816880743 ], [ 131.842518705569631, 43.08097202516818 ], [ 131.842750254418831, 43.081264449385245 ], [ 131.843005189142531, 43.081546291493957 ], [ 131.843282872952784, 43.081816297427309 ], [ 131.843581819450208, 43.082073761553424 ], [ 131.844017340967611, 43.08239918960011 ], [ 131.844676706663108, 43.082836906368541 ], [ 131.844697798717618, 43.08297585835286 ], [ 131.846782865953713, 43.084225910140852 ], [ 131.847514672446209, 43.085448616863189 ], [ 131.847594902714008, 43.085704360594882 ], [ 131.847583748341634, 43.085798984254865 ], [ 131.847575193662635, 43.085901413337695 ], [ 131.847652003596636, 43.085957812463938 ], [ 131.847667164953265, 43.086020941636136 ], [ 131.84776405586436, 43.086274360273592 ], [ 131.847895061078248, 43.086519610523411 ], [ 131.848058986562393, 43.086754522443904 ], [ 131.848252840347214, 43.086975318892392 ], [ 131.84847622009579, 43.087181489667223 ], [ 131.848726424432101, 43.0873703822556 ], [ 131.849020964256283, 43.087532551918592 ], [ 131.849438073808471, 43.087714840771014 ], [ 131.849796408489311, 43.087799866144493 ], [ 131.850510924927335, 43.087886312989816 ], [ 131.850783568637439, 43.08788334004749 ], [ 131.850784866671802, 43.087399636779963 ], [ 131.850628011032939, 43.08704317354055 ], [ 131.849726485820582, 43.087172364674721 ], [ 131.849235044938922, 43.08699735829407 ], [ 131.848993760164547, 43.086788360361908 ], [ 131.849027916774361, 43.086514635313236 ], [ 131.848865625713927, 43.086449492987931 ], [ 131.849114268886069, 43.085795185272595 ], [ 131.848795349914838, 43.085130037419681 ], [ 131.84890174338156, 43.084275001759259 ], [ 131.848803005642651, 43.083514864774031 ], [ 131.848321227402096, 43.083170971456248 ], [ 131.847646569402997, 43.082725648601944 ], [ 131.846010610304148, 43.082599999463284 ], [ 131.845434624661067, 43.082627776171869 ], [ 131.845095759041385, 43.082620619434003 ], [ 131.84487371751905, 43.082530698470471 ], [ 131.844634741417963, 43.08218991918784 ], [ 131.844127907082509, 43.081910209542286 ], [ 131.844087141392549, 43.0816957821906 ], [ 131.843302182664758, 43.081422481059832 ], [ 131.843202652104424, 43.081247790279278 ], [ 131.843275160643259, 43.081025829185258 ], [ 131.843429913371693, 43.080907003258012 ], [ 131.8429494076575, 43.080508462400864 ] ] ] ] } },
{ "type": "Feature", "properties": { "fid": 19, "Layer": "11 - фрагменты природного ландшафта", "PaperSpace": null, "SubClasses": "AcDbEntity:AcDbPolyline", "Linetype": "ByLayer", "EntityHandle": "53D", "Text": null, "ogr_style": "PEN(c:#000000)", "font": null, "angle": null, "size": null, "size_u": null, "anchor": null, "color": "#000000", "underline": null, "plaintext": null, "fcolor": null, "flnum": null, "bold": null, "italic": null, "dx": null, "dx_u": null, "dy": null, "dy_u": null }, "geometry": { "type": "MultiPolygon", "coordinates": [ [ [ [ 131.831636630813648, 43.076648215421727 ], [ 131.831636729549729, 43.076612209925464 ], [ 131.83146482286071, 43.076611956465584 ], [ 131.831464724023931, 43.076647961961513 ], [ 131.831636630813648, 43.076648215421727 ] ] ] ] } },
{ "type": "Feature", "properties": { "fid": 20, "Layer": "11 - фрагменты природного ландшафта", "PaperSpace": null, "SubClasses": "AcDbEntity:AcDbPolyline", "Linetype": "ByLayer", "EntityHandle": "53F", "Text": null, "ogr_style": "PEN(c:#000000)", "font": null, "angle": null, "size": null, "size_u": null, "anchor": null, "color": "#000000", "underline": null, "plaintext": null, "fcolor": null, "flnum": null, "bold": null, "italic": null, "dx": null, "dx_u": null, "dy": null, "dy_u": null }, "geometry": { "type": "MultiPolygon", "coordinates": [ [ [ [ 131.868070313002505, 43.105187775777772 ], [ 131.869943389401385, 43.105910917410455 ], [ 131.870112515584594, 43.105666586011608 ], [ 131.8701337736955, 43.105635297148083 ], [ 131.869996271173562, 43.105592957194261 ], [ 131.869770508385528, 43.105542214793445 ], [ 131.86966490114429, 43.105511684437019 ], [ 131.869613757435303, 43.105509589324058 ], [ 131.869596345937879, 43.105498243137284 ], [ 131.869633005966335, 43.105468259715842 ], [ 131.86932845061267, 43.105375644301844 ], [ 131.869261913555448, 43.105371543770119 ], [ 131.869104046164722, 43.105312105131929 ], [ 131.86888336625023, 43.105289933753113 ], [ 131.868788070880385, 43.105239315999242 ], [ 131.868707410531329, 43.105178848319611 ], [ 131.868057882597185, 43.104972028458754 ], [ 131.868070313002505, 43.105187775777772 ] ] ] ] } }
]
}
