{
"type": "FeatureCollection",
"name": "15_historical_plan",
"crs": { "type": "name", "properties": { "name": "urn:ogc:def:crs:OGC:1.3:CRS84" } },
"features": [
{ "type": "Feature", "properties": { "fid": 1, "Layer": "15 - историческая планировочная структура", "PaperSpace": null, "SubClasses": "AcDbEntity:AcDbPolyline", "Linetype": "ByLayer", "EntityHandle": "66B", "Text": null, "ogr_style": "PEN(c:#000000)", "font": null, "angle": null, "size": null, "size_u": null, "anchor": null, "color": "#000000", "underline": null, "plaintext": null, "fcolor": null, "flnum": null, "bold": null, "italic": null, "dx": null, "dx_u": null, "dy": null, "dy_u": null }, "geometry": { "type": "LineString", "coordinates": [ [ 131.868455567479117, 43.102278680490755 ], [ 131.868369983532517, 43.102221754211975 ], [ 131.866886480129722, 43.101152216324238 ], [ 131.866312030534601, 43.10077739803252 ], [ 131.865132211180082, 43.100003989230288 ], [ 131.864552600611887, 43.099675281907537 ], [ 131.863902202298306, 43.099359423330817 ], [ 131.863281321273348, 43.098966650593511 ] ] } },
{ "type": "Feature", "properties": { "fid": 2, "Layer": "15 - историческая планировочная структура", "PaperSpace": null, "SubClasses": "AcDbEntity:AcDbPolyline", "Linetype": "ByLayer", "EntityHandle": "66C", "Text": null, "ogr_style": "PEN(c:#000000)", "font": null, "angle": null, "size": null, "size_u": null, "anchor": null, "color": "#000000", "underline": null, "plaintext": null, "fcolor": null, "flnum": null, "bold": null, "italic": null, "dx": null, "dx_u": null, "dy": null, "dy_u": null }, "geometry": { "type": "LineString", "coordinates": [ [ 131.863086014341775, 43.09362961087173 ], [ 131.863227980816561, 43.093554544734374 ], [ 131.863392385915603, 43.093486773160237 ], [ 131.863452166572017, 43.093465336307929 ], [ 131.863517894847831, 43.093457090690421 ], [ 131.864442412009424, 43.093437663729823 ], [ 131.864785253223545, 43.093432827990711 ], [ 131.864889838425682, 43.093405999379378 ], [ 131.864992508009522, 43.093376878515954 ], [ 131.865207749534306, 43.093358879173792 ], [ 131.86536788540505, 43.093359068076843 ], [ 131.865536686983035, 43.093386443212708 ], [ 131.865729383374713, 43.093413007135347 ], [ 131.86588343455162, 43.093423165253057 ], [ 131.866376985713003, 43.093418553657074 ], [ 131.86648530640997, 43.093424548517007 ], [ 131.86657309147509, 43.093449660980035 ] ] } },
{ "type": "Feature", "properties": { "fid": 3, "Layer": "15 - историческая планировочная структура", "PaperSpace": null, "SubClasses": "AcDbEntity:AcDbPolyline", "Linetype": "ByLayer", "EntityHandle": "66D", "Text": null, "ogr_style": "PEN(c:#000000)", "font": null, "angle": null, "size": null, "size_u": null, "anchor": null, "color": "#000000", "underline": null, "plaintext": null, "fcolor": null, "flnum": null, "bold": null, "italic": null, "dx": null, "dx_u": null, "dy": null, "dy_u": null }, "geometry": { "type": "LineString", "coordinates": [ [ 131.880927179078469, 43.116660508524042 ], [ 131.880531844217444, 43.115285559383494 ], [ 131.880349742006359, 43.114729087687039 ], [ 131.879987540870303, 43.113728007849581 ], [ 131.879376304618404, 43.112221011485921 ], [ 131.87884556770868, 43.110721020191058 ], [ 131.878584127485681, 43.110021030205779 ], [ 131.878286182543206, 43.10922304009091 ], [ 131.87791838235168, 43.10828572434346 ], [ 131.877257725003545, 43.107963766095814 ], [ 131.876914805385184, 43.107802682967488 ], [ 131.876580392142642, 43.107559036766631 ], [ 131.876102886359149, 43.107209052392996 ], [ 131.876006272508079, 43.10708836776579 ], [ 131.875747269892258, 43.106533345005452 ], [ 131.875588867591716, 43.106342485345159 ], [ 131.875202849922658, 43.106052544075453 ], [ 131.874751190636545, 43.105796897074143 ], [ 131.87443645216257, 43.10564737622915 ], [ 131.8740842554773, 43.105505246960007 ], [ 131.874040210666863, 43.10549246665714 ], [ 131.874015976558042, 43.105480004184386 ], [ 131.874003481829561, 43.105460744707848 ], [ 131.873996293655182, 43.10541721181459 ] ] } },
{ "type": "Feature", "properties": { "fid": 4, "Layer": "15 - историческая планировочная структура", "PaperSpace": null, "SubClasses": "AcDbEntity:AcDbPolyline", "Linetype": "ByLayer", "EntityHandle": "66E", "Text": null, "ogr_style": "PEN(c:#000000)", "font": null, "angle": null, "size": null, "size_u": null, "anchor": null, "color": "#000000", "underline": null, "plaintext": null, "fcolor": null, "flnum": null, "bold": null, "italic": null, "dx": null, "dx_u": null, "dy": null, "dy_u": null }, "geometry": { "type": "LineString", "coordinates": [ [ 131.880696038801716, 43.111012720983538 ], [ 131.880426876771963, 43.110026042530194 ], [ 131.880123359910158, 43.108822172710454 ], [ 131.880021509033327, 43.108645435147238 ], [ 131.878094971798276, 43.1070701021997 ], [ 131.877919749044935, 43.106966052145587 ], [ 131.87774131173984, 43.10686497775167 ], [ 131.877559753998355, 43.106766932319942 ], [ 131.877375171579786, 43.106671967555037 ], [ 131.877062786327485, 43.106492966551798 ], [ 131.876701052851359, 43.106243339198912 ], [ 131.876476936040604, 43.106111925448658 ], [ 131.875924932246477, 43.105858682000807 ], [ 131.874815820721068, 43.105503303462363 ], [ 131.874455453897696, 43.105368073198868 ], [ 131.874122020182028, 43.105350528750961 ], [ 131.873880726708734, 43.105374646984934 ], [ 131.873634244594598, 43.105373118391782 ], [ 131.87319646962851, 43.105197488080705 ], [ 131.871777033432721, 43.104546028656898 ], [ 131.871574335717582, 43.104426086101697 ], [ 131.870321580541059, 43.103551076430094 ], [ 131.870076286254744, 43.103375315952555 ], [ 131.86946203371042, 43.102948120132098 ], [ 131.868455567479117, 43.102278680490755 ] ] } },
{ "type": "Feature", "properties": { "fid": 5, "Layer": "15 - историческая планировочная структура", "PaperSpace": null, "SubClasses": "AcDbEntity:AcDbPolyline", "Linetype": "ByLayer", "EntityHandle": "66F", "Text": null, "ogr_style": "PEN(c:#000000)", "font": null, "angle": null, "size": null, "size_u": null, "anchor": null, "color": "#000000", "underline": null, "plaintext": null, "fcolor": null, "flnum": null, "bold": null, "italic": null, "dx": null, "dx_u": null, "dy": null, "dy_u": null }, "geometry": { "type": "LineString", "coordinates": [ [ 131.863281321273348, 43.098966650593511 ], [ 131.862687858917155, 43.098494668065051 ], [ 131.861796065301093, 43.097731640294533 ], [ 131.861087398135453, 43.097086264020646 ] ] } },
{ "type": "Feature", "properties": { "fid": 6, "Layer": "15 - историческая планировочная структура", "PaperSpace": null, "SubClasses": "AcDbEntity:AcDbPolyline", "Linetype": "ByLayer", "EntityHandle": "670", "Text": null, "ogr_style": "PEN(c:#000000)", "font": null, "angle": null, "size": null, "size_u": null, "anchor": null, "color": "#000000", "underline": null, "plaintext": null, "fcolor": null, "flnum": null, "bold": null, "italic": null, "dx": null, "dx_u": null, "dy": null, "dy_u": null }, "geometry": { "type": "LineString", "coordinates": [ [ 131.863454784663588, 43.094243206223709 ], [ 131.863321775107238, 43.094109503874719 ], [ 131.863289426198378, 43.094064940335336 ], [ 131.863276007085403, 43.094012252912655 ], [ 131.863265202594135, 43.093924206072124 ], [ 131.863068710880043, 43.093697767671088 ], [ 131.862366765460479, 43.093073944332382 ], [ 131.861653741224245, 43.092407243452591 ], [ 131.861516241596945, 43.092231084998616 ], [ 131.860755034879304, 43.090657003068081 ], [ 131.86066321536785, 43.090503876312674 ], [ 131.860236353164197, 43.090016661144382 ], [ 131.859727835380113, 43.089453389557612 ], [ 131.859316098059736, 43.088963040965666 ], [ 131.858948331103051, 43.088471499236981 ], [ 131.858691670185493, 43.088073726502806 ], [ 131.858594440977754, 43.087919185853693 ], [ 131.858570567186206, 43.087765731061388 ], [ 131.858558170976011, 43.087417466500497 ], [ 131.85857017249279, 43.0869068041047 ], [ 131.858518638559985, 43.086712393069838 ], [ 131.858409862632811, 43.086498544301321 ], [ 131.858130413489761, 43.08613155811554 ], [ 131.857475615006138, 43.08531688445035 ], [ 131.857297853286155, 43.085156584242299 ], [ 131.857120059682927, 43.085070850345659 ], [ 131.856909454254918, 43.085048887616075 ], [ 131.855523820901539, 43.085065834945993 ], [ 131.855116552426182, 43.085058074959896 ], [ 131.854541099868413, 43.08504122395167 ], [ 131.854253295653962, 43.085007904983804 ], [ 131.853998508732985, 43.084947498361849 ], [ 131.85373610766635, 43.084826190487135 ], [ 131.853504906307904, 43.084663486385629 ], [ 131.853211296046084, 43.08436554008162 ], [ 131.85297319683545, 43.084125116437434 ], [ 131.852785190824704, 43.083819672552181 ], [ 131.852617673481063, 43.083529391290092 ], [ 131.85244778294873, 43.083127137291903 ], [ 131.852357259504373, 43.08292992198075 ], [ 131.852252666540465, 43.082636091573789 ], [ 131.852057971449085, 43.082228382151861 ], [ 131.851860234929603, 43.082039719492279 ], [ 131.851794306672929, 43.082012927854358 ] ] } },
{ "type": "Feature", "properties": { "fid": 7, "Layer": "15 - историческая планировочная структура", "PaperSpace": null, "SubClasses": "AcDbEntity:AcDbPolyline", "Linetype": "ByLayer", "EntityHandle": "671", "Text": null, "ogr_style": "PEN(c:#000000)", "font": null, "angle": null, "size": null, "size_u": null, "anchor": null, "color": "#000000", "underline": null, "plaintext": null, "fcolor": null, "flnum": null, "bold": null, "italic": null, "dx": null, "dx_u": null, "dy": null, "dy_u": null }, "geometry": { "type": "LineString", "coordinates": [ [ 131.849928492833072, 43.081287808551345 ], [ 131.849754834680112, 43.081132276695577 ], [ 131.849313910006003, 43.080650048864548 ], [ 131.849272705802321, 43.080618171203653 ], [ 131.849092584153624, 43.080454677937148 ], [ 131.848937317304916, 43.080293282122412 ], [ 131.848802798175456, 43.080198021581637 ], [ 131.848740430103533, 43.080184752081429 ], [ 131.848676404883918, 43.080186709092374 ], [ 131.848583955119722, 43.080205926610752 ], [ 131.848499480754299, 43.080241156199293 ], [ 131.848274234881899, 43.080347288722386 ], [ 131.847938769251613, 43.080514982201031 ], [ 131.847772954966189, 43.080593053833482 ], [ 131.847607630339013, 43.080662374863138 ], [ 131.847306498394261, 43.080763689781989 ], [ 131.847059076663243, 43.08081534933828 ], [ 131.846814232616339, 43.080832431983076 ], [ 131.846280567539992, 43.080869147354576 ], [ 131.845657174921229, 43.08092404709187 ], [ 131.845527268783599, 43.080930509790946 ], [ 131.8454015467982, 43.080913221154837 ], [ 131.845177221657366, 43.080871843249469 ], [ 131.845074804593679, 43.080848613667584 ], [ 131.844934660614172, 43.080780747710882 ], [ 131.84465708470114, 43.080608655546932 ], [ 131.844268927771225, 43.080424082748458 ], [ 131.843833129906642, 43.080204699515697 ], [ 131.843544636634334, 43.080086169277152 ], [ 131.843188013824488, 43.079990378233994 ], [ 131.842750673535534, 43.079865475554946 ], [ 131.842383925803659, 43.079780157479462 ], [ 131.842181069058256, 43.079750623432467 ], [ 131.842019950651604, 43.079685120862635 ], [ 131.841883797281099, 43.079618999685643 ], [ 131.841737142128494, 43.079525620276293 ], [ 131.841622006045952, 43.079427886277365 ], [ 131.841577246370179, 43.079341803446312 ] ] } },
{ "type": "Feature", "properties": { "fid": 8, "Layer": "15 - историческая планировочная структура", "PaperSpace": null, "SubClasses": "AcDbEntity:AcDbPolyline", "Linetype": "ByLayer", "EntityHandle": "672", "Text": null, "ogr_style": "PEN(c:#000000)", "font": null, "angle": null, "size": null, "size_u": null, "anchor": null, "color": "#000000", "underline": null, "plaintext": null, "fcolor": null, "flnum": null, "bold": null, "italic": null, "dx": null, "dx_u": null, "dy": null, "dy_u": null }, "geometry": { "type": "LineString", "coordinates": [ [ 131.879468414570539, 43.112257612297626 ], [ 131.880894288152632, 43.111995195267646 ] ] } },
{ "type": "Feature", "properties": { "fid": 9, "Layer": "15 - историческая планировочная структура", "PaperSpace": null, "SubClasses": "AcDbEntity:AcDbPolyline", "Linetype": "ByLayer", "EntityHandle": "673", "Text": null, "ogr_style": "PEN(c:#000000)", "font": null, "angle": null, "size": null, "size_u": null, "anchor": null, "color": "#000000", "underline": null, "plaintext": null, "fcolor": null, "flnum": null, "bold": null, "italic": null, "dx": null, "dx_u": null, "dy": null, "dy_u": null }, "geometry": { "type": "LineString", "coordinates": [ [ 131.877184774397278, 43.1104182676454 ], [ 131.878025562044911, 43.110275090997966 ], [ 131.878552323559546, 43.110224668690911 ], [ 131.878583043285886, 43.11021900655971 ] ] } },
{ "type": "Feature", "properties": { "fid": 10, "Layer": "15 - историческая планировочная структура", "PaperSpace": null, "SubClasses": "AcDbEntity:AcDbPolyline", "Linetype": "ByLayer", "EntityHandle": "674", "Text": null, "ogr_style": "PEN(c:#000000)", "font": null, "angle": null, "size": null, "size_u": null, "anchor": null, "color": "#000000", "underline": null, "plaintext": null, "fcolor": null, "flnum": null, "bold": null, "italic": null, "dx": null, "dx_u": null, "dy": null, "dy_u": null }, "geometry": { "type": "LineString", "coordinates": [ [ 131.875499630078707, 43.111627604186367 ], [ 131.876695913138889, 43.11235226069941 ], [ 131.87708462748941, 43.11260912063122 ], [ 131.877095866508824, 43.112642990202133 ] ] } },
{ "type": "Feature", "properties": { "fid": 11, "Layer": "15 - историческая планировочная структура", "PaperSpace": null, "SubClasses": "AcDbEntity:AcDbPolyline", "Linetype": "ByLayer", "EntityHandle": "675", "Text": null, "ogr_style": "PEN(c:#000000)", "font": null, "angle": null, "size": null, "size_u": null, "anchor": null, "color": "#000000", "underline": null, "plaintext": null, "fcolor": null, "flnum": null, "bold": null, "italic": null, "dx": null, "dx_u": null, "dy": null, "dy_u": null }, "geometry": { "type": "LineString", "coordinates": [ [ 131.882399771398724, 43.116428697301167 ], [ 131.879439977972879, 43.116986684800466 ] ] } },
{ "type": "Feature", "properties": { "fid": 12, "Layer": "15 - историческая планировочная структура", "PaperSpace": null, "SubClasses": "AcDbEntity:AcDbPolyline", "Linetype": "ByLayer", "EntityHandle": "676", "Text": null, "ogr_style": "PEN(c:#000000)", "font": null, "angle": null, "size": null, "size_u": null, "anchor": null, "color": "#000000", "underline": null, "plaintext": null, "fcolor": null, "flnum": null, "bold": null, "italic": null, "dx": null, "dx_u": null, "dy": null, "dy_u": null }, "geometry": { "type": "LineString", "coordinates": [ [ 131.87930896841749, 43.117011381036761 ], [ 131.877981669632192, 43.117261576743616 ], [ 131.877950207617403, 43.117262036244526 ], [ 131.877918846869619, 43.117260132206866 ], [ 131.877887917369293, 43.117255884665099 ], [ 131.877857744558781, 43.117249338312142 ], [ 131.877828645918328, 43.117240562029231 ], [ 131.877800927625344, 43.117229648161057 ], [ 131.877774881332726, 43.117216711543996 ], [ 131.877750781100104, 43.117201888297913 ], [ 131.877095270228637, 43.11666858499305 ], [ 131.875611828528093, 43.115467633697641 ], [ 131.875240533405986, 43.115069882682945 ], [ 131.874831045179548, 43.114651100471328 ], [ 131.874682916862071, 43.114507739296698 ], [ 131.874541866036395, 43.11433567185103 ], [ 131.874487399083364, 43.114262127805446 ], [ 131.87446469505656, 43.114184978937935 ], [ 131.874467018383569, 43.114078795303534 ], [ 131.874527162893969, 43.113902629373889 ], [ 131.87468824064581, 43.113565972608363 ], [ 131.875011630194251, 43.112945342374985 ] ] } },
{ "type": "Feature", "properties": { "fid": 13, "Layer": "15 - историческая планировочная структура", "PaperSpace": null, "SubClasses": "AcDbEntity:AcDbPolyline", "Linetype": "ByLayer", "EntityHandle": "677", "Text": null, "ogr_style": "PEN(c:#000000)", "font": null, "angle": null, "size": null, "size_u": null, "anchor": null, "color": "#000000", "underline": null, "plaintext": null, "fcolor": null, "flnum": null, "bold": null, "italic": null, "dx": null, "dx_u": null, "dy": null, "dy_u": null }, "geometry": { "type": "LineString", "coordinates": [ [ 131.877848456013169, 43.112505923696062 ], [ 131.877510407268147, 43.111491789924486 ], [ 131.876994650366925, 43.110024707000527 ], [ 131.876872021934048, 43.109708704468801 ], [ 131.876732680443638, 43.109280961870283 ], [ 131.876518720701455, 43.108664561349457 ], [ 131.876285728108058, 43.108016618161052 ], [ 131.876054227776478, 43.107416275664903 ], [ 131.876029037414668, 43.10731419390423 ], [ 131.87608503244536, 43.107271387087224 ] ] } },
{ "type": "Feature", "properties": { "fid": 14, "Layer": "15 - историческая планировочная структура", "PaperSpace": null, "SubClasses": "AcDbEntity:AcDbPolyline", "Linetype": "ByLayer", "EntityHandle": "678", "Text": null, "ogr_style": "PEN(c:#000000)", "font": null, "angle": null, "size": null, "size_u": null, "anchor": null, "color": "#000000", "underline": null, "plaintext": null, "fcolor": null, "flnum": null, "bold": null, "italic": null, "dx": null, "dx_u": null, "dy": null, "dy_u": null }, "geometry": { "type": "LineString", "coordinates": [ [ 131.863284908367177, 43.098965492885227 ], [ 131.864332325602874, 43.099908991485457 ], [ 131.864939678719651, 43.100469858789822 ], [ 131.865778105622439, 43.101226467975117 ], [ 131.866387861408811, 43.101692405018646 ], [ 131.867717701795783, 43.10209391431377 ] ] } },
{ "type": "Feature", "properties": { "fid": 15, "Layer": "15 - историческая планировочная структура", "PaperSpace": null, "SubClasses": "AcDbEntity:AcDbPolyline", "Linetype": "ByLayer", "EntityHandle": "679", "Text": null, "ogr_style": "PEN(c:#000000)", "font": null, "angle": null, "size": null, "size_u": null, "anchor": null, "color": "#000000", "underline": null, "plaintext": null, "fcolor": null, "flnum": null, "bold": null, "italic": null, "dx": null, "dx_u": null, "dy": null, "dy_u": null }, "geometry": { "type": "LineString", "coordinates": [ [ 131.86772245064185, 43.102082007057881 ], [ 131.868094474483343, 43.102181950356105 ], [ 131.868435436281658, 43.102280014588949 ] ] } },
{ "type": "Feature", "properties": { "fid": 16, "Layer": "15 - историческая планировочная структура", "PaperSpace": null, "SubClasses": "AcDbEntity:AcDbPolyline", "Linetype": "ByLayer", "EntityHandle": "67A", "Text": null, "ogr_style": "PEN(c:#000000)", "font": null, "angle": null, "size": null, "size_u": null, "anchor": null, "color": "#000000", "underline": null, "plaintext": null, "fcolor": null, "flnum": null, "bold": null, "italic": null, "dx": null, "dx_u": null, "dy": null, "dy_u": null }, "geometry": { "type": "LineString", "coordinates": [ [ 131.862069399689574, 43.10018619659273 ], [ 131.861601952549478, 43.099563745712167 ], [ 131.861380724520217, 43.099272091250185 ], [ 131.861282052309406, 43.09916463811102 ], [ 131.861245568946003, 43.099097510663043 ], [ 131.861179875897392, 43.098951253096615 ], [ 131.861155687244292, 43.098847468370721 ], [ 131.86112100050039, 43.098501745635978 ], [ 131.860977739689389, 43.09743024602755 ], [ 131.860944166589093, 43.097200957119007 ], [ 131.861047861184176, 43.097133668380046 ] ] } },
{ "type": "Feature", "properties": { "fid": 17, "Layer": "15 - историческая планировочная структура", "PaperSpace": null, "SubClasses": "AcDbEntity:AcDbPolyline", "Linetype": "ByLayer", "EntityHandle": "67B", "Text": null, "ogr_style": "PEN(c:#000000)", "font": null, "angle": null, "size": null, "size_u": null, "anchor": null, "color": "#000000", "underline": null, "plaintext": null, "fcolor": null, "flnum": null, "bold": null, "italic": null, "dx": null, "dx_u": null, "dy": null, "dy_u": null }, "geometry": { "type": "LineString", "coordinates": [ [ 131.863490358049404, 43.094225504041759 ], [ 131.86435162014439, 43.09491900896483 ], [ 131.864929619138024, 43.095409489523448 ], [ 131.865142203921522, 43.09557393105473 ] ] } },
{ "type": "Feature", "properties": { "fid": 18, "Layer": "15 - историческая планировочная структура", "PaperSpace": null, "SubClasses": "AcDbEntity:AcDbPolyline", "Linetype": "ByLayer", "EntityHandle": "67C", "Text": null, "ogr_style": "PEN(c:#000000)", "font": null, "angle": null, "size": null, "size_u": null, "anchor": null, "color": "#000000", "underline": null, "plaintext": null, "fcolor": null, "flnum": null, "bold": null, "italic": null, "dx": null, "dx_u": null, "dy": null, "dy_u": null }, "geometry": { "type": "LineString", "coordinates": [ [ 131.879359115598618, 43.116955618228985 ], [ 131.879066350028154, 43.116022623085058 ], [ 131.878975850394113, 43.115934352749292 ], [ 131.877965926714694, 43.115320247331283 ], [ 131.877299997115529, 43.114974941490111 ], [ 131.876897934930895, 43.114773189968993 ], [ 131.876355380480589, 43.11443715709769 ], [ 131.875427755986209, 43.113473396019216 ], [ 131.875128958153709, 43.113180248652029 ], [ 131.875049910862657, 43.113105791835771 ], [ 131.875000777807685, 43.113091544754248 ] ] } },
{ "type": "Feature", "properties": { "fid": 19, "Layer": "15 - историческая планировочная структура", "PaperSpace": null, "SubClasses": "AcDbEntity:AcDbPolyline", "Linetype": "ByLayer", "EntityHandle": "67D", "Text": null, "ogr_style": "PEN(c:#000000)", "font": null, "angle": null, "size": null, "size_u": null, "anchor": null, "color": "#000000", "underline": null, "plaintext": null, "fcolor": null, "flnum": null, "bold": null, "italic": null, "dx": null, "dx_u": null, "dy": null, "dy_u": null }, "geometry": { "type": "LineString", "coordinates": [ [ 131.875015434705233, 43.112948326572329 ], [ 131.87502597701689, 43.112919647263801 ], [ 131.875040484468769, 43.112891912991707 ], [ 131.875058803586541, 43.112865417146708 ], [ 131.875080740574361, 43.112840440018182 ], [ 131.875106063365536, 43.112817245829334 ], [ 131.875134504076726, 43.112796079942015 ], [ 131.87516576184268, 43.112777166261225 ], [ 131.875199505998438, 43.112760704866822 ], [ 131.875235379577504, 43.112746869896526 ], [ 131.875273003088154, 43.112735807704425 ], [ 131.875311978527549, 43.112727635312368 ], [ 131.875351893591755, 43.112722439172458 ], [ 131.875392326037826, 43.112720274252212 ], [ 131.875432848149359, 43.11272116345333 ], [ 131.875473031261976, 43.11272509736942 ], [ 131.87551245029681, 43.112732034385353 ], [ 131.876139371850883, 43.112870209611238 ], [ 131.879326241307183, 43.112283052086482 ] ] } },
{ "type": "Feature", "properties": { "fid": 20, "Layer": "15 - историческая планировочная структура", "PaperSpace": null, "SubClasses": "AcDbEntity:AcDbPolyline", "Linetype": "ByLayer", "EntityHandle": "67E", "Text": null, "ogr_style": "PEN(c:#000000)", "font": null, "angle": null, "size": null, "size_u": null, "anchor": null, "color": "#000000", "underline": null, "plaintext": null, "fcolor": null, "flnum": null, "bold": null, "italic": null, "dx": null, "dx_u": null, "dy": null, "dy_u": null }, "geometry": { "type": "LineString", "coordinates": [ [ 131.896139030985438, 43.125782965151586 ], [ 131.894028554913007, 43.124933900144455 ], [ 131.892050166477901, 43.124176327477905 ], [ 131.89130801642284, 43.123980080075029 ], [ 131.890823246198352, 43.123927855964354 ], [ 131.890552921154381, 43.123930699895126 ], [ 131.888212436203418, 43.124318736517836 ], [ 131.887437628275734, 43.124371278300771 ], [ 131.885638956828728, 43.124072330012801 ], [ 131.885207403722177, 43.123871986813853 ], [ 131.885049763698049, 43.123711453951699 ], [ 131.884302193964714, 43.121530128580588 ], [ 131.883341628283006, 43.118850054852231 ], [ 131.882786672246226, 43.11730301407453 ], [ 131.88206041908893, 43.115264519273332 ], [ 131.881273123713896, 43.112920764080613 ], [ 131.880965829607049, 43.112001671884904 ], [ 131.880696038801716, 43.111012720983538 ] ] } },
{ "type": "Feature", "properties": { "fid": 21, "Layer": "15 - историческая планировочная структура", "PaperSpace": null, "SubClasses": "AcDbEntity:AcDbPolyline", "Linetype": "ByLayer", "EntityHandle": "67F", "Text": null, "ogr_style": "PEN(c:#000000)", "font": null, "angle": null, "size": null, "size_u": null, "anchor": null, "color": "#000000", "underline": null, "plaintext": null, "fcolor": null, "flnum": null, "bold": null, "italic": null, "dx": null, "dx_u": null, "dy": null, "dy_u": null }, "geometry": { "type": "LineString", "coordinates": [ [ 131.851794306672929, 43.082012927854358 ], [ 131.851496566033973, 43.081891932545041 ], [ 131.850164891300352, 43.081422509941994 ], [ 131.849944362798311, 43.081302021969961 ], [ 131.849928492833072, 43.081287808551345 ] ] } },
{ "type": "Feature", "properties": { "fid": 22, "Layer": "15 - историческая планировочная структура", "PaperSpace": null, "SubClasses": "AcDbEntity:AcDbPolyline", "Linetype": "ByLayer", "EntityHandle": "680", "Text": null, "ogr_style": "PEN(c:#000000)", "font": null, "angle": null, "size": null, "size_u": null, "anchor": null, "color": "#000000", "underline": null, "plaintext": null, "fcolor": null, "flnum": null, "bold": null, "italic": null, "dx": null, "dx_u": null, "dy": null, "dy_u": null }, "geometry": { "type": "LineString", "coordinates": [ [ 131.875937251568587, 43.110666867108343 ], [ 131.876585749792952, 43.110560364201135 ], [ 131.87709846160493, 43.110463612847383 ] ] } },
{ "type": "Feature", "properties": { "fid": 23, "Layer": "15 - историческая планировочная структура", "PaperSpace": null, "SubClasses": "AcDbEntity:AcDbPolyline", "Linetype": "ByLayer", "EntityHandle": "681", "Text": null, "ogr_style": "PEN(c:#000000)", "font": null, "angle": null, "size": null, "size_u": null, "anchor": null, "color": "#000000", "underline": null, "plaintext": null, "fcolor": null, "flnum": null, "bold": null, "italic": null, "dx": null, "dx_u": null, "dy": null, "dy_u": null }, "geometry": { "type": "LineString", "coordinates": [ [ 131.884371621251319, 43.114859921072956 ], [ 131.884891589577393, 43.114537838504333 ], [ 131.885238803352564, 43.114440008719278 ], [ 131.885486242639274, 43.114397044168484 ], [ 131.886833543103393, 43.114184060569762 ], [ 131.887555564374111, 43.114043570660854 ], [ 131.888239663104287, 43.113875644715655 ], [ 131.890755578409227, 43.113233673417014 ], [ 131.892124219545195, 43.112872116833685 ], [ 131.892913263894371, 43.112701074708006 ], [ 131.893287762564796, 43.112646600461311 ], [ 131.893698296326107, 43.112623148479841 ], [ 131.893820261507244, 43.11263013182316 ] ] } },
{ "type": "Feature", "properties": { "fid": 24, "Layer": "15 - историческая планировочная структура", "PaperSpace": null, "SubClasses": "AcDbEntity:AcDbPolyline", "Linetype": "ByLayer", "EntityHandle": "682", "Text": null, "ogr_style": "PEN(c:#000000)", "font": null, "angle": null, "size": null, "size_u": null, "anchor": null, "color": "#000000", "underline": null, "plaintext": null, "fcolor": null, "flnum": null, "bold": null, "italic": null, "dx": null, "dx_u": null, "dy": null, "dy_u": null }, "geometry": { "type": "LineString", "coordinates": [ [ 131.884119040293797, 43.115980624499485 ], [ 131.884067083498138, 43.115823353419685 ], [ 131.884053602808592, 43.115743482814409 ], [ 131.88404707673817, 43.115590416975003 ], [ 131.884055245822566, 43.115475630962486 ], [ 131.884073579448398, 43.115392740790718 ], [ 131.884120425825017, 43.115248879388957 ], [ 131.884188809520708, 43.115129163336022 ], [ 131.884254925985829, 43.115017404115711 ], [ 131.884319542527237, 43.114924153356121 ], [ 131.884373112749415, 43.114862230580037 ] ] } },
{ "type": "Feature", "properties": { "fid": 25, "Layer": "15 - историческая планировочная структура", "PaperSpace": null, "SubClasses": "AcDbEntity:AcDbPolyline", "Linetype": "ByLayer", "EntityHandle": "683", "Text": null, "ogr_style": "PEN(c:#000000)", "font": null, "angle": null, "size": null, "size_u": null, "anchor": null, "color": "#000000", "underline": null, "plaintext": null, "fcolor": null, "flnum": null, "bold": null, "italic": null, "dx": null, "dx_u": null, "dy": null, "dy_u": null }, "geometry": { "type": "LineString", "coordinates": [ [ 131.891935287289726, 43.121268901768424 ], [ 131.892013354461255, 43.121250361288197 ], [ 131.894760915977855, 43.120711037685297 ] ] } },
{ "type": "Feature", "properties": { "fid": 26, "Layer": "15 - историческая планировочная структура", "PaperSpace": null, "SubClasses": "AcDbEntity:AcDbPolyline", "Linetype": "ByLayer", "EntityHandle": "684", "Text": null, "ogr_style": "PEN(c:#000000)", "font": null, "angle": null, "size": null, "size_u": null, "anchor": null, "color": "#000000", "underline": null, "plaintext": null, "fcolor": null, "flnum": null, "bold": null, "italic": null, "dx": null, "dx_u": null, "dy": null, "dy_u": null }, "geometry": { "type": "LineString", "coordinates": [ [ 131.879842954991659, 43.11810258097114 ], [ 131.88277673343589, 43.117539923005921 ] ] } },
{ "type": "Feature", "properties": { "fid": 27, "Layer": "15 - историческая планировочная структура", "PaperSpace": null, "SubClasses": "AcDbEntity:AcDbPolyline", "Linetype": "ByLayer", "EntityHandle": "685", "Text": null, "ogr_style": "PEN(c:#000000)", "font": null, "angle": null, "size": null, "size_u": null, "anchor": null, "color": "#000000", "underline": null, "plaintext": null, "fcolor": null, "flnum": null, "bold": null, "italic": null, "dx": null, "dx_u": null, "dy": null, "dy_u": null }, "geometry": { "type": "LineString", "coordinates": [ [ 131.882542952337133, 43.116352194385001 ], [ 131.886828672622954, 43.115532937635692 ], [ 131.887162581500775, 43.115508539989648 ], [ 131.892563582363522, 43.114458412680548 ], [ 131.896164753812627, 43.113757614453149 ], [ 131.896638030693794, 43.113760484341761 ], [ 131.897752410921868, 43.113922774396052 ], [ 131.902531715178924, 43.115085463885862 ], [ 131.904869771428025, 43.115702945695091 ], [ 131.90505104806266, 43.115712218774355 ], [ 131.905950980438774, 43.11560789805857 ], [ 131.909390169007963, 43.114729716560497 ], [ 131.910757488095612, 43.113953707121148 ], [ 131.910984293960126, 43.113862558858195 ], [ 131.911762847450035, 43.113648552439813 ], [ 131.9144818088958, 43.113047485902868 ], [ 131.91721508499927, 43.112468572355944 ], [ 131.91808199260629, 43.112327839981667 ], [ 131.920319156115909, 43.11232942512116 ], [ 131.92134037726882, 43.112259701567687 ], [ 131.924402189752385, 43.112180188353896 ] ] } },
{ "type": "Feature", "properties": { "fid": 28, "Layer": "15 - историческая планировочная структура", "PaperSpace": null, "SubClasses": "AcDbEntity:AcDbPolyline", "Linetype": "ByLayer", "EntityHandle": "686", "Text": null, "ogr_style": "PEN(c:#000000)", "font": null, "angle": null, "size": null, "size_u": null, "anchor": null, "color": "#000000", "underline": null, "plaintext": null, "fcolor": null, "flnum": null, "bold": null, "italic": null, "dx": null, "dx_u": null, "dy": null, "dy_u": null }, "geometry": { "type": "LineString", "coordinates": [ [ 131.933231587329971, 43.111732608511886 ], [ 131.933354477240158, 43.11170929664199 ], [ 131.935563030482541, 43.110587599297546 ], [ 131.936859773326518, 43.109888827825536 ] ] } },
{ "type": "Feature", "properties": { "fid": 29, "Layer": "15 - историческая планировочная структура", "PaperSpace": null, "SubClasses": "AcDbEntity:AcDbPolyline", "Linetype": "ByLayer", "EntityHandle": "687", "Text": null, "ogr_style": "PEN(c:#000000)", "font": null, "angle": null, "size": null, "size_u": null, "anchor": null, "color": "#000000", "underline": null, "plaintext": null, "fcolor": null, "flnum": null, "bold": null, "italic": null, "dx": null, "dx_u": null, "dy": null, "dy_u": null }, "geometry": { "type": "LineString", "coordinates": [ [ 131.880927179078469, 43.116660508524042 ], [ 131.880531844217444, 43.115285559383494 ], [ 131.880349742006359, 43.114729087687039 ], [ 131.879987540870303, 43.113728007849581 ], [ 131.879376304618404, 43.112221011485921 ], [ 131.87884556770868, 43.110721020191058 ], [ 131.878584127485681, 43.110021030205779 ] ] } },
{ "type": "Feature", "properties": { "fid": 30, "Layer": "15 - историческая планировочная структура", "PaperSpace": null, "SubClasses": "AcDbEntity:AcDbPolyline", "Linetype": "ByLayer", "EntityHandle": "688", "Text": null, "ogr_style": "PEN(c:#000000)", "font": null, "angle": null, "size": null, "size_u": null, "anchor": null, "color": "#000000", "underline": null, "plaintext": null, "fcolor": null, "flnum": null, "bold": null, "italic": null, "dx": null, "dx_u": null, "dy": null, "dy_u": null }, "geometry": { "type": "LineString", "coordinates": [ [ 131.892190184441915, 43.127653107493295 ], [ 131.890630295098475, 43.125777170474294 ], [ 131.890556514188404, 43.125696345374216 ], [ 131.890468951819287, 43.125620086076331 ], [ 131.890325703744878, 43.125556091074699 ], [ 131.890179659335558, 43.125507466685612 ], [ 131.88923212149524, 43.125277202704275 ], [ 131.888961337281643, 43.125101731671762 ], [ 131.888873648556483, 43.124971134326877 ], [ 131.887846631073444, 43.122339871645593 ], [ 131.887076304747353, 43.120192084249737 ], [ 131.886374438659715, 43.118097921554757 ], [ 131.885543220919061, 43.115842834789767 ] ] } },
{ "type": "Feature", "properties": { "fid": 31, "Layer": "15 - историческая планировочная структура", "PaperSpace": null, "SubClasses": "AcDbEntity:AcDbPolyline", "Linetype": "ByLayer", "EntityHandle": "689", "Text": null, "ogr_style": "PEN(c:#000000)", "font": null, "angle": null, "size": null, "size_u": null, "anchor": null, "color": "#000000", "underline": null, "plaintext": null, "fcolor": null, "flnum": null, "bold": null, "italic": null, "dx": null, "dx_u": null, "dy": null, "dy_u": null }, "geometry": { "type": "LineString", "coordinates": [ [ 131.894028554913007, 43.124933900144455 ], [ 131.892050166477901, 43.124176327477905 ], [ 131.89130801642284, 43.123980080075029 ], [ 131.890823246198352, 43.123927855964354 ], [ 131.890552921154381, 43.123930699895126 ], [ 131.888683861611781, 43.124240581612142 ] ] } },
{ "type": "Feature", "properties": { "fid": 32, "Layer": "15 - историческая планировочная структура", "PaperSpace": null, "SubClasses": "AcDbEntity:AcDbPolyline", "Linetype": "ByLayer", "EntityHandle": "68A", "Text": null, "ogr_style": "PEN(c:#000000)", "font": null, "angle": null, "size": null, "size_u": null, "anchor": null, "color": "#000000", "underline": null, "plaintext": null, "fcolor": null, "flnum": null, "bold": null, "italic": null, "dx": null, "dx_u": null, "dy": null, "dy_u": null }, "geometry": { "type": "LineString", "coordinates": [ [ 131.885291909973205, 43.123863445961703 ], [ 131.885174051064013, 43.12378227473436 ], [ 131.885031557632374, 43.123596657826944 ], [ 131.884302193964714, 43.121530128580588 ], [ 131.883341628283006, 43.118850054852231 ], [ 131.882786672246226, 43.11730301407453 ], [ 131.88206041908893, 43.115264519273332 ], [ 131.881273123713896, 43.112920764080613 ], [ 131.880965829607049, 43.112001671884904 ], [ 131.880678035580672, 43.110917062612138 ] ] } },
{ "type": "Feature", "properties": { "fid": 33, "Layer": "15 - историческая планировочная структура", "PaperSpace": null, "SubClasses": "AcDbEntity:AcDbPolyline", "Linetype": "ByLayer", "EntityHandle": "68B", "Text": null, "ogr_style": "PEN(c:#000000)", "font": null, "angle": null, "size": null, "size_u": null, "anchor": null, "color": "#000000", "underline": null, "plaintext": null, "fcolor": null, "flnum": null, "bold": null, "italic": null, "dx": null, "dx_u": null, "dy": null, "dy_u": null }, "geometry": { "type": "LineString", "coordinates": [ [ 131.88193219026823, 43.124300282319005 ], [ 131.881897796952074, 43.123877504294413 ], [ 131.881775667639289, 43.12345829715948 ], [ 131.881691142564165, 43.123273247541555 ], [ 131.881263081658602, 43.122120950759971 ], [ 131.880922022749246, 43.121215257268766 ] ] } },
{ "type": "Feature", "properties": { "fid": 34, "Layer": "15 - историческая планировочная структура", "PaperSpace": null, "SubClasses": "AcDbEntity:AcDbPolyline", "Linetype": "ByLayer", "EntityHandle": "68C", "Text": null, "ogr_style": "PEN(c:#000000)", "font": null, "angle": null, "size": null, "size_u": null, "anchor": null, "color": "#000000", "underline": null, "plaintext": null, "fcolor": null, "flnum": null, "bold": null, "italic": null, "dx": null, "dx_u": null, "dy": null, "dy_u": null }, "geometry": { "type": "LineString", "coordinates": [ [ 131.880804963513953, 43.120905774476057 ], [ 131.880793562618919, 43.120874119833474 ], [ 131.879814918604751, 43.118218823114923 ], [ 131.879389704854503, 43.117042259145663 ] ] } },
{ "type": "Feature", "properties": { "fid": 35, "Layer": "15 - историческая планировочная структура", "PaperSpace": null, "SubClasses": "AcDbEntity:AcDbPolyline", "Linetype": "ByLayer", "EntityHandle": "68D", "Text": null, "ogr_style": "PEN(c:#000000)", "font": null, "angle": null, "size": null, "size_u": null, "anchor": null, "color": "#000000", "underline": null, "plaintext": null, "fcolor": null, "flnum": null, "bold": null, "italic": null, "dx": null, "dx_u": null, "dy": null, "dy_u": null }, "geometry": { "type": "LineString", "coordinates": [ [ 131.879359115598618, 43.116955618228985 ], [ 131.879066350028154, 43.116022623085058 ], [ 131.878975850394113, 43.115934352749292 ], [ 131.877965926714694, 43.115320247331283 ], [ 131.877299997115529, 43.114974941490111 ], [ 131.876897934930895, 43.114773189968993 ], [ 131.876355380480589, 43.11443715709769 ], [ 131.875427755986209, 43.113473396019216 ], [ 131.875128958153709, 43.113180248652029 ], [ 131.875049910862657, 43.113105791835771 ], [ 131.875000777807685, 43.113091544754248 ] ] } },
{ "type": "Feature", "properties": { "fid": 36, "Layer": "15 - историческая планировочная структура", "PaperSpace": null, "SubClasses": "AcDbEntity:AcDbPolyline", "Linetype": "ByLayer", "EntityHandle": "68E", "Text": null, "ogr_style": "PEN(c:#000000)", "font": null, "angle": null, "size": null, "size_u": null, "anchor": null, "color": "#000000", "underline": null, "plaintext": null, "fcolor": null, "flnum": null, "bold": null, "italic": null, "dx": null, "dx_u": null, "dy": null, "dy_u": null }, "geometry": { "type": "LineString", "coordinates": [ [ 131.879443666884583, 43.112260172514851 ], [ 131.880877054286969, 43.111995507861089 ] ] } },
{ "type": "Feature", "properties": { "fid": 37, "Layer": "15 - историческая планировочная структура", "PaperSpace": null, "SubClasses": "AcDbEntity:AcDbPolyline", "Linetype": "ByLayer", "EntityHandle": "68F", "Text": null, "ogr_style": "PEN(c:#000000)", "font": null, "angle": null, "size": null, "size_u": null, "anchor": null, "color": "#000000", "underline": null, "plaintext": null, "fcolor": null, "flnum": null, "bold": null, "italic": null, "dx": null, "dx_u": null, "dy": null, "dy_u": null }, "geometry": { "type": "LineString", "coordinates": [ [ 131.935985855675796, 43.11442262178236 ], [ 131.936156540819525, 43.11290899329807 ], [ 131.936320681196179, 43.112133341710567 ], [ 131.936380407029077, 43.111997338144853 ], [ 131.936503450321226, 43.111516914265302 ], [ 131.936728090962191, 43.110688224863452 ], [ 131.937200412574981, 43.110125400252521 ] ] } },
{ "type": "Feature", "properties": { "fid": 38, "Layer": "15 - историческая планировочная структура", "PaperSpace": null, "SubClasses": "AcDbEntity:AcDbPolyline", "Linetype": "ByLayer", "EntityHandle": "690", "Text": null, "ogr_style": "PEN(c:#000000)", "font": null, "angle": null, "size": null, "size_u": null, "anchor": null, "color": "#000000", "underline": null, "plaintext": null, "fcolor": null, "flnum": null, "bold": null, "italic": null, "dx": null, "dx_u": null, "dy": null, "dy_u": null }, "geometry": { "type": "LineString", "coordinates": [ [ 131.936057413157016, 43.11299890557008 ], [ 131.935059871689305, 43.112926243262727 ], [ 131.933419505823338, 43.112824039980296 ], [ 131.930646947266666, 43.112642947680811 ], [ 131.929175274798951, 43.112525262446866 ], [ 131.927615341755654, 43.112399570388057 ], [ 131.925637760488655, 43.112272775096976 ], [ 131.924944589031838, 43.112237478179949 ], [ 131.924401252428595, 43.112196148565445 ] ] } },
{ "type": "Feature", "properties": { "fid": 39, "Layer": "15 - историческая планировочная структура", "PaperSpace": null, "SubClasses": "AcDbEntity:AcDbPolyline", "Linetype": "ByLayer", "EntityHandle": "691", "Text": null, "ogr_style": "PEN(c:#000000)", "font": null, "angle": null, "size": null, "size_u": null, "anchor": null, "color": "#000000", "underline": null, "plaintext": null, "fcolor": null, "flnum": null, "bold": null, "italic": null, "dx": null, "dx_u": null, "dy": null, "dy_u": null }, "geometry": { "type": "LineString", "coordinates": [ [ 131.876994650366925, 43.110024707000527 ], [ 131.877510407268147, 43.111491789924486 ], [ 131.877848456013169, 43.112505923696062 ] ] } },
{ "type": "Feature", "properties": { "fid": 40, "Layer": "15 - историческая планировочная структура", "PaperSpace": null, "SubClasses": "AcDbEntity:AcDbPolyline", "Linetype": "ByLayer", "EntityHandle": "692", "Text": null, "ogr_style": "PEN(c:#000000)", "font": null, "angle": null, "size": null, "size_u": null, "anchor": null, "color": "#000000", "underline": null, "plaintext": null, "fcolor": null, "flnum": null, "bold": null, "italic": null, "dx": null, "dx_u": null, "dy": null, "dy_u": null }, "geometry": { "type": "LineString", "coordinates": [ [ 131.874844719293861, 43.110209059515761 ], [ 131.875080444905478, 43.110518644445591 ], [ 131.87516737161323, 43.110557386368441 ], [ 131.875258190520015, 43.110590995590414 ], [ 131.875352338177095, 43.110619263594657 ], [ 131.875449230480683, 43.11064201500178 ], [ 131.875548266296533, 43.110659108658069 ], [ 131.875648831190176, 43.110670438511427 ], [ 131.875750301238867, 43.110675934269267 ], [ 131.875852046903418, 43.110675561834945 ], [ 131.876063847242591, 43.1106561303394 ], [ 131.878604344337589, 43.110207407115468 ] ] } },
{ "type": "Feature", "properties": { "fid": 41, "Layer": "15 - историческая планировочная структура", "PaperSpace": null, "SubClasses": "AcDbEntity:AcDbPolyline", "Linetype": "ByLayer", "EntityHandle": "693", "Text": null, "ogr_style": "PEN(c:#000000)", "font": null, "angle": null, "size": null, "size_u": null, "anchor": null, "color": "#000000", "underline": null, "plaintext": null, "fcolor": null, "flnum": null, "bold": null, "italic": null, "dx": null, "dx_u": null, "dy": null, "dy_u": null }, "geometry": { "type": "LineString", "coordinates": [ [ 131.892245507711777, 43.124175126162839 ], [ 131.892288307588075, 43.12411670141406 ], [ 131.891660701295024, 43.123716638054461 ], [ 131.891618411909604, 43.123673457116041 ], [ 131.891582608188202, 43.123627236443021 ], [ 131.89155369338485, 43.123578496634117 ], [ 131.89153199315902, 43.123527786660787 ], [ 131.891517751908594, 43.123475677683381 ], [ 131.891511130017051, 43.123422756618488 ], [ 131.89151220204829, 43.123369619527679 ], [ 131.891520955908192, 43.123316864904417 ], [ 131.891635285085187, 43.122816538461706 ], [ 131.892034146194987, 43.122308759606852 ], [ 131.892107813601996, 43.122181089018966 ], [ 131.892108119263412, 43.122007590603417 ], [ 131.891452876264907, 43.120111203120103 ], [ 131.891034657185287, 43.118873556176688 ], [ 131.890725055909257, 43.117857012504864 ], [ 131.889150501201669, 43.117542121301589 ], [ 131.889034543223488, 43.117529624624964 ], [ 131.88828933444924, 43.115356625358721 ] ] } },
{ "type": "Feature", "properties": { "fid": 42, "Layer": "15 - историческая планировочная структура", "PaperSpace": null, "SubClasses": "AcDbEntity:AcDbPolyline", "Linetype": "ByLayer", "EntityHandle": "694", "Text": null, "ogr_style": "PEN(c:#000000)", "font": null, "angle": null, "size": null, "size_u": null, "anchor": null, "color": "#000000", "underline": null, "plaintext": null, "fcolor": null, "flnum": null, "bold": null, "italic": null, "dx": null, "dx_u": null, "dy": null, "dy_u": null }, "geometry": { "type": "LineString", "coordinates": [ [ 131.878610969312263, 43.124164569767217 ], [ 131.878538940607314, 43.1238245318862 ], [ 131.87778884723744, 43.121466815108299 ], [ 131.877515616227214, 43.120695278744378 ] ] } },
{ "type": "Feature", "properties": { "fid": 43, "Layer": "15 - историческая планировочная структура", "PaperSpace": null, "SubClasses": "AcDbEntity:AcDbPolyline", "Linetype": "ByLayer", "EntityHandle": "695", "Text": null, "ogr_style": "PEN(c:#000000)", "font": null, "angle": null, "size": null, "size_u": null, "anchor": null, "color": "#000000", "underline": null, "plaintext": null, "fcolor": null, "flnum": null, "bold": null, "italic": null, "dx": null, "dx_u": null, "dy": null, "dy_u": null }, "geometry": { "type": "LineString", "coordinates": [ [ 131.875858854192501, 43.121000053137173 ], [ 131.875966273187601, 43.120893745142602 ], [ 131.880476974806584, 43.120196781108078 ] ] } },
{ "type": "Feature", "properties": { "fid": 44, "Layer": "15 - историческая планировочная структура", "PaperSpace": null, "SubClasses": "AcDbEntity:AcDbPolyline", "Linetype": "ByLayer", "EntityHandle": "696", "Text": null, "ogr_style": "PEN(c:#000000)", "font": null, "angle": null, "size": null, "size_u": null, "anchor": null, "color": "#000000", "underline": null, "plaintext": null, "fcolor": null, "flnum": null, "bold": null, "italic": null, "dx": null, "dx_u": null, "dy": null, "dy_u": null }, "geometry": { "type": "LineString", "coordinates": [ [ 131.88177182692155, 43.123302237642925 ], [ 131.882163474293634, 43.123224213511662 ], [ 131.884624862013311, 43.122713326624925 ] ] } },
{ "type": "Feature", "properties": { "fid": 45, "Layer": "15 - историческая планировочная структура", "PaperSpace": null, "SubClasses": "AcDbEntity:AcDbPolyline", "Linetype": "ByLayer", "EntityHandle": "697", "Text": null, "ogr_style": "PEN(c:#000000)", "font": null, "angle": null, "size": null, "size_u": null, "anchor": null, "color": "#000000", "underline": null, "plaintext": null, "fcolor": null, "flnum": null, "bold": null, "italic": null, "dx": null, "dx_u": null, "dy": null, "dy_u": null }, "geometry": { "type": "LineString", "coordinates": [ [ 131.884802426025146, 43.122676468969246 ], [ 131.884844089684634, 43.122667820634327 ], [ 131.887668229143458, 43.122108674895124 ], [ 131.887668516370212, 43.122108606693388 ] ] } },
{ "type": "Feature", "properties": { "fid": 46, "Layer": "15 - историческая планировочная структура", "PaperSpace": null, "SubClasses": "AcDbEntity:AcDbPolyline", "Linetype": "ByLayer", "EntityHandle": "698", "Text": null, "ogr_style": "PEN(c:#000000)", "font": null, "angle": null, "size": null, "size_u": null, "anchor": null, "color": "#000000", "underline": null, "plaintext": null, "fcolor": null, "flnum": null, "bold": null, "italic": null, "dx": null, "dx_u": null, "dy": null, "dy_u": null }, "geometry": { "type": "LineString", "coordinates": [ [ 131.887844805742446, 43.122066746789855 ], [ 131.88792287515821, 43.122048209105429 ], [ 131.891779859517158, 43.121292919591603 ] ] } },
{ "type": "Feature", "properties": { "fid": 47, "Layer": "15 - историческая планировочная структура", "PaperSpace": null, "SubClasses": "AcDbEntity:AcDbPolyline", "Linetype": "ByLayer", "EntityHandle": "699", "Text": null, "ogr_style": "PEN(c:#000000)", "font": null, "angle": null, "size": null, "size_u": null, "anchor": null, "color": "#000000", "underline": null, "plaintext": null, "fcolor": null, "flnum": null, "bold": null, "italic": null, "dx": null, "dx_u": null, "dy": null, "dy_u": null }, "geometry": { "type": "LineString", "coordinates": [ [ 131.885306199483296, 43.123779945761179 ], [ 131.885330628758538, 43.123761334229492 ], [ 131.885965586853928, 43.123622600679901 ], [ 131.886143356812113, 43.123610154934639 ], [ 131.888103579596105, 43.123218786142402 ] ] } },
{ "type": "Feature", "properties": { "fid": 48, "Layer": "15 - историческая планировочная структура", "PaperSpace": null, "SubClasses": "AcDbEntity:AcDbPolyline", "Linetype": "ByLayer", "EntityHandle": "69A", "Text": null, "ogr_style": "PEN(c:#000000)", "font": null, "angle": null, "size": null, "size_u": null, "anchor": null, "color": "#000000", "underline": null, "plaintext": null, "fcolor": null, "flnum": null, "bold": null, "italic": null, "dx": null, "dx_u": null, "dy": null, "dy_u": null }, "geometry": { "type": "LineString", "coordinates": [ [ 131.889116764227225, 43.122992141381467 ], [ 131.889916044632173, 43.122825620442079 ], [ 131.891335876241811, 43.122558745810721 ], [ 131.891691776338234, 43.122476523731805 ], [ 131.891755019962289, 43.12247534436554 ], [ 131.891781993052263, 43.122479971690211 ], [ 131.891801418550386, 43.122488229872772 ] ] } },
{ "type": "Feature", "properties": { "fid": 49, "Layer": "15 - историческая планировочная структура", "PaperSpace": null, "SubClasses": "AcDbEntity:AcDbPolyline", "Linetype": "ByLayer", "EntityHandle": "69B", "Text": null, "ogr_style": "PEN(c:#000000)", "font": null, "angle": null, "size": null, "size_u": null, "anchor": null, "color": "#000000", "underline": null, "plaintext": null, "fcolor": null, "flnum": null, "bold": null, "italic": null, "dx": null, "dx_u": null, "dy": null, "dy_u": null }, "geometry": { "type": "LineString", "coordinates": [ [ 131.879789050368629, 43.122467546738534 ], [ 131.881213797548668, 43.122175744476536 ] ] } },
{ "type": "Feature", "properties": { "fid": 50, "Layer": "15 - историческая планировочная структура", "PaperSpace": null, "SubClasses": "AcDbEntity:AcDbPolyline", "Linetype": "ByLayer", "EntityHandle": "69C", "Text": null, "ogr_style": "PEN(c:#000000)", "font": null, "angle": null, "size": null, "size_u": null, "anchor": null, "color": "#000000", "underline": null, "plaintext": null, "fcolor": null, "flnum": null, "bold": null, "italic": null, "dx": null, "dx_u": null, "dy": null, "dy_u": null }, "geometry": { "type": "LineString", "coordinates": [ [ 131.881344716895825, 43.122148929873902 ], [ 131.881394355064799, 43.122138763051765 ], [ 131.882879425258494, 43.121837880335001 ], [ 131.884219558669969, 43.121565380537895 ] ] } },
{ "type": "Feature", "properties": { "fid": 51, "Layer": "15 - историческая планировочная структура", "PaperSpace": null, "SubClasses": "AcDbEntity:AcDbPolyline", "Linetype": "ByLayer", "EntityHandle": "69D", "Text": null, "ogr_style": "PEN(c:#000000)", "font": null, "angle": null, "size": null, "size_u": null, "anchor": null, "color": "#000000", "underline": null, "plaintext": null, "fcolor": null, "flnum": null, "bold": null, "italic": null, "dx": null, "dx_u": null, "dy": null, "dy_u": null }, "geometry": { "type": "LineString", "coordinates": [ [ 131.88439678981905, 43.121529341385944 ], [ 131.884426651400673, 43.121523269137249 ], [ 131.886305272603465, 43.121156883071315 ], [ 131.88726085442454, 43.120967942295941 ] ] } },
{ "type": "Feature", "properties": { "fid": 52, "Layer": "15 - историческая планировочная структура", "PaperSpace": null, "SubClasses": "AcDbEntity:AcDbPolyline", "Linetype": "ByLayer", "EntityHandle": "69E", "Text": null, "ogr_style": "PEN(c:#000000)", "font": null, "angle": null, "size": null, "size_u": null, "anchor": null, "color": "#000000", "underline": null, "plaintext": null, "fcolor": null, "flnum": null, "bold": null, "italic": null, "dx": null, "dx_u": null, "dy": null, "dy_u": null }, "geometry": { "type": "LineString", "coordinates": [ [ 131.877866977833293, 43.121527581212163 ], [ 131.880964745156376, 43.120916212634825 ] ] } },
{ "type": "Feature", "properties": { "fid": 53, "Layer": "15 - историческая планировочная структура", "PaperSpace": null, "SubClasses": "AcDbEntity:AcDbPolyline", "Linetype": "ByLayer", "EntityHandle": "69F", "Text": null, "ogr_style": "PEN(c:#000000)", "font": null, "angle": null, "size": null, "size_u": null, "anchor": null, "color": "#000000", "underline": null, "plaintext": null, "fcolor": null, "flnum": null, "bold": null, "italic": null, "dx": null, "dx_u": null, "dy": null, "dy_u": null }, "geometry": { "type": "LineString", "coordinates": [ [ 131.880987604064842, 43.121247418056967 ], [ 131.881327417723753, 43.120935017406083 ], [ 131.883808902129829, 43.12041809999625 ] ] } },
{ "type": "Feature", "properties": { "fid": 54, "Layer": "15 - историческая планировочная структура", "PaperSpace": null, "SubClasses": "AcDbEntity:AcDbPolyline", "Linetype": "ByLayer", "EntityHandle": "6A0", "Text": null, "ogr_style": "PEN(c:#000000)", "font": null, "angle": null, "size": null, "size_u": null, "anchor": null, "color": "#000000", "underline": null, "plaintext": null, "fcolor": null, "flnum": null, "bold": null, "italic": null, "dx": null, "dx_u": null, "dy": null, "dy_u": null }, "geometry": { "type": "LineString", "coordinates": [ [ 131.883985194950696, 43.120381374100539 ], [ 131.88400259111512, 43.120377750057706 ], [ 131.886855966859599, 43.11981804038691 ] ] } },
{ "type": "Feature", "properties": { "fid": 55, "Layer": "15 - историческая планировочная структура", "PaperSpace": null, "SubClasses": "AcDbEntity:AcDbPolyline", "Linetype": "ByLayer", "EntityHandle": "6A1", "Text": null, "ogr_style": "PEN(c:#000000)", "font": null, "angle": null, "size": null, "size_u": null, "anchor": null, "color": "#000000", "underline": null, "plaintext": null, "fcolor": null, "flnum": null, "bold": null, "italic": null, "dx": null, "dx_u": null, "dy": null, "dy_u": null }, "geometry": { "type": "LineString", "coordinates": [ [ 131.887033635694081, 43.119783186705071 ], [ 131.887108464672707, 43.119768507247059 ], [ 131.891014845086943, 43.11903713246479 ] ] } },
{ "type": "Feature", "properties": { "fid": 56, "Layer": "15 - историческая планировочная структура", "PaperSpace": null, "SubClasses": "AcDbEntity:AcDbPolyline", "Linetype": "ByLayer", "EntityHandle": "6A2", "Text": null, "ogr_style": "PEN(c:#000000)", "font": null, "angle": null, "size": null, "size_u": null, "anchor": null, "color": "#000000", "underline": null, "plaintext": null, "fcolor": null, "flnum": null, "bold": null, "italic": null, "dx": null, "dx_u": null, "dy": null, "dy_u": null }, "geometry": { "type": "LineString", "coordinates": [ [ 131.880267927612579, 43.119265092712723 ], [ 131.883181254398465, 43.11866804095088 ] ] } },
{ "type": "Feature", "properties": { "fid": 57, "Layer": "15 - историческая планировочная структура", "PaperSpace": null, "SubClasses": "AcDbEntity:AcDbPolyline", "Linetype": "ByLayer", "EntityHandle": "6A3", "Text": null, "ogr_style": "PEN(c:#000000)", "font": null, "angle": null, "size": null, "size_u": null, "anchor": null, "color": "#000000", "underline": null, "plaintext": null, "fcolor": null, "flnum": null, "bold": null, "italic": null, "dx": null, "dx_u": null, "dy": null, "dy_u": null }, "geometry": { "type": "LineString", "coordinates": [ [ 131.883358098555505, 43.118631796074119 ], [ 131.883720233470939, 43.118557574170246 ], [ 131.884744681807859, 43.118359718213888 ], [ 131.886265655781159, 43.118065663608782 ] ] } },
{ "type": "Feature", "properties": { "fid": 58, "Layer": "15 - историческая планировочная структура", "PaperSpace": null, "SubClasses": "AcDbEntity:AcDbPolyline", "Linetype": "ByLayer", "EntityHandle": "6A4", "Text": null, "ogr_style": "PEN(c:#000000)", "font": null, "angle": null, "size": null, "size_u": null, "anchor": null, "color": "#000000", "underline": null, "plaintext": null, "fcolor": null, "flnum": null, "bold": null, "italic": null, "dx": null, "dx_u": null, "dy": null, "dy_u": null }, "geometry": { "type": "LineString", "coordinates": [ [ 131.886445547863843, 43.118030882990929 ], [ 131.886520232180942, 43.118016443313024 ], [ 131.888952392149861, 43.117529085332784 ] ] } },
{ "type": "Feature", "properties": { "fid": 59, "Layer": "15 - историческая планировочная структура", "PaperSpace": null, "SubClasses": "AcDbEntity:AcDbPolyline", "Linetype": "ByLayer", "EntityHandle": "6A5", "Text": null, "ogr_style": "PEN(c:#000000)", "font": null, "angle": null, "size": null, "size_u": null, "anchor": null, "color": "#000000", "underline": null, "plaintext": null, "fcolor": null, "flnum": null, "bold": null, "italic": null, "dx": null, "dx_u": null, "dy": null, "dy_u": null }, "geometry": { "type": "LineString", "coordinates": [ [ 131.883628338394516, 43.119385671797893 ], [ 131.883732714710163, 43.119365928184365 ], [ 131.886594966675091, 43.11977572544383 ], [ 131.886609625516087, 43.119815892232182 ] ] } },
{ "type": "Feature", "properties": { "fid": 60, "Layer": "15 - историческая планировочная структура", "PaperSpace": null, "SubClasses": "AcDbEntity:AcDbPolyline", "Linetype": "ByLayer", "EntityHandle": "6A6", "Text": null, "ogr_style": "PEN(c:#000000)", "font": null, "angle": null, "size": null, "size_u": null, "anchor": null, "color": "#000000", "underline": null, "plaintext": null, "fcolor": null, "flnum": null, "bold": null, "italic": null, "dx": null, "dx_u": null, "dy": null, "dy_u": null }, "geometry": { "type": "LineString", "coordinates": [ [ 131.887755753271534, 43.120877735202832 ], [ 131.888374310301657, 43.12071019347205 ], [ 131.890136476758897, 43.12036992141492 ], [ 131.891385062037102, 43.120143051736775 ] ] } },
{ "type": "Feature", "properties": { "fid": 61, "Layer": "15 - историческая планировочная структура", "PaperSpace": null, "SubClasses": "AcDbEntity:AcDbPolyline", "Linetype": "ByLayer", "EntityHandle": "6A7", "Text": null, "ogr_style": "PEN(c:#000000)", "font": null, "angle": null, "size": null, "size_u": null, "anchor": null, "color": "#000000", "underline": null, "plaintext": null, "fcolor": null, "flnum": null, "bold": null, "italic": null, "dx": null, "dx_u": null, "dy": null, "dy_u": null }, "geometry": { "type": "LineString", "coordinates": [ [ 131.890817506806883, 43.117909348848045 ], [ 131.896425792463589, 43.116780553993557 ], [ 131.897715901479671, 43.117067335514314 ], [ 131.898378186699802, 43.117128756143039 ], [ 131.8990958314468, 43.117327251159885 ], [ 131.899811668383364, 43.117739422053972 ], [ 131.90003084420141, 43.117767599728033 ] ] } },
{ "type": "Feature", "properties": { "fid": 62, "Layer": "15 - историческая планировочная структура", "PaperSpace": null, "SubClasses": "AcDbEntity:AcDbPolyline", "Linetype": "ByLayer", "EntityHandle": "6A8", "Text": null, "ogr_style": "PEN(c:#000000)", "font": null, "angle": null, "size": null, "size_u": null, "anchor": null, "color": "#000000", "underline": null, "plaintext": null, "fcolor": null, "flnum": null, "bold": null, "italic": null, "dx": null, "dx_u": null, "dy": null, "dy_u": null }, "geometry": { "type": "LineString", "coordinates": [ [ 131.88295312870855, 43.117508970471995 ], [ 131.883764579418056, 43.11735667549604 ], [ 131.884625828840427, 43.117202312606047 ], [ 131.885860628947114, 43.116960828747558 ] ] } },
{ "type": "Feature", "properties": { "fid": 63, "Layer": "15 - историческая планировочная структура", "PaperSpace": null, "SubClasses": "AcDbEntity:AcDbPolyline", "Linetype": "ByLayer", "EntityHandle": "6A9", "Text": null, "ogr_style": "PEN(c:#000000)", "font": null, "angle": null, "size": null, "size_u": null, "anchor": null, "color": "#000000", "underline": null, "plaintext": null, "fcolor": null, "flnum": null, "bold": null, "italic": null, "dx": null, "dx_u": null, "dy": null, "dy_u": null }, "geometry": { "type": "LineString", "coordinates": [ [ 131.886035017310775, 43.116919675079636 ], [ 131.886157512986898, 43.116890663404689 ], [ 131.887627033792427, 43.116611325128758 ], [ 131.888573262337502, 43.116422761530536 ] ] } },
{ "type": "Feature", "properties": { "fid": 64, "Layer": "15 - историческая планировочная структура", "PaperSpace": null, "SubClasses": "AcDbEntity:AcDbPolyline", "Linetype": "ByLayer", "EntityHandle": "6AA", "Text": null, "ogr_style": "PEN(c:#000000)", "font": null, "angle": null, "size": null, "size_u": null, "anchor": null, "color": "#000000", "underline": null, "plaintext": null, "fcolor": null, "flnum": null, "bold": null, "italic": null, "dx": null, "dx_u": null, "dy": null, "dy_u": null }, "geometry": { "type": "LineString", "coordinates": [ [ 131.89249308935004, 43.114539917290614 ], [ 131.892811110215632, 43.115426791786717 ], [ 131.892947153645736, 43.115849470132545 ] ] } },
{ "type": "Feature", "properties": { "fid": 65, "Layer": "15 - историческая планировочная структура", "PaperSpace": null, "SubClasses": "AcDbEntity:AcDbPolyline", "Linetype": "ByLayer", "EntityHandle": "6AB", "Text": null, "ogr_style": "PEN(c:#000000)", "font": null, "angle": null, "size": null, "size_u": null, "anchor": null, "color": "#000000", "underline": null, "plaintext": null, "fcolor": null, "flnum": null, "bold": null, "italic": null, "dx": null, "dx_u": null, "dy": null, "dy_u": null }, "geometry": { "type": "LineString", "coordinates": [ [ 131.894523539318385, 43.114144572650368 ], [ 131.894841587480016, 43.115031441593793 ], [ 131.895030263059994, 43.115707776384369 ], [ 131.895409412848096, 43.116789863122477 ] ] } },
{ "type": "Feature", "properties": { "fid": 66, "Layer": "15 - историческая планировочная структура", "PaperSpace": null, "SubClasses": "AcDbEntity:AcDbPolyline", "Linetype": "ByLayer", "EntityHandle": "6AC", "Text": null, "ogr_style": "PEN(c:#000000)", "font": null, "angle": null, "size": null, "size_u": null, "anchor": null, "color": "#000000", "underline": null, "plaintext": null, "fcolor": null, "flnum": null, "bold": null, "italic": null, "dx": null, "dx_u": null, "dy": null, "dy_u": null }, "geometry": { "type": "LineString", "coordinates": [ [ 131.895003221831956, 43.115848884805338 ], [ 131.89497068527848, 43.115854700008498 ], [ 131.894934479611464, 43.115871830700996 ], [ 131.89489575371735, 43.115904544094064 ], [ 131.893956216347391, 43.117029852664913 ], [ 131.893893881023359, 43.117103658278623 ], [ 131.89384725060512, 43.117174726233301 ], [ 131.893866291026399, 43.117226084550872 ] ] } },
{ "type": "Feature", "properties": { "fid": 67, "Layer": "15 - историческая планировочная структура", "PaperSpace": null, "SubClasses": "AcDbEntity:AcDbPolyline", "Linetype": "ByLayer", "EntityHandle": "6AD", "Text": null, "ogr_style": "PEN(c:#000000)", "font": null, "angle": null, "size": null, "size_u": null, "anchor": null, "color": "#000000", "underline": null, "plaintext": null, "fcolor": null, "flnum": null, "bold": null, "italic": null, "dx": null, "dx_u": null, "dy": null, "dy_u": null }, "geometry": { "type": "LineString", "coordinates": [ [ 131.898275389748164, 43.11618899612337 ], [ 131.898569043776291, 43.116229760630098 ], [ 131.899321750049523, 43.116287621305304 ], [ 131.900522112575061, 43.11652415810179 ], [ 131.900772118672592, 43.116465336069204 ], [ 131.901295578013048, 43.116359601930405 ], [ 131.901548820277355, 43.116278617916535 ], [ 131.901937714320241, 43.116031992377451 ], [ 131.9019551522683, 43.11602830741063 ] ] } },
{ "type": "Feature", "properties": { "fid": 68, "Layer": "15 - историческая планировочная структура", "PaperSpace": null, "SubClasses": "AcDbEntity:AcDbPolyline", "Linetype": "ByLayer", "EntityHandle": "6AE", "Text": null, "ogr_style": "PEN(c:#000000)", "font": null, "angle": null, "size": null, "size_u": null, "anchor": null, "color": "#000000", "underline": null, "plaintext": null, "fcolor": null, "flnum": null, "bold": null, "italic": null, "dx": null, "dx_u": null, "dy": null, "dy_u": null }, "geometry": { "type": "LineString", "coordinates": [ [ 131.896286540700771, 43.113821527685161 ], [ 131.896327782396838, 43.114188187286331 ], [ 131.896352039041318, 43.114393989627274 ], [ 131.896448125577564, 43.11454388307704 ], [ 131.896708621219489, 43.114678732931907 ], [ 131.897116878084375, 43.114773993232596 ], [ 131.89848028446076, 43.115076279712085 ], [ 131.899823274944623, 43.11539031067845 ], [ 131.901192027328221, 43.115727665846812 ], [ 131.901706360037252, 43.115856564002279 ], [ 131.901984789280277, 43.115923719931935 ], [ 131.901999143525501, 43.115953608772614 ] ] } },
{ "type": "Feature", "properties": { "fid": 69, "Layer": "15 - историческая планировочная структура", "PaperSpace": null, "SubClasses": "AcDbEntity:AcDbPolyline", "Linetype": "ByLayer", "EntityHandle": "6AF", "Text": null, "ogr_style": "PEN(c:#000000)", "font": null, "angle": null, "size": null, "size_u": null, "anchor": null, "color": "#000000", "underline": null, "plaintext": null, "fcolor": null, "flnum": null, "bold": null, "italic": null, "dx": null, "dx_u": null, "dy": null, "dy_u": null }, "geometry": { "type": "LineString", "coordinates": [ [ 131.884371621251319, 43.114859921072956 ], [ 131.884891589577393, 43.114537838504333 ], [ 131.885238803352564, 43.114440008719278 ], [ 131.885486242639274, 43.114397044168484 ], [ 131.886833543103393, 43.114184060569762 ], [ 131.887555564374111, 43.114043570660854 ], [ 131.888239663104287, 43.113875644715655 ], [ 131.890755578409227, 43.113233673417014 ], [ 131.892124219545195, 43.112872116833685 ], [ 131.892913263894371, 43.112701074708006 ], [ 131.893287762564796, 43.112646600461311 ], [ 131.893698296326107, 43.112623148479841 ], [ 131.893820261507244, 43.11263013182316 ] ] } },
{ "type": "Feature", "properties": { "fid": 70, "Layer": "15 - историческая планировочная структура", "PaperSpace": null, "SubClasses": "AcDbEntity:AcDbPolyline", "Linetype": "ByLayer", "EntityHandle": "6B0", "Text": null, "ogr_style": "PEN(c:#000000)", "font": null, "angle": null, "size": null, "size_u": null, "anchor": null, "color": "#000000", "underline": null, "plaintext": null, "fcolor": null, "flnum": null, "bold": null, "italic": null, "dx": null, "dx_u": null, "dy": null, "dy_u": null }, "geometry": { "type": "LineString", "coordinates": [ [ 131.876771929631019, 43.124233849475033 ], [ 131.877690842497799, 43.124066420852074 ], [ 131.878503881967674, 43.123928780742027 ] ] } },
{ "type": "Feature", "properties": { "fid": 71, "Layer": "15 - историческая планировочная структура", "PaperSpace": null, "SubClasses": "AcDbEntity:AcDbPolyline", "Linetype": "ByLayer", "EntityHandle": "6B1", "Text": null, "ogr_style": "PEN(c:#000000)", "font": null, "angle": null, "size": null, "size_u": null, "anchor": null, "color": "#000000", "underline": null, "plaintext": null, "fcolor": null, "flnum": null, "bold": null, "italic": null, "dx": null, "dx_u": null, "dy": null, "dy_u": null }, "geometry": { "type": "LineString", "coordinates": [ [ 131.875499630078707, 43.111627604186367 ], [ 131.876695913138889, 43.11235226069941 ], [ 131.877133152450085, 43.112656404630172 ] ] } },
{ "type": "Feature", "properties": { "fid": 72, "Layer": "15 - историческая планировочная структура", "PaperSpace": null, "SubClasses": "AcDbEntity:AcDbPolyline", "Linetype": "ByLayer", "EntityHandle": "6B2", "Text": null, "ogr_style": "PEN(c:#000000)", "font": null, "angle": null, "size": null, "size_u": null, "anchor": null, "color": "#000000", "underline": null, "plaintext": null, "fcolor": null, "flnum": null, "bold": null, "italic": null, "dx": null, "dx_u": null, "dy": null, "dy_u": null }, "geometry": { "type": "LineString", "coordinates": [ [ 131.901411121171748, 43.11488380799635 ], [ 131.901407038991863, 43.114892872368031 ], [ 131.901408103211594, 43.114916399391255 ], [ 131.901431489862375, 43.114941489274358 ], [ 131.901462445141931, 43.11496395753403 ], [ 131.901641106188521, 43.115075304575768 ], [ 131.901985601097181, 43.115350364338404 ], [ 131.902261108776543, 43.115672369747045 ], [ 131.902455399063996, 43.11594288661091 ], [ 131.902491261801458, 43.116008704686351 ], [ 131.902481270849023, 43.116027915716927 ] ] } },
{ "type": "Feature", "properties": { "fid": 73, "Layer": "15 - историческая планировочная структура", "PaperSpace": null, "SubClasses": "AcDbEntity:AcDbPolyline", "Linetype": "ByLayer", "EntityHandle": "6B3", "Text": null, "ogr_style": "PEN(c:#000000)", "font": null, "angle": null, "size": null, "size_u": null, "anchor": null, "color": "#000000", "underline": null, "plaintext": null, "fcolor": null, "flnum": null, "bold": null, "italic": null, "dx": null, "dx_u": null, "dy": null, "dy_u": null }, "geometry": { "type": "LineString", "coordinates": [ [ 131.900594224337141, 43.116572465799507 ], [ 131.900612639254575, 43.116586308688454 ], [ 131.900639518809669, 43.116594439752724 ], [ 131.900723727731304, 43.116612176163621 ], [ 131.90099971767512, 43.116652061546333 ], [ 131.901772261326357, 43.116832978700238 ], [ 131.901957141154384, 43.116936077949951 ], [ 131.902228482829145, 43.117039334328688 ], [ 131.90254715076324, 43.117241297236454 ], [ 131.902922828202804, 43.117475495986653 ], [ 131.903624644847326, 43.117769701354788 ], [ 131.903981371591669, 43.117890036466498 ], [ 131.904284966027944, 43.118000412933647 ], [ 131.904618252123925, 43.118039182196618 ], [ 131.905198171179023, 43.11804950575776 ], [ 131.905586704002957, 43.11813427845243 ], [ 131.905893070947428, 43.118221338855086 ], [ 131.906198523633975, 43.118326616487806 ], [ 131.906643819399221, 43.118421294186376 ], [ 131.906714543957008, 43.118459034722427 ], [ 131.906713525567937, 43.118478695008278 ] ] } },
{ "type": "Feature", "properties": { "fid": 74, "Layer": "15 - историческая планировочная структура", "PaperSpace": null, "SubClasses": "AcDbEntity:AcDbPolyline", "Linetype": "ByLayer", "EntityHandle": "6B4", "Text": null, "ogr_style": "PEN(c:#000000)", "font": null, "angle": null, "size": null, "size_u": null, "anchor": null, "color": "#000000", "underline": null, "plaintext": null, "fcolor": null, "flnum": null, "bold": null, "italic": null, "dx": null, "dx_u": null, "dy": null, "dy_u": null }, "geometry": { "type": "LineString", "coordinates": [ [ 131.911733984441383, 43.117911816800799 ], [ 131.911739782911752, 43.117814884719309 ], [ 131.911718444336941, 43.117701361323256 ], [ 131.911649666510016, 43.117517004839797 ], [ 131.91154131646968, 43.117314762706592 ], [ 131.911457917764778, 43.117209719351571 ], [ 131.911324195949163, 43.117054568539501 ], [ 131.911228403640592, 43.116956430088997 ], [ 131.911137997544785, 43.116888775082906 ], [ 131.91102581867105, 43.116856883088055 ], [ 131.910852105191992, 43.116819642324629 ], [ 131.910680225173337, 43.116766500234057 ], [ 131.910618755921178, 43.116716095040807 ], [ 131.910379122246781, 43.116758168887742 ], [ 131.909343395658482, 43.117002510197601 ], [ 131.908756012875557, 43.117144111105624 ], [ 131.908421043187985, 43.117212752527188 ], [ 131.90827079791211, 43.117217932551092 ], [ 131.907444471646016, 43.117214613064057 ], [ 131.906876129596498, 43.117196923139957 ], [ 131.906676989620252, 43.117216638278137 ], [ 131.90635471439893, 43.117268056464084 ], [ 131.906282918696917, 43.117262156887001 ], [ 131.906207456783136, 43.117241043488583 ], [ 131.906146943279879, 43.117202973886066 ], [ 131.906100220198425, 43.117154099985939 ], [ 131.906071775373874, 43.117112330183595 ], [ 131.906055278978613, 43.117044061993823 ] ] } },
{ "type": "Feature", "properties": { "fid": 75, "Layer": "15 - историческая планировочная структура", "PaperSpace": null, "SubClasses": "AcDbEntity:AcDbPolyline", "Linetype": "ByLayer", "EntityHandle": "6B5", "Text": null, "ogr_style": "PEN(c:#000000)", "font": null, "angle": null, "size": null, "size_u": null, "anchor": null, "color": "#000000", "underline": null, "plaintext": null, "fcolor": null, "flnum": null, "bold": null, "italic": null, "dx": null, "dx_u": null, "dy": null, "dy_u": null }, "geometry": { "type": "LineString", "coordinates": [ [ 131.90783426094282, 43.115198543990424 ], [ 131.908128657979773, 43.115798595967803 ], [ 131.908158149237295, 43.11582524530801 ] ] } },
{ "type": "Feature", "properties": { "fid": 76, "Layer": "15 - историческая планировочная структура", "PaperSpace": null, "SubClasses": "AcDbEntity:AcDbPolyline", "Linetype": "ByLayer", "EntityHandle": "6B6", "Text": null, "ogr_style": "PEN(c:#000000)", "font": null, "angle": null, "size": null, "size_u": null, "anchor": null, "color": "#000000", "underline": null, "plaintext": null, "fcolor": null, "flnum": null, "bold": null, "italic": null, "dx": null, "dx_u": null, "dy": null, "dy_u": null }, "geometry": { "type": "LineString", "coordinates": [ [ 131.924637306263719, 43.112258282880568 ], [ 131.92463066420126, 43.112432272153796 ], [ 131.924631234772534, 43.113131196153724 ], [ 131.924627134966698, 43.113928019714919 ], [ 131.924638820771065, 43.114459381818151 ] ] } },
{ "type": "Feature", "properties": { "fid": 77, "Layer": "15 - историческая планировочная структура", "PaperSpace": null, "SubClasses": "AcDbEntity:AcDbPolyline", "Linetype": "ByLayer", "EntityHandle": "6B7", "Text": null, "ogr_style": "PEN(c:#000000)", "font": null, "angle": null, "size": null, "size_u": null, "anchor": null, "color": "#000000", "underline": null, "plaintext": null, "fcolor": null, "flnum": null, "bold": null, "italic": null, "dx": null, "dx_u": null, "dy": null, "dy_u": null }, "geometry": { "type": "LineString", "coordinates": [ [ 131.88238844311519, 43.116429768512148 ], [ 131.879308809046506, 43.117011409215223 ] ] } },
{ "type": "Feature", "properties": { "fid": 78, "Layer": "15 - историческая планировочная структура", "PaperSpace": null, "SubClasses": "AcDbEntity:AcDbPolyline", "Linetype": "ByLayer", "EntityHandle": "6B8", "Text": null, "ogr_style": "PEN(c:#000000)", "font": null, "angle": null, "size": null, "size_u": null, "anchor": null, "color": "#000000", "underline": null, "plaintext": null, "fcolor": null, "flnum": null, "bold": null, "italic": null, "dx": null, "dx_u": null, "dy": null, "dy_u": null }, "geometry": { "type": "LineString", "coordinates": [ [ 131.87794873060173, 43.117261999673204 ], [ 131.877894508007813, 43.117256992760417 ], [ 131.87784235858004, 43.1172450169949 ], [ 131.877793937368921, 43.117226452448271 ], [ 131.877750781100104, 43.117201888297913 ], [ 131.877095270228637, 43.11666858499305 ], [ 131.875611828528093, 43.115467633697641 ], [ 131.875240533405986, 43.115069882682945 ], [ 131.874831045179548, 43.114651100471328 ], [ 131.874682916862071, 43.114507739296698 ], [ 131.874541866036395, 43.11433567185103 ], [ 131.874487399083364, 43.114262127805446 ], [ 131.87446469505656, 43.114184978937935 ], [ 131.874467018383569, 43.114078795303534 ], [ 131.874527162893969, 43.113902629373889 ], [ 131.87468824064581, 43.113565972608363 ], [ 131.875011630194251, 43.112945342374985 ] ] } },
{ "type": "Feature", "properties": { "fid": 79, "Layer": "15 - историческая планировочная структура", "PaperSpace": null, "SubClasses": "AcDbEntity:AcDbPolyline", "Linetype": "ByLayer", "EntityHandle": "6B9", "Text": null, "ogr_style": "PEN(c:#000000)", "font": null, "angle": null, "size": null, "size_u": null, "anchor": null, "color": "#000000", "underline": null, "plaintext": null, "fcolor": null, "flnum": null, "bold": null, "italic": null, "dx": null, "dx_u": null, "dy": null, "dy_u": null }, "geometry": { "type": "LineString", "coordinates": [ [ 131.892595357136344, 43.11438483474921 ], [ 131.892170473496321, 43.112938036713629 ] ] } },
{ "type": "Feature", "properties": { "fid": 80, "Layer": "15 - историческая планировочная структура", "PaperSpace": null, "SubClasses": "AcDbEntity:AcDbPolyline", "Linetype": "ByLayer", "EntityHandle": "6BA", "Text": null, "ogr_style": "PEN(c:#000000)", "font": null, "angle": null, "size": null, "size_u": null, "anchor": null, "color": "#000000", "underline": null, "plaintext": null, "fcolor": null, "flnum": null, "bold": null, "italic": null, "dx": null, "dx_u": null, "dy": null, "dy_u": null }, "geometry": { "type": "LineString", "coordinates": [ [ 131.893390444491502, 43.114228180088801 ], [ 131.893171054604636, 43.113622279586735 ], [ 131.892877517902861, 43.112779050844338 ] ] } },
{ "type": "Feature", "properties": { "fid": 81, "Layer": "15 - историческая планировочная структура", "PaperSpace": null, "SubClasses": "AcDbEntity:AcDbPolyline", "Linetype": "ByLayer", "EntityHandle": "6BB", "Text": null, "ogr_style": "PEN(c:#000000)", "font": null, "angle": null, "size": null, "size_u": null, "anchor": null, "color": "#000000", "underline": null, "plaintext": null, "fcolor": null, "flnum": null, "bold": null, "italic": null, "dx": null, "dx_u": null, "dy": null, "dy_u": null }, "geometry": { "type": "LineString", "coordinates": [ [ 131.908451200327704, 43.116489654506871 ], [ 131.90909216789953, 43.116344780824647 ], [ 131.910099321344319, 43.116076684759406 ], [ 131.911209091635982, 43.115785159122559 ], [ 131.912186313919847, 43.115521477176024 ] ] } },
{ "type": "Feature", "properties": { "fid": 82, "Layer": "15 - историческая планировочная структура", "PaperSpace": null, "SubClasses": "AcDbEntity:AcDbPolyline", "Linetype": "ByLayer", "EntityHandle": "6BC", "Text": null, "ogr_style": "PEN(c:#000000)", "font": null, "angle": null, "size": null, "size_u": null, "anchor": null, "color": "#000000", "underline": null, "plaintext": null, "fcolor": null, "flnum": null, "bold": null, "italic": null, "dx": null, "dx_u": null, "dy": null, "dy_u": null }, "geometry": { "type": "LineString", "coordinates": [ [ 131.916850691935679, 43.111435912852784 ], [ 131.917225653734761, 43.112394818974572 ] ] } },
{ "type": "Feature", "properties": { "fid": 83, "Layer": "15 - историческая планировочная структура", "PaperSpace": null, "SubClasses": "AcDbEntity:AcDbPolyline", "Linetype": "ByLayer", "EntityHandle": "6BD", "Text": null, "ogr_style": "PEN(c:#000000)", "font": null, "angle": null, "size": null, "size_u": null, "anchor": null, "color": "#000000", "underline": null, "plaintext": null, "fcolor": null, "flnum": null, "bold": null, "italic": null, "dx": null, "dx_u": null, "dy": null, "dy_u": null }, "geometry": { "type": "LineString", "coordinates": [ [ 131.919604159199849, 43.110727765032195 ], [ 131.919699795913317, 43.111901970026686 ], [ 131.919733559551588, 43.112260590385176 ] ] } },
{ "type": "Feature", "properties": { "fid": 84, "Layer": "15 - историческая планировочная структура", "PaperSpace": null, "SubClasses": "AcDbEntity:AcDbPolyline", "Linetype": "ByLayer", "EntityHandle": "6BE", "Text": null, "ogr_style": "PEN(c:#000000)", "font": null, "angle": null, "size": null, "size_u": null, "anchor": null, "color": "#000000", "underline": null, "plaintext": null, "fcolor": null, "flnum": null, "bold": null, "italic": null, "dx": null, "dx_u": null, "dy": null, "dy_u": null }, "geometry": { "type": "LineString", "coordinates": [ [ 131.924201788301616, 43.109419800455832 ], [ 131.924593925637083, 43.111335312970702 ], [ 131.924605107859009, 43.112012051202363 ] ] } },
{ "type": "Feature", "properties": { "fid": 85, "Layer": "15 - историческая планировочная структура", "PaperSpace": null, "SubClasses": "AcDbEntity:AcDbPolyline", "Linetype": "ByLayer", "EntityHandle": "6BF", "Text": null, "ogr_style": "PEN(c:#000000)", "font": null, "angle": null, "size": null, "size_u": null, "anchor": null, "color": "#000000", "underline": null, "plaintext": null, "fcolor": null, "flnum": null, "bold": null, "italic": null, "dx": null, "dx_u": null, "dy": null, "dy_u": null }, "geometry": { "type": "LineString", "coordinates": [ [ 131.926489301374971, 43.112377193119251 ], [ 131.926353506772784, 43.113321560003342 ], [ 131.926309039767119, 43.113826401911858 ], [ 131.926270034818174, 43.114480377728484 ], [ 131.926264722591213, 43.114721468290085 ], [ 131.926215083761065, 43.115007242191581 ], [ 131.926185626644951, 43.115062618387178 ], [ 131.926138671711556, 43.115093368128591 ], [ 131.92607098229135, 43.115102022352005 ], [ 131.925801870518029, 43.115126725787583 ], [ 131.925520567541042, 43.115118581298617 ], [ 131.925308588065093, 43.115098540045487 ], [ 131.925076966922603, 43.115071449135876 ], [ 131.924901698903852, 43.115036504258029 ], [ 131.924711514074176, 43.114975675737675 ], [ 131.924616321850806, 43.114938260190371 ] ] } },
{ "type": "Feature", "properties": { "fid": 86, "Layer": "15 - историческая планировочная структура", "PaperSpace": null, "SubClasses": "AcDbEntity:AcDbPolyline", "Linetype": "ByLayer", "EntityHandle": "6C0", "Text": null, "ogr_style": "PEN(c:#000000)", "font": null, "angle": null, "size": null, "size_u": null, "anchor": null, "color": "#000000", "underline": null, "plaintext": null, "fcolor": null, "flnum": null, "bold": null, "italic": null, "dx": null, "dx_u": null, "dy": null, "dy_u": null }, "geometry": { "type": "LineString", "coordinates": [ [ 131.889499416849361, 43.119270514192642 ], [ 131.889411559990549, 43.119079903046632 ], [ 131.888499154360886, 43.118773662220939 ], [ 131.887730643996633, 43.118487212552957 ], [ 131.887425119905629, 43.118377473619624 ] ] } },
{ "type": "Feature", "properties": { "fid": 87, "Layer": "15 - историческая планировочная структура", "PaperSpace": null, "SubClasses": "AcDbEntity:AcDbPolyline", "Linetype": "ByLayer", "EntityHandle": "6C1", "Text": null, "ogr_style": "PEN(c:#000000)", "font": null, "angle": null, "size": null, "size_u": null, "anchor": null, "color": "#000000", "underline": null, "plaintext": null, "fcolor": null, "flnum": null, "bold": null, "italic": null, "dx": null, "dx_u": null, "dy": null, "dy_u": null }, "geometry": { "type": "LineString", "coordinates": [ [ 131.885593086099448, 43.12493194835595 ], [ 131.888554046027025, 43.124400449704019 ] ] } },
{ "type": "Feature", "properties": { "fid": 88, "Layer": "15 - историческая планировочная структура", "PaperSpace": null, "SubClasses": "AcDbEntity:AcDbPolyline", "Linetype": "ByLayer", "EntityHandle": "6C2", "Text": null, "ogr_style": "PEN(c:#000000)", "font": null, "angle": null, "size": null, "size_u": null, "anchor": null, "color": "#000000", "underline": null, "plaintext": null, "fcolor": null, "flnum": null, "bold": null, "italic": null, "dx": null, "dx_u": null, "dy": null, "dy_u": null }, "geometry": { "type": "LineString", "coordinates": [ [ 131.91189182285845, 43.114985399456899 ], [ 131.912132092120117, 43.115503576335868 ] ] } },
{ "type": "Feature", "properties": { "fid": 89, "Layer": "15 - историческая планировочная структура", "PaperSpace": null, "SubClasses": "AcDbEntity:AcDbPolyline", "Linetype": "ByLayer", "EntityHandle": "6C3", "Text": null, "ogr_style": "PEN(c:#000000)", "font": null, "angle": null, "size": null, "size_u": null, "anchor": null, "color": "#000000", "underline": null, "plaintext": null, "fcolor": null, "flnum": null, "bold": null, "italic": null, "dx": null, "dx_u": null, "dy": null, "dy_u": null }, "geometry": { "type": "LineString", "coordinates": [ [ 131.908225969804136, 43.115947168644766 ], [ 131.908248403053051, 43.115975674144586 ], [ 131.908471291634498, 43.116451231761062 ] ] } },
{ "type": "Feature", "properties": { "fid": 90, "Layer": "15 - историческая планировочная структура", "PaperSpace": null, "SubClasses": "AcDbEntity:AcDbPolyline", "Linetype": "ByLayer", "EntityHandle": "6C4", "Text": null, "ogr_style": "PEN(c:#000000)", "font": null, "angle": null, "size": null, "size_u": null, "anchor": null, "color": "#000000", "underline": null, "plaintext": null, "fcolor": null, "flnum": null, "bold": null, "italic": null, "dx": null, "dx_u": null, "dy": null, "dy_u": null }, "geometry": { "type": "LineString", "coordinates": [ [ 131.924616321850806, 43.114938260190371 ], [ 131.924326985319595, 43.114824534958132 ], [ 131.924168042284919, 43.114761650727985 ], [ 131.92394547754472, 43.114742138575892 ], [ 131.923830454149737, 43.114748847320577 ], [ 131.923747655479303, 43.11477655861767 ], [ 131.923699124038649, 43.114883857321281 ], [ 131.923722493845275, 43.114994241784927 ], [ 131.923874930327827, 43.115173312109313 ], [ 131.924051270840579, 43.115309151767079 ], [ 131.924875265594437, 43.115752375320781 ], [ 131.925372934101404, 43.116022461440039 ], [ 131.92553303359847, 43.116079008946855 ] ] } },
{ "type": "Feature", "properties": { "fid": 91, "Layer": "15 - историческая планировочная структура", "PaperSpace": null, "SubClasses": "AcDbEntity:AcDbPolyline", "Linetype": "ByLayer", "EntityHandle": "6C5", "Text": null, "ogr_style": "PEN(c:#000000)", "font": null, "angle": null, "size": null, "size_u": null, "anchor": null, "color": "#000000", "underline": null, "plaintext": null, "fcolor": null, "flnum": null, "bold": null, "italic": null, "dx": null, "dx_u": null, "dy": null, "dy_u": null }, "geometry": { "type": "LineString", "coordinates": [ [ 131.924747868576645, 43.112176794536573 ], [ 131.92475395815481, 43.1121231343528 ], [ 131.924764033738825, 43.11209373593919 ], [ 131.924832342427322, 43.112059965181466 ], [ 131.927638078493516, 43.111459331681232 ], [ 131.92789444114797, 43.111433049378711 ], [ 131.933164851436374, 43.111745268060197 ], [ 131.933231587329971, 43.111732608511886 ] ] } },
{ "type": "Feature", "properties": { "fid": 92, "Layer": "15 - историческая планировочная структура", "PaperSpace": null, "SubClasses": "AcDbEntity:AcDbPolyline", "Linetype": "ByLayer", "EntityHandle": "6C6", "Text": null, "ogr_style": "PEN(c:#000000)", "font": null, "angle": null, "size": null, "size_u": null, "anchor": null, "color": "#000000", "underline": null, "plaintext": null, "fcolor": null, "flnum": null, "bold": null, "italic": null, "dx": null, "dx_u": null, "dy": null, "dy_u": null }, "geometry": { "type": "LineString", "coordinates": [ [ 131.9019551522683, 43.11602830741063 ], [ 131.902130188095953, 43.115991318872133 ], [ 131.902853626004259, 43.116208477699516 ], [ 131.90480080848215, 43.116779345155017 ], [ 131.905615236019145, 43.116994838016822 ], [ 131.905883347263313, 43.116996103704352 ], [ 131.906202845140228, 43.116967132231615 ], [ 131.906444583050245, 43.116881630840545 ], [ 131.907815269600746, 43.116104251930928 ], [ 131.908289167750098, 43.115830365838846 ], [ 131.909628990143091, 43.115499482878981 ], [ 131.911650805180813, 43.114976090847094 ], [ 131.912352636377875, 43.114809036002569 ], [ 131.912507407331532, 43.114752527358164 ], [ 131.913756004940467, 43.114390819040842 ], [ 131.914182326480869, 43.114241861603162 ], [ 131.914748375308704, 43.11410474827953 ], [ 131.915192995302959, 43.114010798320614 ], [ 131.915771546622835, 43.113957593824431 ], [ 131.916365898332003, 43.11386541628103 ], [ 131.916947524303026, 43.113736699065591 ] ] } },
{ "type": "Feature", "properties": { "fid": 93, "Layer": "15 - историческая планировочная структура", "PaperSpace": null, "SubClasses": "AcDbEntity:AcDbPolyline", "Linetype": "ByLayer", "EntityHandle": "6C7", "Text": null, "ogr_style": "PEN(c:#000000)", "font": null, "angle": null, "size": null, "size_u": null, "anchor": null, "color": "#000000", "underline": null, "plaintext": null, "fcolor": null, "flnum": null, "bold": null, "italic": null, "dx": null, "dx_u": null, "dy": null, "dy_u": null }, "geometry": { "type": "LineString", "coordinates": [ [ 131.90003084420141, 43.117767599728033 ], [ 131.900243868629303, 43.117794986140126 ], [ 131.901578547315381, 43.117904407094969 ], [ 131.902524430574829, 43.118096361417585 ], [ 131.903251625322838, 43.118362404647812 ], [ 131.903893819394938, 43.118493055359991 ], [ 131.904544956008408, 43.118542642859872 ], [ 131.905954906614397, 43.118522256792588 ], [ 131.906821575140214, 43.118549691753074 ], [ 131.907419477505442, 43.118615375100674 ], [ 131.907896637219267, 43.11866921926427 ], [ 131.908243954198724, 43.118644007844004 ], [ 131.909914637104691, 43.118216827166123 ], [ 131.910736485875333, 43.118070037863895 ], [ 131.911831586370255, 43.117959905488256 ], [ 131.912554027153334, 43.117923921958507 ], [ 131.914050115841007, 43.11771916871853 ], [ 131.914607270463023, 43.117668593899836 ], [ 131.915471422428254, 43.117715035238483 ], [ 131.915918655423155, 43.117810490412737 ], [ 131.91683999010354, 43.117970184805884 ], [ 131.917643212315085, 43.118173431038834 ], [ 131.918437595471659, 43.118316707567196 ], [ 131.919270543095365, 43.118366147406441 ] ] } },
{ "type": "Feature", "properties": { "fid": 94, "Layer": "15 - историческая планировочная структура", "PaperSpace": null, "SubClasses": "AcDbEntity:AcDbPolyline", "Linetype": "ByLayer", "EntityHandle": "6C8", "Text": null, "ogr_style": "PEN(c:#000000)", "font": null, "angle": null, "size": null, "size_u": null, "anchor": null, "color": "#000000", "underline": null, "plaintext": null, "fcolor": null, "flnum": null, "bold": null, "italic": null, "dx": null, "dx_u": null, "dy": null, "dy_u": null }, "geometry": { "type": "LineString", "coordinates": [ [ 131.899908354129764, 43.11437423031839 ], [ 131.899919042347022, 43.114349553223299 ], [ 131.899977228859854, 43.114256787470545 ], [ 131.900023943302557, 43.114196859954298 ], [ 131.900066005280195, 43.114158316408783 ], [ 131.900107286027549, 43.114130395710461 ], [ 131.900155431903045, 43.114106953991886 ], [ 131.900221128052635, 43.114091355731254 ], [ 131.900294462294227, 43.114074645591884 ], [ 131.900408443836199, 43.114066825118691 ], [ 131.900517627628801, 43.114074748356288 ], [ 131.900768250338643, 43.114117467071836 ], [ 131.900885058815817, 43.114132665261145 ], [ 131.900949209387562, 43.114128247843304 ], [ 131.900983604600214, 43.114108148848125 ], [ 131.90099969547083, 43.114074055407031 ], [ 131.900993651042114, 43.114034351390877 ], [ 131.900943293037926, 43.114009146526591 ], [ 131.900882996029708, 43.11399176086983 ], [ 131.900689513260232, 43.113941831256341 ], [ 131.900529283350807, 43.113900181352207 ], [ 131.900365132464287, 43.113865684741384 ], [ 131.90021660866833, 43.113838358502647 ], [ 131.900130621306516, 43.113822537953503 ], [ 131.900034894796391, 43.1137852379835 ], [ 131.899974357739893, 43.113746537342564 ], [ 131.899948860845342, 43.113710044069386 ], [ 131.89993131024039, 43.113675836772401 ], [ 131.899929408328944, 43.113646392896413 ], [ 131.899933854148287, 43.113627004726169 ], [ 131.899946658868942, 43.113594336771506 ] ] } },
{ "type": "Feature", "properties": { "fid": 95, "Layer": "15 - историческая планировочная структура", "PaperSpace": null, "SubClasses": "AcDbEntity:AcDbPolyline", "Linetype": "ByLayer", "EntityHandle": "6C9", "Text": null, "ogr_style": "PEN(c:#000000)", "font": null, "angle": null, "size": null, "size_u": null, "anchor": null, "color": "#000000", "underline": null, "plaintext": null, "fcolor": null, "flnum": null, "bold": null, "italic": null, "dx": null, "dx_u": null, "dy": null, "dy_u": null }, "geometry": { "type": "LineString", "coordinates": [ [ 131.893819925602486, 43.112612493932119 ], [ 131.893986547208755, 43.112617756388047 ], [ 131.894422042143702, 43.112659020708705 ], [ 131.895633333766227, 43.112828515483336 ], [ 131.896707508474321, 43.112996033268963 ], [ 131.897919175862683, 43.113185442429071 ], [ 131.899224202550329, 43.113406727192249 ], [ 131.900028182758462, 43.113569045336035 ], [ 131.900690544768111, 43.113682728818276 ], [ 131.901064019848945, 43.113717997359799 ], [ 131.901349005575156, 43.11372682014435 ], [ 131.901841286032067, 43.113671742645117 ], [ 131.902091984006574, 43.113637653590928 ] ] } },
{ "type": "Feature", "properties": { "fid": 96, "Layer": "15 - историческая планировочная структура", "PaperSpace": null, "SubClasses": "AcDbEntity:AcDbPolyline", "Linetype": "ByLayer", "EntityHandle": "6CA", "Text": null, "ogr_style": "PEN(c:#000000)", "font": null, "angle": null, "size": null, "size_u": null, "anchor": null, "color": "#000000", "underline": null, "plaintext": null, "fcolor": null, "flnum": null, "bold": null, "italic": null, "dx": null, "dx_u": null, "dy": null, "dy_u": null }, "geometry": { "type": "LineString", "coordinates": [ [ 131.888504792196215, 43.124271290196695 ], [ 131.8882125387683, 43.124319740957823 ], [ 131.887490254824286, 43.124367932871131 ], [ 131.887235801238205, 43.124351620737478 ], [ 131.885747140520294, 43.124082471563604 ], [ 131.885670460685361, 43.124061097969047 ], [ 131.885595925360633, 43.12403350510327 ], [ 131.885458154795288, 43.123962132147646 ], [ 131.885304698605893, 43.123873187505744 ], [ 131.885291313193989, 43.123863968789813 ] ] } },
{ "type": "Feature", "properties": { "fid": 97, "Layer": "15 - историческая планировочная структура", "PaperSpace": null, "SubClasses": "AcDbEntity:AcDbPolyline", "Linetype": "ByLayer", "EntityHandle": "6CB", "Text": null, "ogr_style": "PEN(c:#000000)", "font": null, "angle": null, "size": null, "size_u": null, "anchor": null, "color": "#000000", "underline": null, "plaintext": null, "fcolor": null, "flnum": null, "bold": null, "italic": null, "dx": null, "dx_u": null, "dy": null, "dy_u": null }, "geometry": { "type": "LineString", "coordinates": [ [ 131.879308977484527, 43.117011058682053 ], [ 131.877981669632192, 43.117261576743616 ], [ 131.87794873060173, 43.117261999673204 ] ] } },
{ "type": "Feature", "properties": { "fid": 98, "Layer": "15 - историческая планировочная структура", "PaperSpace": null, "SubClasses": "AcDbEntity:AcDbPolyline", "Linetype": "ByLayer", "EntityHandle": "6CC", "Text": null, "ogr_style": "PEN(c:#000000)", "font": null, "angle": null, "size": null, "size_u": null, "anchor": null, "color": "#000000", "underline": null, "plaintext": null, "fcolor": null, "flnum": null, "bold": null, "italic": null, "dx": null, "dx_u": null, "dy": null, "dy_u": null }, "geometry": { "type": "LineString", "coordinates": [ [ 131.875015434705233, 43.112948326572329 ], [ 131.87502597701689, 43.112919647263801 ], [ 131.875040484468769, 43.112891912991707 ], [ 131.875058803586541, 43.112865417146708 ], [ 131.875080740574361, 43.112840440018182 ], [ 131.875106063365536, 43.112817245829334 ], [ 131.875134504076726, 43.112796079942015 ], [ 131.87516576184268, 43.112777166261225 ], [ 131.875199505998438, 43.112760704866822 ], [ 131.875235379577504, 43.112746869896526 ], [ 131.875273003088154, 43.112735807704425 ], [ 131.875311978527549, 43.112727635312368 ], [ 131.875351893591755, 43.112722439172458 ], [ 131.875392326037826, 43.112720274252212 ], [ 131.875432848149359, 43.11272116345333 ], [ 131.875473031261976, 43.11272509736942 ], [ 131.87551245029681, 43.112732034385353 ], [ 131.876139371850883, 43.112870209611238 ], [ 131.879349989631521, 43.112277468639334 ] ] } },
{ "type": "Feature", "properties": { "fid": 99, "Layer": "15 - историческая планировочная структура", "PaperSpace": null, "SubClasses": "AcDbEntity:AcDbPolyline", "Linetype": "ByLayer", "EntityHandle": "6CD", "Text": null, "ogr_style": "PEN(c:#000000)", "font": null, "angle": null, "size": null, "size_u": null, "anchor": null, "color": "#000000", "underline": null, "plaintext": null, "fcolor": null, "flnum": null, "bold": null, "italic": null, "dx": null, "dx_u": null, "dy": null, "dy_u": null }, "geometry": { "type": "LineString", "coordinates": [ [ 131.877455524625248, 43.120617829617196 ], [ 131.877214800239329, 43.119932890374834 ], [ 131.877099437135968, 43.119566471754254 ] ] } },
{ "type": "Feature", "properties": { "fid": 100, "Layer": "15 - историческая планировочная структура", "PaperSpace": null, "SubClasses": "AcDbEntity:AcDbPolyline", "Linetype": "ByLayer", "EntityHandle": "6CE", "Text": null, "ogr_style": "PEN(c:#000000)", "font": null, "angle": null, "size": null, "size_u": null, "anchor": null, "color": "#000000", "underline": null, "plaintext": null, "fcolor": null, "flnum": null, "bold": null, "italic": null, "dx": null, "dx_u": null, "dy": null, "dy_u": null }, "geometry": { "type": "LineString", "coordinates": [ [ 131.934055162872653, 43.112814511534566 ], [ 131.934162146692785, 43.111894484548614 ], [ 131.93413106481961, 43.111566430032823 ], [ 131.934118488547426, 43.111467745503063 ], [ 131.934073185746087, 43.111426108207596 ] ] } },
{ "type": "Feature", "properties": { "fid": 101, "Layer": "15 - историческая планировочная структура", "PaperSpace": null, "SubClasses": "AcDbEntity:AcDbPolyline", "Linetype": "ByLayer", "EntityHandle": "6CF", "Text": null, "ogr_style": "PEN(c:#000000)", "font": null, "angle": null, "size": null, "size_u": null, "anchor": null, "color": "#000000", "underline": null, "plaintext": null, "fcolor": null, "flnum": null, "bold": null, "italic": null, "dx": null, "dx_u": null, "dy": null, "dy_u": null }, "geometry": { "type": "LineString", "coordinates": [ [ 131.884119040293797, 43.115980624499485 ], [ 131.884067083498138, 43.115823353419685 ], [ 131.884053602808592, 43.115743482814409 ], [ 131.88404707673817, 43.115590416975003 ], [ 131.884055245822566, 43.115475630962486 ], [ 131.884073579448398, 43.115392740790718 ], [ 131.884120425825017, 43.115248879388957 ], [ 131.884188809520708, 43.115129163336022 ], [ 131.884254925985829, 43.115017404115711 ], [ 131.884319542527237, 43.114924153356121 ], [ 131.884373112749415, 43.114862230580037 ] ] } },
{ "type": "Feature", "properties": { "fid": 102, "Layer": "15 - историческая планировочная структура", "PaperSpace": null, "SubClasses": "AcDbEntity:AcDbPolyline", "Linetype": "ByLayer", "EntityHandle": "6D0", "Text": null, "ogr_style": "PEN(c:#000000)", "font": null, "angle": null, "size": null, "size_u": null, "anchor": null, "color": "#000000", "underline": null, "plaintext": null, "fcolor": null, "flnum": null, "bold": null, "italic": null, "dx": null, "dx_u": null, "dy": null, "dy_u": null }, "geometry": { "type": "LineString", "coordinates": [ [ 131.884157914566231, 43.116113634153479 ], [ 131.884167085613683, 43.116201478051551 ], [ 131.884201371574733, 43.116313349821887 ], [ 131.884247075184447, 43.116453300110201 ], [ 131.884282753702308, 43.116593146323439 ], [ 131.884294069958287, 43.116709737493565 ], [ 131.884305376684949, 43.116831397309618 ], [ 131.884308541080088, 43.116988529617082 ], [ 131.884309511979779, 43.117076816260322 ], [ 131.884301279941582, 43.117159596369142 ], [ 131.884302444192002, 43.117203716971872 ] ] } },
{ "type": "Feature", "properties": { "fid": 103, "Layer": "15 - историческая планировочная структура", "PaperSpace": null, "SubClasses": "AcDbEntity:AcDbPolyline", "Linetype": "ByLayer", "EntityHandle": "6D1", "Text": null, "ogr_style": "PEN(c:#000000)", "font": null, "angle": null, "size": null, "size_u": null, "anchor": null, "color": "#000000", "underline": null, "plaintext": null, "fcolor": null, "flnum": null, "bold": null, "italic": null, "dx": null, "dx_u": null, "dy": null, "dy_u": null }, "geometry": { "type": "LineString", "coordinates": [ [ 131.884271934571103, 43.117323062890264 ], [ 131.884264663810114, 43.117464921624681 ], [ 131.884256327904893, 43.11755293861156 ], [ 131.884209358306379, 43.117704157883672 ], [ 131.884162246896977, 43.117871316254615 ], [ 131.884124692839578, 43.117980668954111 ], [ 131.884053231025547, 43.118122462615247 ], [ 131.883973629932058, 43.118248010116091 ], [ 131.883918612455005, 43.118334270384061 ], [ 131.883912784864208, 43.118364881355753 ], [ 131.883919331095626, 43.118381478212683 ], [ 131.883929697175489, 43.118402388834639 ], [ 131.883944797461453, 43.118444347869662 ] ] } }
]
}
