{
"type": "FeatureCollection",
"name": "2_okn_federal",
"crs": { "type": "name", "properties": { "name": "urn:ogc:def:crs:OGC:1.3:CRS84" } },
"features": [
{ "type": "Feature", "properties": { "fid": 1, "Layer": "2 - окн федерального значения", "PaperSpace": null, "SubClasses": "AcDbEntity:AcDbPolyline", "Linetype": "ByLayer", "EntityHandle": "5AF", "Text": null, "ogr_style": "PEN(c:#000000)", "font": null, "angle": null, "size": null, "size_u": null, "anchor": null, "color": "#000000", "underline": null, "plaintext": null, "fcolor": null, "flnum": null, "bold": null, "italic": null, "dx": null, "dx_u": null, "dy": null, "dy_u": null }, "geometry": { "type": "MultiPolygon", "coordinates": [ [ [ [ 131.880057374185895, 43.111691921505354 ], [ 131.880106729863087, 43.111583957070998 ], [ 131.880008441347911, 43.111583853807431 ], [ 131.880057374185895, 43.111691921505354 ] ] ] ] } },
{ "type": "Feature", "properties": { "fid": 2, "Layer": "2 - окн федерального значения", "PaperSpace": null, "SubClasses": "AcDbEntity:AcDbPolyline", "Linetype": "ByLayer", "EntityHandle": "5B1", "Text": null, "ogr_style": "PEN(c:#000000)", "font": null, "angle": null, "size": null, "size_u": null, "anchor": null, "color": "#000000", "underline": null, "plaintext": null, "fcolor": null, "flnum": null, "bold": null, "italic": null, "dx": null, "dx_u": null, "dy": null, "dy_u": null }, "geometry": { "type": "MultiPolygon", "coordinates": [ [ [ [ 131.877820955459924, 43.113994541074504 ], [ 131.877857801647792, 43.114024433215526 ], [ 131.877919189628102, 43.11398493895539 ], [ 131.877882345095855, 43.113954212980552 ], [ 131.877820955459924, 43.113994541074504 ] ] ] ] } },
{ "type": "Feature", "properties": { "fid": 3, "Layer": "2 - окн федерального значения", "PaperSpace": null, "SubClasses": "AcDbEntity:AcDbPolyline", "Linetype": "ByLayer", "EntityHandle": "5B3", "Text": null, "ogr_style": "PEN(c:#000000)", "font": null, "angle": null, "size": null, "size_u": null, "anchor": null, "color": "#000000", "underline": null, "plaintext": null, "fcolor": null, "flnum": null, "bold": null, "italic": null, "dx": null, "dx_u": null, "dy": null, "dy_u": null }, "geometry": { "type": "MultiPolygon", "coordinates": [ [ [ [ 131.925247261116112, 43.112755831561252 ], [ 131.925296538246158, 43.112647847594744 ], [ 131.925198247896333, 43.112647783145128 ], [ 131.925247261116112, 43.112755831561252 ] ] ] ] } },
{ "type": "Feature", "properties": { "fid": 4, "Layer": "2 - окн федерального значения", "PaperSpace": null, "SubClasses": "AcDbEntity:AcDbPolyline", "Linetype": "ByLayer", "EntityHandle": "5B5", "Text": null, "ogr_style": "PEN(c:#000000)", "font": null, "angle": null, "size": null, "size_u": null, "anchor": null, "color": "#000000", "underline": null, "plaintext": null, "fcolor": null, "flnum": null, "bold": null, "italic": null, "dx": null, "dx_u": null, "dy": null, "dy_u": null }, "geometry": { "type": "MultiPolygon", "coordinates": [ [ [ [ 131.892933773216157, 43.115093865015233 ], [ 131.892983109015944, 43.114985895070021 ], [ 131.892884815012678, 43.114985802860666 ], [ 131.892933773216157, 43.115093865015233 ] ] ] ] } },
{ "type": "Feature", "properties": { "fid": 5, "Layer": "2 - окн федерального значения", "PaperSpace": null, "SubClasses": "AcDbEntity:AcDbPolyline", "Linetype": "ByLayer", "EntityHandle": "5B7", "Text": null, "ogr_style": "PEN(c:#000000)", "font": null, "angle": null, "size": null, "size_u": null, "anchor": null, "color": "#000000", "underline": null, "plaintext": null, "fcolor": null, "flnum": null, "bold": null, "italic": null, "dx": null, "dx_u": null, "dy": null, "dy_u": null }, "geometry": { "type": "MultiPolygon", "coordinates": [ [ [ [ 131.885435689446268, 43.115569619292209 ], [ 131.885485038805058, 43.11546165260426 ], [ 131.885386744065215, 43.115461553953239 ], [ 131.885435689446268, 43.115569619292209 ] ] ] ] } },
{ "type": "Feature", "properties": { "fid": 6, "Layer": "2 - окн федерального значения", "PaperSpace": null, "SubClasses": "AcDbEntity:AcDbPolyline", "Linetype": "ByLayer", "EntityHandle": "5B9", "Text": null, "ogr_style": "PEN(c:#000000)", "font": null, "angle": null, "size": null, "size_u": null, "anchor": null, "color": "#000000", "underline": null, "plaintext": null, "fcolor": null, "flnum": null, "bold": null, "italic": null, "dx": null, "dx_u": null, "dy": null, "dy_u": null }, "geometry": { "type": "MultiPolygon", "coordinates": [ [ [ [ 131.897988329074195, 43.113735289853793 ], [ 131.898037654896399, 43.113627317693336 ], [ 131.897939363051506, 43.113627229828012 ], [ 131.897988329074195, 43.113735289853793 ] ] ] ] } },
{ "type": "Feature", "properties": { "fid": 7, "Layer": "2 - окн федерального значения", "PaperSpace": null, "SubClasses": "AcDbEntity:AcDbPolyline", "Linetype": "ByLayer", "EntityHandle": "5BB", "Text": null, "ogr_style": "PEN(c:#000000)", "font": null, "angle": null, "size": null, "size_u": null, "anchor": null, "color": "#000000", "underline": null, "plaintext": null, "fcolor": null, "flnum": null, "bold": null, "italic": null, "dx": null, "dx_u": null, "dy": null, "dy_u": null }, "geometry": { "type": "MultiPolygon", "coordinates": [ [ [ [ 131.897988329074195, 43.113735289853793 ], [ 131.898037654896399, 43.113627317693336 ], [ 131.897939363051506, 43.113627229828012 ], [ 131.897988329074195, 43.113735289853793 ] ] ] ] } },
{ "type": "Feature", "properties": { "fid": 8, "Layer": "2 - окн федерального значения", "PaperSpace": null, "SubClasses": "AcDbEntity:AcDbPolyline", "Linetype": "ByLayer", "EntityHandle": "5BD", "Text": null, "ogr_style": "PEN(c:#000000)", "font": null, "angle": null, "size": null, "size_u": null, "anchor": null, "color": "#000000", "underline": null, "plaintext": null, "fcolor": null, "flnum": null, "bold": null, "italic": null, "dx": null, "dx_u": null, "dy": null, "dy_u": null }, "geometry": { "type": "MultiPolygon", "coordinates": [ [ [ [ 131.897988329074195, 43.113735289853793 ], [ 131.898037654896399, 43.113627317693336 ], [ 131.897939363051506, 43.113627229828012 ], [ 131.897988329074195, 43.113735289853793 ] ] ] ] } },
{ "type": "Feature", "properties": { "fid": 9, "Layer": "2 - окн федерального значения", "PaperSpace": null, "SubClasses": "AcDbEntity:AcDbPolyline", "Linetype": "ByLayer", "EntityHandle": "5BF", "Text": null, "ogr_style": "PEN(c:#000000)", "font": null, "angle": null, "size": null, "size_u": null, "anchor": null, "color": "#000000", "underline": null, "plaintext": null, "fcolor": null, "flnum": null, "bold": null, "italic": null, "dx": null, "dx_u": null, "dy": null, "dy_u": null }, "geometry": { "type": "MultiPolygon", "coordinates": [ [ [ [ 131.885435689446268, 43.115569619292209 ], [ 131.885485038805058, 43.11546165260426 ], [ 131.885386744065215, 43.115461553953239 ], [ 131.885435689446268, 43.115569619292209 ] ] ] ] } },
{ "type": "Feature", "properties": { "fid": 10, "Layer": "2 - окн федерального значения", "PaperSpace": null, "SubClasses": "AcDbEntity:AcDbPolyline", "Linetype": "ByLayer", "EntityHandle": "5C1", "Text": null, "ogr_style": "PEN(c:#000000)", "font": null, "angle": null, "size": null, "size_u": null, "anchor": null, "color": "#000000", "underline": null, "plaintext": null, "fcolor": null, "flnum": null, "bold": null, "italic": null, "dx": null, "dx_u": null, "dy": null, "dy_u": null }, "geometry": { "type": "MultiPolygon", "coordinates": [ [ [ [ 131.876199240181535, 43.121776694466398 ], [ 131.876203829743275, 43.121768329757622 ], [ 131.876197527194137, 43.121766314631238 ], [ 131.876268664147403, 43.121623834379633 ], [ 131.876203502265355, 43.121607650420358 ], [ 131.876188488032938, 43.121607928677413 ], [ 131.876180457895742, 43.121611920139266 ], [ 131.87617206021045, 43.12162364078398 ], [ 131.876159140690646, 43.121649626269885 ], [ 131.876099835617964, 43.121670275437154 ], [ 131.876072419286515, 43.121664558529019 ], [ 131.876063368762601, 43.121699027072069 ], [ 131.876085447318616, 43.12170367184298 ], [ 131.876090534802586, 43.1217084758986 ], [ 131.876110857119329, 43.121751526750927 ], [ 131.876145094158261, 43.12176236581648 ], [ 131.876199240181535, 43.121776694466398 ] ] ] ] } },
{ "type": "Feature", "properties": { "fid": 11, "Layer": "2 - окн федерального значения", "PaperSpace": null, "SubClasses": "AcDbEntity:AcDbPolyline", "Linetype": "ByLayer", "EntityHandle": "5C3", "Text": null, "ogr_style": "PEN(c:#000000)", "font": null, "angle": null, "size": null, "size_u": null, "anchor": null, "color": "#000000", "underline": null, "plaintext": null, "fcolor": null, "flnum": null, "bold": null, "italic": null, "dx": null, "dx_u": null, "dy": null, "dy_u": null }, "geometry": { "type": "MultiPolygon", "coordinates": [ [ [ [ 131.925247261116112, 43.112755831561252 ], [ 131.925296538246158, 43.112647847594744 ], [ 131.925198247896333, 43.112647783145128 ], [ 131.925247261116112, 43.112755831561252 ] ] ] ] } },
{ "type": "Feature", "properties": { "fid": 12, "Layer": "2 - окн федерального значения", "PaperSpace": null, "SubClasses": "AcDbEntity:AcDbPolyline", "Linetype": "ByLayer", "EntityHandle": "5C5", "Text": null, "ogr_style": "PEN(c:#000000)", "font": null, "angle": null, "size": null, "size_u": null, "anchor": null, "color": "#000000", "underline": null, "plaintext": null, "fcolor": null, "flnum": null, "bold": null, "italic": null, "dx": null, "dx_u": null, "dy": null, "dy_u": null }, "geometry": { "type": "MultiPolygon", "coordinates": [ [ [ [ 131.877127911855098, 43.125469578795823 ], [ 131.877123519873521, 43.125385612258953 ], [ 131.876933334430561, 43.125389816567889 ], [ 131.87693730659737, 43.125472225140527 ], [ 131.877127911855098, 43.125469578795823 ] ] ] ] } },
{ "type": "Feature", "properties": { "fid": 13, "Layer": "2 - окн федерального значения", "PaperSpace": null, "SubClasses": "AcDbEntity:AcDbPolyline", "Linetype": "ByLayer", "EntityHandle": "5C7", "Text": null, "ogr_style": "PEN(c:#000000)", "font": null, "angle": null, "size": null, "size_u": null, "anchor": null, "color": "#000000", "underline": null, "plaintext": null, "fcolor": null, "flnum": null, "bold": null, "italic": null, "dx": null, "dx_u": null, "dy": null, "dy_u": null }, "geometry": { "type": "MultiPolygon", "coordinates": [ [ [ [ 131.892933773216157, 43.115093865015233 ], [ 131.892983109015944, 43.114985895070021 ], [ 131.892884815012678, 43.114985802860666 ], [ 131.892933773216157, 43.115093865015233 ] ] ] ] } },
{ "type": "Feature", "properties": { "fid": 14, "Layer": "2 - окн федерального значения", "PaperSpace": null, "SubClasses": "AcDbEntity:AcDbPolyline", "Linetype": "ByLayer", "EntityHandle": "5C9", "Text": null, "ogr_style": "PEN(c:#000000)", "font": null, "angle": null, "size": null, "size_u": null, "anchor": null, "color": "#000000", "underline": null, "plaintext": null, "fcolor": null, "flnum": null, "bold": null, "italic": null, "dx": null, "dx_u": null, "dy": null, "dy_u": null }, "geometry": { "type": "MultiPolygon", "coordinates": [ [ [ [ 131.893543054886408, 43.113906128781373 ], [ 131.893528136988436, 43.113866384397468 ], [ 131.893402816001725, 43.11389163140808 ], [ 131.893469749228046, 43.114069955997969 ], [ 131.893489529890076, 43.114065971020118 ], [ 131.893513765312349, 43.114126102352287 ], [ 131.893633388744149, 43.114101841367109 ], [ 131.89362652165579, 43.114083046837727 ], [ 131.893826994050158, 43.114043732524912 ], [ 131.893833533210568, 43.11406162938902 ], [ 131.893933664926294, 43.11404199257148 ], [ 131.893914783739689, 43.113990317326724 ], [ 131.893923987073549, 43.113988512457162 ], [ 131.893876472900729, 43.113857827955471 ], [ 131.893867049906447, 43.113859675902475 ], [ 131.89384502519988, 43.113799396890279 ], [ 131.893741672687014, 43.113820501713626 ], [ 131.893758019368448, 43.113862307657989 ], [ 131.893543054886408, 43.113906128781373 ] ] ] ] } },
{ "type": "Feature", "properties": { "fid": 15, "Layer": "2 - окн федерального значения", "PaperSpace": null, "SubClasses": "AcDbEntity:AcDbPolyline", "Linetype": "ByLayer", "EntityHandle": "5CB", "Text": null, "ogr_style": "PEN(c:#000000)", "font": null, "angle": null, "size": null, "size_u": null, "anchor": null, "color": "#000000", "underline": null, "plaintext": null, "fcolor": null, "flnum": null, "bold": null, "italic": null, "dx": null, "dx_u": null, "dy": null, "dy_u": null }, "geometry": { "type": "MultiPolygon", "coordinates": [ [ [ [ 131.880137323704133, 43.11679148200826 ], [ 131.880076635500814, 43.116633185023922 ], [ 131.88005885610923, 43.116583727974124 ], [ 131.880005577664576, 43.116545005661074 ], [ 131.879926040352643, 43.116591943524234 ], [ 131.879938711004144, 43.116633413610046 ], [ 131.879704701860675, 43.116677417684443 ], [ 131.879698319784382, 43.116659149885521 ], [ 131.879615154242629, 43.116674743045081 ], [ 131.879607473508599, 43.116652755649135 ], [ 131.879614765586126, 43.116651396434989 ], [ 131.879625043815082, 43.116641138357757 ], [ 131.87960098981489, 43.116576146276955 ], [ 131.879494230006543, 43.116594530996942 ], [ 131.879504909052883, 43.116628374891668 ], [ 131.879396492613495, 43.116647044780954 ], [ 131.879473273943574, 43.116878586234783 ], [ 131.879532061842468, 43.116902097315837 ], [ 131.880137323704133, 43.11679148200826 ] ] ] ] } },
{ "type": "Feature", "properties": { "fid": 16, "Layer": "2 - окн федерального значения", "PaperSpace": null, "SubClasses": "AcDbEntity:AcDbPolyline", "Linetype": "ByLayer", "EntityHandle": "5CD", "Text": null, "ogr_style": "PEN(c:#000000)", "font": null, "angle": null, "size": null, "size_u": null, "anchor": null, "color": "#000000", "underline": null, "plaintext": null, "fcolor": null, "flnum": null, "bold": null, "italic": null, "dx": null, "dx_u": null, "dy": null, "dy_u": null }, "geometry": { "type": "MultiPolygon", "coordinates": [ [ [ [ 131.900115390451447, 43.115224757926697 ], [ 131.900222079537684, 43.11500399903025 ], [ 131.900138068228813, 43.114983905857358 ], [ 131.900143652945331, 43.114971373590812 ], [ 131.900095854065825, 43.114959941392563 ], [ 131.899989518683697, 43.115182972148389 ], [ 131.899981369472783, 43.115181056851164 ], [ 131.899996507898663, 43.115146487005973 ], [ 131.899739404198414, 43.115076931306156 ], [ 131.899670463511654, 43.115234640864088 ], [ 131.900332104566928, 43.115395511105916 ], [ 131.90032223310331, 43.115417063837874 ], [ 131.900379206307662, 43.115431068842952 ], [ 131.900388821482267, 43.115410075634195 ], [ 131.900447471798543, 43.115424492865714 ], [ 131.900621515143428, 43.115474597791305 ], [ 131.900631663253932, 43.115450092498172 ], [ 131.900714078473101, 43.115469127998217 ], [ 131.900701716588173, 43.115495250233209 ], [ 131.900806374615684, 43.115518920401051 ], [ 131.900807179329604, 43.115513386633168 ], [ 131.900840190257128, 43.115520988809493 ], [ 131.900873228067468, 43.115511987591418 ], [ 131.900876346216876, 43.115504949657954 ], [ 131.900911186556272, 43.115426311874138 ], [ 131.900891779109656, 43.115402076179436 ], [ 131.900861539765145, 43.115394950137606 ], [ 131.900880394847718, 43.115352470727302 ], [ 131.900941547332707, 43.115366982982991 ], [ 131.901020581970471, 43.115192902577924 ], [ 131.900840128769772, 43.115145068021206 ], [ 131.900827451822437, 43.11517301400486 ], [ 131.900834867740258, 43.115175091578777 ], [ 131.900783941563418, 43.115287283754313 ], [ 131.900777837988244, 43.115285558987686 ], [ 131.900762137308334, 43.115317912102071 ], [ 131.90072505846976, 43.115310473942031 ], [ 131.900713448225559, 43.115340969121036 ], [ 131.900768341687694, 43.115353536377789 ], [ 131.900762294152798, 43.115369753575379 ], [ 131.900516175435712, 43.115312208629753 ], [ 131.900520732376435, 43.115302259200924 ], [ 131.900563046632897, 43.115312660722736 ], [ 131.900679160878781, 43.115059140322053 ], [ 131.900423387227391, 43.114996730170589 ], [ 131.900307359609087, 43.115249162937538 ], [ 131.900331162264195, 43.115255014068147 ], [ 131.900321782585593, 43.115275493114673 ], [ 131.900115390451447, 43.115224757926697 ] ] ] ] } },
{ "type": "Feature", "properties": { "fid": 17, "Layer": "2 - окн федерального значения", "PaperSpace": null, "SubClasses": "AcDbEntity:AcDbPolyline", "Linetype": "ByLayer", "EntityHandle": "5CF", "Text": null, "ogr_style": "PEN(c:#000000)", "font": null, "angle": null, "size": null, "size_u": null, "anchor": null, "color": "#000000", "underline": null, "plaintext": null, "fcolor": null, "flnum": null, "bold": null, "italic": null, "dx": null, "dx_u": null, "dy": null, "dy_u": null }, "geometry": { "type": "MultiPolygon", "coordinates": [ [ [ [ 131.879408760408182, 43.114360251832764 ], [ 131.879329680426792, 43.114307394169977 ], [ 131.879256941727647, 43.114362090374065 ], [ 131.879334384232493, 43.114414546562884 ], [ 131.879408760408182, 43.114360251832764 ] ] ] ] } },
{ "type": "Feature", "properties": { "fid": 18, "Layer": "2 - окн федерального значения", "PaperSpace": null, "SubClasses": "AcDbEntity:AcDbPolyline", "Linetype": "ByLayer", "EntityHandle": "5D1", "Text": null, "ogr_style": "PEN(c:#000000)", "font": null, "angle": null, "size": null, "size_u": null, "anchor": null, "color": "#000000", "underline": null, "plaintext": null, "fcolor": null, "flnum": null, "bold": null, "italic": null, "dx": null, "dx_u": null, "dy": null, "dy_u": null }, "geometry": { "type": "MultiPolygon", "coordinates": [ [ [ [ 131.878358554466047, 43.114195589285423 ], [ 131.878277658021346, 43.114073241695053 ], [ 131.878112373630245, 43.114135067716738 ], [ 131.878185838721407, 43.114256119456797 ], [ 131.878203140697451, 43.114188395589167 ], [ 131.878292094200333, 43.114156552210879 ], [ 131.878358554466047, 43.114195589285423 ] ] ] ] } },
{ "type": "Feature", "properties": { "fid": 19, "Layer": "2 - окн федерального значения", "PaperSpace": null, "SubClasses": "AcDbEntity:AcDbPolyline", "Linetype": "ByLayer", "EntityHandle": "5D3", "Text": null, "ogr_style": "PEN(c:#000000)", "font": null, "angle": null, "size": null, "size_u": null, "anchor": null, "color": "#000000", "underline": null, "plaintext": null, "fcolor": null, "flnum": null, "bold": null, "italic": null, "dx": null, "dx_u": null, "dy": null, "dy_u": null }, "geometry": { "type": "MultiPolygon", "coordinates": [ [ [ [ 131.877849222617243, 43.114017473324388 ], [ 131.877816614074476, 43.113990929598693 ], [ 131.877664545645274, 43.114053231663434 ], [ 131.877688937571577, 43.114081769437654 ], [ 131.877849222617243, 43.114017473324388 ] ] ] ] } },
{ "type": "Feature", "properties": { "fid": 20, "Layer": "2 - окн федерального значения", "PaperSpace": null, "SubClasses": "AcDbEntity:AcDbPolyline", "Linetype": "ByLayer", "EntityHandle": "5D5", "Text": null, "ogr_style": "PEN(c:#000000)", "font": null, "angle": null, "size": null, "size_u": null, "anchor": null, "color": "#000000", "underline": null, "plaintext": null, "fcolor": null, "flnum": null, "bold": null, "italic": null, "dx": null, "dx_u": null, "dy": null, "dy_u": null }, "geometry": { "type": "MultiPolygon", "coordinates": [ [ [ [ 131.877377709203188, 43.114244447762751 ], [ 131.877351519348849, 43.114218606022703 ], [ 131.877341012104239, 43.11422391508551 ], [ 131.877336140822081, 43.114227831455118 ], [ 131.87733292182412, 43.114231886941319 ], [ 131.877331549449707, 43.114245186365643 ], [ 131.877335710926872, 43.114250314167343 ], [ 131.877343778772286, 43.11425357415839 ], [ 131.877350371615194, 43.114254172388833 ], [ 131.877357774452491, 43.114253490672603 ], [ 131.87736760589172, 43.114249658740817 ], [ 131.877377709203188, 43.114244447762751 ] ] ] ] } },
{ "type": "Feature", "properties": { "fid": 21, "Layer": "2 - окн федерального значения", "PaperSpace": null, "SubClasses": "AcDbEntity:AcDbPolyline", "Linetype": "ByLayer", "EntityHandle": "5D7", "Text": null, "ogr_style": "PEN(c:#000000)", "font": null, "angle": null, "size": null, "size_u": null, "anchor": null, "color": "#000000", "underline": null, "plaintext": null, "fcolor": null, "flnum": null, "bold": null, "italic": null, "dx": null, "dx_u": null, "dy": null, "dy_u": null }, "geometry": { "type": "MultiPolygon", "coordinates": [ [ [ [ 131.876914450031819, 43.113894410511982 ], [ 131.876842936945934, 43.113959453671207 ], [ 131.876925781403799, 43.114013322113131 ], [ 131.877001283479842, 43.113948867143989 ], [ 131.876914450031819, 43.113894410511982 ] ] ] ] } },
{ "type": "Feature", "properties": { "fid": 22, "Layer": "2 - окн федерального значения", "PaperSpace": null, "SubClasses": "AcDbEntity:AcDbPolyline", "Linetype": "ByLayer", "EntityHandle": "5D9", "Text": null, "ogr_style": "PEN(c:#000000)", "font": null, "angle": null, "size": null, "size_u": null, "anchor": null, "color": "#000000", "underline": null, "plaintext": null, "fcolor": null, "flnum": null, "bold": null, "italic": null, "dx": null, "dx_u": null, "dy": null, "dy_u": null }, "geometry": { "type": "MultiPolygon", "coordinates": [ [ [ [ 131.877820955459924, 43.113994541074504 ], [ 131.877857801647792, 43.114024433215526 ], [ 131.877919189628102, 43.11398493895539 ], [ 131.877882345095855, 43.113954212980552 ], [ 131.877820955459924, 43.113994541074504 ] ] ] ] } },
{ "type": "Feature", "properties": { "fid": 23, "Layer": "2 - окн федерального значения", "PaperSpace": null, "SubClasses": "AcDbEntity:AcDbPolyline", "Linetype": "ByLayer", "EntityHandle": "5DB", "Text": null, "ogr_style": "PEN(c:#000000)", "font": null, "angle": null, "size": null, "size_u": null, "anchor": null, "color": "#000000", "underline": null, "plaintext": null, "fcolor": null, "flnum": null, "bold": null, "italic": null, "dx": null, "dx_u": null, "dy": null, "dy_u": null }, "geometry": { "type": "MultiPolygon", "coordinates": [ [ [ [ 131.90724148146262, 43.117692054600909 ], [ 131.90732530044059, 43.117749562691131 ], [ 131.907301851961194, 43.117767903943474 ], [ 131.907348449656467, 43.117799874495752 ], [ 131.907371898134357, 43.117781533233966 ], [ 131.90741684818525, 43.117812373284231 ], [ 131.907431132978047, 43.117801199789035 ], [ 131.907449507929954, 43.117813806754036 ], [ 131.907476684143859, 43.117792549630977 ], [ 131.907509016835888, 43.11781473290695 ], [ 131.907516480429223, 43.117808894908727 ], [ 131.907537473314648, 43.117792474334074 ], [ 131.907566642183099, 43.117812486900846 ], [ 131.90764126423835, 43.117754117619562 ], [ 131.907612095373281, 43.117734105071627 ], [ 131.907639886081085, 43.117712367180694 ], [ 131.907221953067534, 43.117425624188336 ], [ 131.907188364230734, 43.117451897234673 ], [ 131.90716110703795, 43.117433195976652 ], [ 131.907155761037558, 43.117431152136284 ], [ 131.907149999590246, 43.117432456285151 ], [ 131.907095755942009, 43.117474885343846 ], [ 131.907093176572687, 43.117478641240766 ], [ 131.907094774695679, 43.117482679388495 ], [ 131.907123998983366, 43.117501796256889 ], [ 131.907090779228099, 43.117527780515879 ], [ 131.907189747419835, 43.117595682871432 ], [ 131.907097321719363, 43.117667977527262 ], [ 131.907190516793889, 43.11773191878013 ], [ 131.90724148146262, 43.117692054600909 ] ] ] ] } },
{ "type": "Feature", "properties": { "fid": 24, "Layer": "2 - окн федерального значения", "PaperSpace": null, "SubClasses": "AcDbEntity:AcDbPolyline", "Linetype": "ByLayer", "EntityHandle": "5DD", "Text": null, "ogr_style": "PEN(c:#000000)", "font": null, "angle": null, "size": null, "size_u": null, "anchor": null, "color": "#000000", "underline": null, "plaintext": null, "fcolor": null, "flnum": null, "bold": null, "italic": null, "dx": null, "dx_u": null, "dy": null, "dy_u": null }, "geometry": { "type": "MultiPolygon", "coordinates": [ [ [ [ 131.876511816556445, 43.122589766565476 ], [ 131.876575044236262, 43.122694834709542 ], [ 131.876572154714978, 43.122710202818894 ], [ 131.876577991244062, 43.122725115243135 ], [ 131.876591557920477, 43.122737027419305 ], [ 131.876610539813299, 43.12274390672691 ], [ 131.876617234291018, 43.122754180412791 ], [ 131.876674371850925, 43.122841866462146 ], [ 131.876682385855958, 43.122854165117403 ], [ 131.876677155925421, 43.122863088307049 ], [ 131.876675387719416, 43.122872712343877 ], [ 131.876677211018546, 43.122882330863263 ], [ 131.876682492001748, 43.122891237905208 ], [ 131.876690843067649, 43.122898779729063 ], [ 131.876701651282559, 43.122904402795321 ], [ 131.87671412336735, 43.122907694393454 ], [ 131.876727343921232, 43.122908412933384 ], [ 131.876835287986495, 43.123002697891756 ], [ 131.876834004066097, 43.123011087698032 ], [ 131.87683549039869, 43.123019459554321 ], [ 131.876839661106175, 43.123027329742186 ], [ 131.876846275209658, 43.123034243528934 ], [ 131.876854950552797, 43.123039801441813 ], [ 131.87686518588157, 43.123043682349213 ], [ 131.876876389807563, 43.123045662015421 ], [ 131.87688791497655, 43.123045626056985 ], [ 131.876902137138359, 43.123057248923374 ], [ 131.876984003389765, 43.123124152872975 ], [ 131.877064477897875, 43.123071316093409 ], [ 131.876982611628932, 43.12300441220075 ], [ 131.876930657478056, 43.123038523487438 ], [ 131.876923546890652, 43.123032712460507 ], [ 131.87693105805522, 43.123021027482004 ], [ 131.876932619708811, 43.123008162722002 ], [ 131.876928041017521, 43.122995690281741 ], [ 131.876917881510508, 43.122985134319336 ], [ 131.876903382702181, 43.122977784794571 ], [ 131.876886316376584, 43.122974539833791 ], [ 131.876868768071802, 43.122975795977538 ], [ 131.876852882224313, 43.122981399722647 ], [ 131.876845693964299, 43.122975299076444 ], [ 131.876874835287737, 43.12295687511218 ], [ 131.876852242812362, 43.122937700969466 ], [ 131.876889625635187, 43.122914066475708 ], [ 131.876842913192206, 43.122874421782349 ], [ 131.876807270798736, 43.12289695591673 ], [ 131.876790478265491, 43.122882704125963 ], [ 131.876764763542724, 43.122898961684733 ], [ 131.876760219327736, 43.122895105015289 ], [ 131.876768012797243, 43.122886188883648 ], [ 131.876771825280173, 43.12287597670214 ], [ 131.876771310404962, 43.122865396273092 ], [ 131.876766514951271, 43.122855408854477 ], [ 131.876757874599804, 43.122846921827531 ], [ 131.876746174348199, 43.12284070625882 ], [ 131.876732477192689, 43.122837326847382 ], [ 131.876718027552045, 43.122837090620649 ], [ 131.876712461566228, 43.122828548814198 ], [ 131.876789663490086, 43.122801555958119 ], [ 131.876732286684074, 43.122713503003077 ], [ 131.876649460334164, 43.122742462369871 ], [ 131.876662291740047, 43.122733051106003 ], [ 131.876670078980055, 43.122721035383748 ], [ 131.876671922553641, 43.122707803138681 ], [ 131.876667609513589, 43.122694882826053 ], [ 131.876657638061914, 43.122683766868818 ], [ 131.876643160001294, 43.122675739268516 ], [ 131.876625847689439, 43.122671727290928 ], [ 131.876607700866288, 43.122672194358302 ], [ 131.876654875706777, 43.122655393460214 ], [ 131.876643229379255, 43.122637846697891 ], [ 131.876681399627245, 43.122624252684858 ], [ 131.876650426580539, 43.122577587603338 ], [ 131.876617044664044, 43.122589476291417 ], [ 131.876603007396511, 43.122568327206835 ], [ 131.876550024336382, 43.122587196645995 ], [ 131.876546004663425, 43.122581140442001 ], [ 131.876557159133739, 43.122572834281961 ], [ 131.8765640707758, 43.12256234039755 ], [ 131.876566004137203, 43.122550775423321 ], [ 131.876562753495278, 43.122539369965828 ], [ 131.87655466474709, 43.122529337657156 ], [ 131.876542598602015, 43.122521746014762 ], [ 131.876527838994349, 43.122517402849532 ], [ 131.876511956463276, 43.122516770308501 ], [ 131.876507076426122, 43.122508644504364 ], [ 131.876590732536982, 43.12248168651783 ], [ 131.876534917723831, 43.122388748692693 ], [ 131.87644825774251, 43.12241667466035 ], [ 131.876446306039384, 43.122413424846087 ], [ 131.876456939204985, 43.122404332672261 ], [ 131.876462851089741, 43.122393171047307 ], [ 131.87646337174283, 43.122381204841986 ], [ 131.876458442165188, 43.122369790103981 ], [ 131.876448620994381, 43.122360220386327 ], [ 131.876435021196954, 43.122353580158155 ], [ 131.876419183943, 43.122350621909767 ], [ 131.87640290395683, 43.122351680878602 ], [ 131.876401083796196, 43.122348505409114 ], [ 131.876460939149666, 43.12233009599737 ], [ 131.87644759381709, 43.122306813631369 ], [ 131.876481657927513, 43.122296336684975 ], [ 131.87645480986248, 43.122249497339254 ], [ 131.876417502885829, 43.122260971677406 ], [ 131.876405768606986, 43.122240499916046 ], [ 131.876349815537623, 43.12225770911683 ], [ 131.87634794435499, 43.122254444622854 ], [ 131.876358727914038, 43.122245254089073 ], [ 131.876365102303993, 43.122234071085693 ], [ 131.876366442447249, 43.122221992230934 ], [ 131.876362616930862, 43.122210201990569 ], [ 131.876354000891723, 43.122199856527878 ], [ 131.876341439229208, 43.122191970329233 ], [ 131.876326163753333, 43.122187316722815 ], [ 131.87630967239167, 43.122186352045581 ], [ 131.876307004461864, 43.122181699895762 ], [ 131.876383152986818, 43.122158267329134 ], [ 131.876383958534632, 43.122154541570588 ], [ 131.876337703662443, 43.122069384399978 ], [ 131.876260377691409, 43.122093179290836 ], [ 131.876269159375482, 43.122082767770884 ], [ 131.876272930656143, 43.122070845167435 ], [ 131.876271294872964, 43.122058665500042 ], [ 131.876264424080659, 43.122047509825514 ], [ 131.876253040950786, 43.122038551496566 ], [ 131.876238342760985, 43.122032732748821 ], [ 131.876221875464665, 43.122030665597116 ], [ 131.876205371088702, 43.122032567464068 ], [ 131.876191574823736, 43.122039765550106 ], [ 131.876181751954164, 43.122049873469962 ], [ 131.876176983303253, 43.122061779038305 ], [ 131.876177793573902, 43.122074172271809 ], [ 131.876184093614455, 43.122085689528149 ], [ 131.876195190226071, 43.122095063549018 ], [ 131.876209862435871, 43.12210126289861 ], [ 131.876226495841507, 43.122103605454058 ], [ 131.876219507026178, 43.122105756058914 ], [ 131.876269651238999, 43.122193194274345 ], [ 131.876274037195543, 43.122200842207022 ], [ 131.876268924816486, 43.122210028715877 ], [ 131.876266885541895, 43.122219836102978 ], [ 131.87626803236347, 43.122229720969344 ], [ 131.876272301740414, 43.122239135622813 ], [ 131.876279457120262, 43.122247558424085 ], [ 131.876289102044467, 43.12225452268946 ], [ 131.876300702115373, 43.122259642548443 ], [ 131.876313614605834, 43.122262634323839 ], [ 131.876375906790372, 43.122365259426942 ], [ 131.87636977325343, 43.122373679958109 ], [ 131.876366927213468, 43.122382993677192 ], [ 131.876367574785291, 43.122392526075288 ], [ 131.876371669072483, 43.122401586806284 ], [ 131.876378913563968, 43.122409519682378 ], [ 131.876388783606814, 43.122415750196019 ], [ 131.876400564402019, 43.1224198271264 ], [ 131.876413402771163, 43.122421455217648 ], [ 131.876416654239961, 43.122426869298742 ], [ 131.876472463620331, 43.122519798375379 ], [ 131.876479329318954, 43.122531230714742 ], [ 131.876472668872111, 43.122539438784301 ], [ 131.876469157500509, 43.122548634432469 ], [ 131.876469037692203, 43.122558182630705 ], [ 131.876472317722175, 43.12256742400406 ], [ 131.876478771081196, 43.12257572036583 ], [ 131.876487952116918, 43.12258249878932 ], [ 131.876499226809671, 43.122587291172763 ], [ 131.876511816556445, 43.122589766565476 ] ] ] ] } },
{ "type": "Feature", "properties": { "fid": 25, "Layer": "2 - окн федерального значения", "PaperSpace": null, "SubClasses": "AcDbEntity:AcDbPolyline", "Linetype": "ByLayer", "EntityHandle": "5DF", "Text": null, "ogr_style": "PEN(c:#000000)", "font": null, "angle": null, "size": null, "size_u": null, "anchor": null, "color": "#000000", "underline": null, "plaintext": null, "fcolor": null, "flnum": null, "bold": null, "italic": null, "dx": null, "dx_u": null, "dy": null, "dy_u": null }, "geometry": { "type": "MultiPolygon", "coordinates": [ [ [ [ 131.879408760408182, 43.114360251832764 ], [ 131.879329680426792, 43.114307394169977 ], [ 131.879256941727647, 43.114362090374065 ], [ 131.879334384232493, 43.114414546562884 ], [ 131.879408760408182, 43.114360251832764 ] ] ] ] } },
{ "type": "Feature", "properties": { "fid": 26, "Layer": "2 - окн федерального значения", "PaperSpace": null, "SubClasses": "AcDbEntity:AcDbPolyline", "Linetype": "ByLayer", "EntityHandle": "5E1", "Text": null, "ogr_style": "PEN(c:#000000)", "font": null, "angle": null, "size": null, "size_u": null, "anchor": null, "color": "#000000", "underline": null, "plaintext": null, "fcolor": null, "flnum": null, "bold": null, "italic": null, "dx": null, "dx_u": null, "dy": null, "dy_u": null }, "geometry": { "type": "MultiPolygon", "coordinates": [ [ [ [ 131.878358554466047, 43.114195589285423 ], [ 131.878277658021346, 43.114073241695053 ], [ 131.878112373630245, 43.114135067716738 ], [ 131.878185838721407, 43.114256119456797 ], [ 131.878203140697451, 43.114188395589167 ], [ 131.878292094200333, 43.114156552210879 ], [ 131.878358554466047, 43.114195589285423 ] ] ] ] } },
{ "type": "Feature", "properties": { "fid": 27, "Layer": "2 - окн федерального значения", "PaperSpace": null, "SubClasses": "AcDbEntity:AcDbPolyline", "Linetype": "ByLayer", "EntityHandle": "5E3", "Text": null, "ogr_style": "PEN(c:#000000)", "font": null, "angle": null, "size": null, "size_u": null, "anchor": null, "color": "#000000", "underline": null, "plaintext": null, "fcolor": null, "flnum": null, "bold": null, "italic": null, "dx": null, "dx_u": null, "dy": null, "dy_u": null }, "geometry": { "type": "MultiPolygon", "coordinates": [ [ [ [ 131.877849222617243, 43.114017473324388 ], [ 131.877816614074476, 43.113990929598693 ], [ 131.877664545645274, 43.114053231663434 ], [ 131.877688937571577, 43.114081769437654 ], [ 131.877849222617243, 43.114017473324388 ] ] ] ] } },
{ "type": "Feature", "properties": { "fid": 28, "Layer": "2 - окн федерального значения", "PaperSpace": null, "SubClasses": "AcDbEntity:AcDbPolyline", "Linetype": "ByLayer", "EntityHandle": "5E5", "Text": null, "ogr_style": "PEN(c:#000000)", "font": null, "angle": null, "size": null, "size_u": null, "anchor": null, "color": "#000000", "underline": null, "plaintext": null, "fcolor": null, "flnum": null, "bold": null, "italic": null, "dx": null, "dx_u": null, "dy": null, "dy_u": null }, "geometry": { "type": "MultiPolygon", "coordinates": [ [ [ [ 131.877377709203188, 43.114244447762751 ], [ 131.877351519348849, 43.114218606022703 ], [ 131.877341012104239, 43.11422391508551 ], [ 131.877336140822081, 43.114227831455118 ], [ 131.87733292182412, 43.114231886941319 ], [ 131.877331549449707, 43.114245186365643 ], [ 131.877335710926872, 43.114250314167343 ], [ 131.877343778772286, 43.11425357415839 ], [ 131.877350371615194, 43.114254172388833 ], [ 131.877357774452491, 43.114253490672603 ], [ 131.87736760589172, 43.114249658740817 ], [ 131.877377709203188, 43.114244447762751 ] ] ] ] } },
{ "type": "Feature", "properties": { "fid": 29, "Layer": "2 - окн федерального значения", "PaperSpace": null, "SubClasses": "AcDbEntity:AcDbPolyline", "Linetype": "ByLayer", "EntityHandle": "5E7", "Text": null, "ogr_style": "PEN(c:#000000)", "font": null, "angle": null, "size": null, "size_u": null, "anchor": null, "color": "#000000", "underline": null, "plaintext": null, "fcolor": null, "flnum": null, "bold": null, "italic": null, "dx": null, "dx_u": null, "dy": null, "dy_u": null }, "geometry": { "type": "MultiPolygon", "coordinates": [ [ [ [ 131.876914450031819, 43.113894410511982 ], [ 131.876842936945934, 43.113959453671207 ], [ 131.876925781403799, 43.114013322113131 ], [ 131.877001283479842, 43.113948867143989 ], [ 131.876914450031819, 43.113894410511982 ] ] ] ] } },
{ "type": "Feature", "properties": { "fid": 30, "Layer": "2 - окн федерального значения", "PaperSpace": null, "SubClasses": "AcDbEntity:AcDbPolyline", "Linetype": "ByLayer", "EntityHandle": "5E9", "Text": null, "ogr_style": "PEN(c:#000000)", "font": null, "angle": null, "size": null, "size_u": null, "anchor": null, "color": "#000000", "underline": null, "plaintext": null, "fcolor": null, "flnum": null, "bold": null, "italic": null, "dx": null, "dx_u": null, "dy": null, "dy_u": null }, "geometry": { "type": "MultiPolygon", "coordinates": [ [ [ [ 131.877820955459924, 43.113994541074504 ], [ 131.877857801647792, 43.114024433215526 ], [ 131.877919189628102, 43.11398493895539 ], [ 131.877882345095855, 43.113954212980552 ], [ 131.877820955459924, 43.113994541074504 ] ] ] ] } },
{ "type": "Feature", "properties": { "fid": 31, "Layer": "2 - окн федерального значения", "PaperSpace": null, "SubClasses": "AcDbEntity:AcDbPolyline", "Linetype": "ByLayer", "EntityHandle": "5EB", "Text": null, "ogr_style": "PEN(c:#000000)", "font": null, "angle": null, "size": null, "size_u": null, "anchor": null, "color": "#000000", "underline": null, "plaintext": null, "fcolor": null, "flnum": null, "bold": null, "italic": null, "dx": null, "dx_u": null, "dy": null, "dy_u": null }, "geometry": { "type": "MultiPolygon", "coordinates": [ [ [ [ 131.880057374185895, 43.111691921505354 ], [ 131.880106729863087, 43.111583957070998 ], [ 131.880008441347911, 43.111583853807431 ], [ 131.880057374185895, 43.111691921505354 ] ] ] ] } },
{ "type": "Feature", "properties": { "fid": 32, "Layer": "2 - окн федерального значения", "PaperSpace": null, "SubClasses": "AcDbEntity:AcDbPolyline", "Linetype": "ByLayer", "EntityHandle": "5ED", "Text": null, "ogr_style": "PEN(c:#000000)", "font": null, "angle": null, "size": null, "size_u": null, "anchor": null, "color": "#000000", "underline": null, "plaintext": null, "fcolor": null, "flnum": null, "bold": null, "italic": null, "dx": null, "dx_u": null, "dy": null, "dy_u": null }, "geometry": { "type": "MultiPolygon", "coordinates": [ [ [ [ 131.881269670457527, 43.111256324667906 ], [ 131.881341345384811, 43.111419386714338 ], [ 131.881632500215943, 43.111352418276716 ], [ 131.881629130919691, 43.111344277174432 ], [ 131.881639578554626, 43.111341947654097 ], [ 131.881580394813909, 43.111196694387765 ], [ 131.881569086834276, 43.111199203037387 ], [ 131.88156468423324, 43.111188666882057 ], [ 131.881269670457527, 43.111256324667906 ] ] ] ] } },
{ "type": "Feature", "properties": { "fid": 33, "Layer": "2 - окн федерального значения", "PaperSpace": null, "SubClasses": "AcDbEntity:AcDbPolyline", "Linetype": "ByLayer", "EntityHandle": "5EF", "Text": null, "ogr_style": "PEN(c:#000000)", "font": null, "angle": null, "size": null, "size_u": null, "anchor": null, "color": "#000000", "underline": null, "plaintext": null, "fcolor": null, "flnum": null, "bold": null, "italic": null, "dx": null, "dx_u": null, "dy": null, "dy_u": null }, "geometry": { "type": "MultiPolygon", "coordinates": [ [ [ [ 131.881768464095359, 43.111657758789491 ], [ 131.881925792695483, 43.111623266398539 ], [ 131.881886667072877, 43.111524751083216 ], [ 131.881859626475318, 43.111530573984794 ], [ 131.881809281908488, 43.111403979016941 ], [ 131.881776973559113, 43.111322737104004 ], [ 131.881802047442932, 43.111317362253331 ], [ 131.881742866758373, 43.111172655733824 ], [ 131.881692860335761, 43.111050093787092 ], [ 131.881640757324021, 43.110922485625657 ], [ 131.881648869516653, 43.110920693764413 ], [ 131.881644956446536, 43.110911148268507 ], [ 131.881636966766706, 43.110913120283669 ], [ 131.881629018294859, 43.110893759123314 ], [ 131.881637621921044, 43.110891967772417 ], [ 131.881633954051495, 43.11088269257106 ], [ 131.881625350426503, 43.110884483921716 ], [ 131.881574604068703, 43.110760122539645 ], [ 131.881421456608678, 43.110793628646903 ], [ 131.881463357061648, 43.110908263524948 ], [ 131.881491184287313, 43.110977541020667 ], [ 131.881532214039936, 43.111078236100731 ], [ 131.881576115418881, 43.111185978333545 ], [ 131.88156468423324, 43.111188666882057 ], [ 131.881569086834276, 43.111199203037387 ], [ 131.881580394813909, 43.111196694387765 ], [ 131.881611582031553, 43.111273046136226 ], [ 131.881639578554626, 43.111341947654097 ], [ 131.881629130919691, 43.111344277174432 ], [ 131.881633044188533, 43.111353732656788 ], [ 131.881643368791003, 43.111351493022127 ], [ 131.881673612200046, 43.111425537029042 ], [ 131.881680870591708, 43.111443307497694 ], [ 131.881730274472943, 43.111564261022785 ], [ 131.881768464095359, 43.111657758789491 ] ] ] ] } },
{ "type": "Feature", "properties": { "fid": 34, "Layer": "2 - окн федерального значения", "PaperSpace": null, "SubClasses": "AcDbEntity:AcDbPolyline", "Linetype": "ByLayer", "EntityHandle": "5F1", "Text": null, "ogr_style": "PEN(c:#000000)", "font": null, "angle": null, "size": null, "size_u": null, "anchor": null, "color": "#000000", "underline": null, "plaintext": null, "fcolor": null, "flnum": null, "bold": null, "italic": null, "dx": null, "dx_u": null, "dy": null, "dy_u": null }, "geometry": { "type": "MultiPolygon", "coordinates": [ [ [ [ 131.850475400675464, 43.083294944208404 ], [ 131.85044477160983, 43.083244826081845 ], [ 131.850441080529407, 43.083246127593426 ], [ 131.850437105236239, 43.083247577139531 ], [ 131.850432549251508, 43.083248852010946 ], [ 131.850425534894498, 43.083250208466829 ], [ 131.850420710362272, 43.083250885052358 ], [ 131.850416535315134, 43.083251206046761 ], [ 131.850411712590557, 43.083251318489573 ], [ 131.850410061243309, 43.08325120700944 ], [ 131.850406086979348, 43.083242934362083 ], [ 131.850398304873494, 43.083242286374833 ], [ 131.850393188796403, 43.083241504016499 ], [ 131.850386131710366, 43.083240331203974 ], [ 131.850378585214656, 43.083238281387814 ], [ 131.850373177739584, 43.083236335077736 ], [ 131.85036665616289, 43.083232749532648 ], [ 131.850359958886742, 43.083228818909909 ], [ 131.850354791950792, 43.083224761098251 ], [ 131.850349738608344, 43.083220078668973 ], [ 131.850345923555636, 43.083216324410671 ], [ 131.850342287672504, 43.083211492781246 ], [ 131.850338828937169, 43.083205525806576 ], [ 131.850336897610674, 43.083201343040017 ], [ 131.850335909719604, 43.083195680091521 ], [ 131.850335394086812, 43.083190119957088 ], [ 131.850335351215023, 43.083183569296558 ], [ 131.850335998528976, 43.083178248865607 ], [ 131.850337572563518, 43.083172624056701 ], [ 131.850341209196216, 43.083165081771341 ], [ 131.850325044214429, 43.083160182875453 ], [ 131.850320918166062, 43.083160108896841 ], [ 131.85030862006559, 43.083165210828597 ], [ 131.850306032404688, 43.083166321813664 ], [ 131.850303762067, 43.083174287754801 ], [ 131.850302522793896, 43.083182633020833 ], [ 131.850302227890808, 43.083187873250324 ], [ 131.850302683865408, 43.083193232394365 ], [ 131.850303467375142, 43.083198776813596 ], [ 131.850304626080799, 43.083204480400624 ], [ 131.85030583577776, 43.083208260397235 ], [ 131.850307429846652, 43.083212162968806 ], [ 131.850310276582746, 43.083217662555349 ], [ 131.850312144206896, 43.083220996868555 ], [ 131.850315751826571, 43.083226239065141 ], [ 131.850320287123992, 43.083231672292278 ], [ 131.850325624644825, 43.083237462183646 ], [ 131.850330771781955, 43.083241831194336 ], [ 131.850336061152518, 43.083245719559706 ], [ 131.850342437980316, 43.083249930179974 ], [ 131.850351992358981, 43.083254579748584 ], [ 131.850359177896678, 43.083257552329847 ], [ 131.850366674275307, 43.083260103948476 ], [ 131.85038045011521, 43.083264209641392 ], [ 131.850393306777619, 43.083266945672037 ], [ 131.850407885766117, 43.083268544735752 ], [ 131.850418400035466, 43.083268338710717 ], [ 131.850441843370703, 43.083306502662715 ], [ 131.850448083604107, 43.083303560740013 ], [ 131.850460311701937, 43.08329926911604 ], [ 131.850475400675464, 43.083294944208404 ] ] ] ] } },
{ "type": "Feature", "properties": { "fid": 35, "Layer": "2 - окн федерального значения", "PaperSpace": null, "SubClasses": "AcDbEntity:AcDbPolyline", "Linetype": "ByLayer", "EntityHandle": "5F3", "Text": null, "ogr_style": "PEN(c:#000000)", "font": null, "angle": null, "size": null, "size_u": null, "anchor": null, "color": "#000000", "underline": null, "plaintext": null, "fcolor": null, "flnum": null, "bold": null, "italic": null, "dx": null, "dx_u": null, "dy": null, "dy_u": null }, "geometry": { "type": "MultiPolygon", "coordinates": [ [ [ [ 131.850441785318168, 43.08327593748907 ], [ 131.850441752413161, 43.083289439546753 ], [ 131.850457833881421, 43.083289460601833 ], [ 131.850457866782932, 43.083275958544171 ], [ 131.850441785318168, 43.08327593748907 ] ] ] ] } },
{ "type": "Feature", "properties": { "fid": 36, "Layer": "2 - окн федерального значения", "PaperSpace": null, "SubClasses": "AcDbEntity:AcDbPolyline", "Linetype": "ByLayer", "EntityHandle": "5F5", "Text": null, "ogr_style": "PEN(c:#000000)", "font": null, "angle": null, "size": null, "size_u": null, "anchor": null, "color": "#000000", "underline": null, "plaintext": null, "fcolor": null, "flnum": null, "bold": null, "italic": null, "dx": null, "dx_u": null, "dy": null, "dy_u": null }, "geometry": { "type": "MultiPolygon", "coordinates": [ [ [ [ 131.850325628439606, 43.083217416634653 ], [ 131.850325595509048, 43.083230918692394 ], [ 131.850341676961961, 43.083230939763801 ], [ 131.850341709888852, 43.083217437706061 ], [ 131.850325628439606, 43.083217416634653 ] ] ] ] } },
{ "type": "Feature", "properties": { "fid": 37, "Layer": "2 - окн федерального значения", "PaperSpace": null, "SubClasses": "AcDbEntity:AcDbPolyline", "Linetype": "ByLayer", "EntityHandle": "5F7", "Text": null, "ogr_style": "PEN(c:#000000)", "font": null, "angle": null, "size": null, "size_u": null, "anchor": null, "color": "#000000", "underline": null, "plaintext": null, "fcolor": null, "flnum": null, "bold": null, "italic": null, "dx": null, "dx_u": null, "dy": null, "dy_u": null }, "geometry": { "type": "MultiPolygon", "coordinates": [ [ [ [ 131.850435136393997, 43.083333353042462 ], [ 131.850449539629977, 43.083354344302677 ], [ 131.85042907807582, 43.083361608492936 ], [ 131.850464780128249, 43.08341121682156 ], [ 131.850485146291106, 43.083403328065202 ], [ 131.850499589522855, 43.08342443382336 ], [ 131.850618317412909, 43.08338066323477 ], [ 131.850553376852304, 43.083290157444594 ], [ 131.850435136393997, 43.083333353042462 ] ] ] ] } },
{ "type": "Feature", "properties": { "fid": 38, "Layer": "2 - окн федерального значения", "PaperSpace": null, "SubClasses": "AcDbEntity:AcDbPolyline", "Linetype": "ByLayer", "EntityHandle": "5F9", "Text": null, "ogr_style": "PEN(c:#000000)", "font": null, "angle": null, "size": null, "size_u": null, "anchor": null, "color": "#000000", "underline": null, "plaintext": null, "fcolor": null, "flnum": null, "bold": null, "italic": null, "dx": null, "dx_u": null, "dy": null, "dy_u": null }, "geometry": { "type": "MultiPolygon", "coordinates": [ [ [ [ 131.85029625644006, 43.083020408512361 ], [ 131.850323633482162, 43.083075787563367 ], [ 131.850438385132776, 43.083045540147218 ], [ 131.850413063212557, 43.082991009383647 ], [ 131.85029625644006, 43.083020408512361 ] ] ] ] } },
{ "type": "Feature", "properties": { "fid": 39, "Layer": "2 - окн федерального значения", "PaperSpace": null, "SubClasses": "AcDbEntity:AcDbPolyline", "Linetype": "ByLayer", "EntityHandle": "5FB", "Text": null, "ogr_style": "PEN(c:#000000)", "font": null, "angle": null, "size": null, "size_u": null, "anchor": null, "color": "#000000", "underline": null, "plaintext": null, "fcolor": null, "flnum": null, "bold": null, "italic": null, "dx": null, "dx_u": null, "dy": null, "dy_u": null }, "geometry": { "type": "MultiPolygon", "coordinates": [ [ [ [ 131.842511856535594, 43.080086969587924 ], [ 131.842601099594958, 43.080066069135242 ], [ 131.842585228271957, 43.080025835634459 ], [ 131.842585378625387, 43.080022814565474 ], [ 131.842586529653317, 43.080017814692795 ], [ 131.842589099313813, 43.080013650621233 ], [ 131.84259280634285, 43.0800108425099 ], [ 131.842598928136141, 43.080008662705715 ], [ 131.842604763886413, 43.080007836900151 ], [ 131.842612583378155, 43.08000888957686 ], [ 131.842616705160879, 43.08001014602506 ], [ 131.842621250487809, 43.080013069130153 ], [ 131.842625506862362, 43.080017451472784 ], [ 131.842635683092709, 43.080043827178542 ], [ 131.842645929879666, 43.080041653054131 ], [ 131.842638437829919, 43.080023095725032 ], [ 131.842643560820221, 43.080022165312059 ], [ 131.842640441576748, 43.080018201459652 ], [ 131.842634198282212, 43.080012149497378 ], [ 131.842629797164335, 43.080008600801932 ], [ 131.842619713291867, 43.080002856037972 ], [ 131.842611753897643, 43.079999719362768 ], [ 131.842600668020026, 43.079996473946025 ], [ 131.842593556810158, 43.079995213378091 ], [ 131.842452191715211, 43.080027321545614 ], [ 131.842446345799914, 43.080032106075485 ], [ 131.84243621780837, 43.080043553850267 ], [ 131.842432055826833, 43.080050756427639 ], [ 131.842428768278154, 43.080057837157966 ], [ 131.84242846541315, 43.08006471394836 ], [ 131.842432164996893, 43.080063781581444 ], [ 131.842434993367448, 43.080070975180782 ], [ 131.842437696018123, 43.080070561985366 ], [ 131.842443774494456, 43.08008526225538 ], [ 131.842454877997909, 43.080082672406554 ], [ 131.842447526200118, 43.080065052728443 ], [ 131.842449109367948, 43.08005734466704 ], [ 131.842452114846935, 43.080051096583858 ], [ 131.842456822060967, 43.080045476637011 ], [ 131.842462668244707, 43.080040587673828 ], [ 131.842495225090801, 43.080047613398946 ], [ 131.842511856535594, 43.080086969587924 ] ] ] ] } },
{ "type": "Feature", "properties": { "fid": 40, "Layer": "2 - окн федерального значения", "PaperSpace": null, "SubClasses": "AcDbEntity:AcDbPolyline", "Linetype": "ByLayer", "EntityHandle": "5FD", "Text": null, "ogr_style": "PEN(c:#000000)", "font": null, "angle": null, "size": null, "size_u": null, "anchor": null, "color": "#000000", "underline": null, "plaintext": null, "fcolor": null, "flnum": null, "bold": null, "italic": null, "dx": null, "dx_u": null, "dy": null, "dy_u": null }, "geometry": { "type": "MultiPolygon", "coordinates": [ [ [ [ 131.850212081199828, 43.082869517415496 ], [ 131.850167579077436, 43.082800396439232 ], [ 131.850162008158861, 43.082802201058172 ], [ 131.850161986269626, 43.082802158770789 ], [ 131.85015636107488, 43.08280364860898 ], [ 131.850156375020191, 43.082803678451043 ], [ 131.850150934444088, 43.082804896728916 ], [ 131.850150960241479, 43.082804974972227 ], [ 131.850141292288981, 43.082805680607045 ], [ 131.850126219709836, 43.0828058527227 ], [ 131.850126092043723, 43.082799558600193 ], [ 131.8501185180817, 43.082798260429286 ], [ 131.850104709882118, 43.08279540904001 ], [ 131.850095048498162, 43.082791450073749 ], [ 131.850086771868888, 43.08278648098937 ], [ 131.850077659704368, 43.082778723836796 ], [ 131.850071596072013, 43.082772442288274 ], [ 131.850066918127453, 43.082764543573404 ], [ 131.85006458529682, 43.082755492493753 ], [ 131.850064332518855, 43.08274598041789 ], [ 131.850066011278585, 43.082737381729402 ], [ 131.850068376425924, 43.082730504009582 ], [ 131.850073370238562, 43.082722314372369 ], [ 131.850081871171511, 43.082714236692432 ], [ 131.850075012053509, 43.08270970700115 ], [ 131.850082890982804, 43.082704162030787 ], [ 131.850088797724794, 43.082701289292189 ], [ 131.85009976419903, 43.082696777093183 ], [ 131.850107635131025, 43.082694729981377 ], [ 131.850055549317744, 43.082598602834381 ], [ 131.850039983227902, 43.082588061968096 ], [ 131.850033165973542, 43.082593319095793 ], [ 131.85007977462331, 43.082680158756531 ], [ 131.850064854649816, 43.082685972293959 ], [ 131.850048711377639, 43.082698195406607 ], [ 131.850040330687165, 43.082708679525012 ], [ 131.850031345704565, 43.082722223925401 ], [ 131.850028317921499, 43.082740149115494 ], [ 131.850028275176555, 43.082757640923667 ], [ 131.850033607840317, 43.082773390595563 ], [ 131.850041929771692, 43.082786957717786 ], [ 131.850053832489749, 43.082800529540087 ], [ 131.850072902021338, 43.082811924283916 ], [ 131.850096752322685, 43.082820701523929 ], [ 131.850123001543011, 43.08282467163697 ], [ 131.850140905288725, 43.08282469512762 ], [ 131.850167657346304, 43.082867147995017 ], [ 131.850156293858532, 43.082875605830544 ], [ 131.850146118509514, 43.082887836785304 ], [ 131.850138927109356, 43.082900071654088 ], [ 131.850135319648956, 43.082910999332015 ], [ 131.850132899376689, 43.082924552352821 ], [ 131.850134070522842, 43.082933737117031 ], [ 131.850135836344521, 43.082943797263617 ], [ 131.850138805374939, 43.082949923310778 ], [ 131.850145935916629, 43.082962614259834 ], [ 131.850156647229227, 43.082975309916357 ], [ 131.850169076965784, 43.082983144168132 ], [ 131.850216918585431, 43.082983206913411 ], [ 131.850219105421814, 43.082975823832548 ], [ 131.850207892389449, 43.08297140393671 ], [ 131.850197355407346, 43.082966635537488 ], [ 131.850187632625193, 43.082960560769266 ], [ 131.850180833119282, 43.082953895511892 ], [ 131.85017533554759, 43.08294568676007 ], [ 131.850172267743801, 43.082939263978396 ], [ 131.850171309946461, 43.082932725358077 ], [ 131.850170693465628, 43.082919709770209 ], [ 131.850174292851023, 43.082907709433535 ], [ 131.850179343279734, 43.082899752098413 ], [ 131.850186177278573, 43.082892510400171 ], [ 131.850187820255258, 43.082891435418752 ], [ 131.850181086993473, 43.082884685252282 ], [ 131.850191116137097, 43.082877775574744 ], [ 131.850196901600668, 43.082874768759467 ], [ 131.850196891217621, 43.082874756152165 ], [ 131.850202670104466, 43.082872292626675 ], [ 131.850202611373675, 43.082872208918985 ], [ 131.850212081199828, 43.082869517415496 ] ] ] ] } },
{ "type": "Feature", "properties": { "fid": 41, "Layer": "2 - окн федерального значения", "PaperSpace": null, "SubClasses": "AcDbEntity:AcDbPolyline", "Linetype": "ByLayer", "EntityHandle": "5FF", "Text": null, "ogr_style": "PEN(c:#000000)", "font": null, "angle": null, "size": null, "size_u": null, "anchor": null, "color": "#000000", "underline": null, "plaintext": null, "fcolor": null, "flnum": null, "bold": null, "italic": null, "dx": null, "dx_u": null, "dy": null, "dy_u": null }, "geometry": { "type": "MultiPolygon", "coordinates": [ [ [ [ 131.850049454502368, 43.082719855681304 ], [ 131.850049421511812, 43.082733357740047 ], [ 131.850065502834383, 43.082733378850065 ], [ 131.850065535821415, 43.082719876791302 ], [ 131.850049454502368, 43.082719855681304 ] ] ] ] } },
{ "type": "Feature", "properties": { "fid": 42, "Layer": "2 - окн федерального значения", "PaperSpace": null, "SubClasses": "AcDbEntity:AcDbPolyline", "Linetype": "ByLayer", "EntityHandle": "601", "Text": null, "ogr_style": "PEN(c:#000000)", "font": null, "angle": null, "size": null, "size_u": null, "anchor": null, "color": "#000000", "underline": null, "plaintext": null, "fcolor": null, "flnum": null, "bold": null, "italic": null, "dx": null, "dx_u": null, "dy": null, "dy_u": null }, "geometry": { "type": "MultiPolygon", "coordinates": [ [ [ [ 131.850148608973882, 43.082911320810616 ], [ 131.850148576004869, 43.082924822868968 ], [ 131.850164657377547, 43.082924843965131 ], [ 131.850164690343007, 43.082911341906758 ], [ 131.850148608973882, 43.082911320810616 ] ] ] ] } },
{ "type": "Feature", "properties": { "fid": 43, "Layer": "2 - окн федерального значения", "PaperSpace": null, "SubClasses": "AcDbEntity:AcDbPolyline", "Linetype": "ByLayer", "EntityHandle": "603", "Text": null, "ogr_style": "PEN(c:#000000)", "font": null, "angle": null, "size": null, "size_u": null, "anchor": null, "color": "#000000", "underline": null, "plaintext": null, "fcolor": null, "flnum": null, "bold": null, "italic": null, "dx": null, "dx_u": null, "dy": null, "dy_u": null }, "geometry": { "type": "MultiPolygon", "coordinates": [ [ [ [ 131.850435136393997, 43.083333353042462 ], [ 131.850449539629977, 43.083354344302677 ], [ 131.85042907807582, 43.083361608492936 ], [ 131.850464780128249, 43.08341121682156 ], [ 131.850485146291106, 43.083403328065202 ], [ 131.850499589522855, 43.08342443382336 ], [ 131.850618317412909, 43.08338066323477 ], [ 131.850553376852304, 43.083290157444594 ], [ 131.850435136393997, 43.083333353042462 ] ] ] ] } },
{ "type": "Feature", "properties": { "fid": 44, "Layer": "2 - окн федерального значения", "PaperSpace": null, "SubClasses": "AcDbEntity:AcDbPolyline", "Linetype": "ByLayer", "EntityHandle": "605", "Text": null, "ogr_style": "PEN(c:#000000)", "font": null, "angle": null, "size": null, "size_u": null, "anchor": null, "color": "#000000", "underline": null, "plaintext": null, "fcolor": null, "flnum": null, "bold": null, "italic": null, "dx": null, "dx_u": null, "dy": null, "dy_u": null }, "geometry": { "type": "MultiPolygon", "coordinates": [ [ [ [ 131.849878067355348, 43.082577209793605 ], [ 131.849852760613288, 43.08260034932723 ], [ 131.849948604870207, 43.082658990209907 ], [ 131.849966301693797, 43.082644881435485 ], [ 131.850039983227902, 43.082588061968096 ], [ 131.850054789526212, 43.082598088327671 ], [ 131.850104554447029, 43.08256086741725 ], [ 131.850126321289821, 43.082577763555641 ], [ 131.850161523636018, 43.082550288953115 ], [ 131.849997013039854, 43.082443245023036 ], [ 131.849958972858389, 43.082475154686797 ], [ 131.849979137956609, 43.082486426225799 ], [ 131.849878067355348, 43.082577209793605 ] ] ] ] } },
{ "type": "Feature", "properties": { "fid": 45, "Layer": "2 - окн федерального значения", "PaperSpace": null, "SubClasses": "AcDbEntity:AcDbPolyline", "Linetype": "ByLayer", "EntityHandle": "607", "Text": null, "ogr_style": "PEN(c:#000000)", "font": null, "angle": null, "size": null, "size_u": null, "anchor": null, "color": "#000000", "underline": null, "plaintext": null, "fcolor": null, "flnum": null, "bold": null, "italic": null, "dx": null, "dx_u": null, "dy": null, "dy_u": null }, "geometry": { "type": "MultiPolygon", "coordinates": [ [ [ [ 131.849873920495838, 43.082359680181924 ], [ 131.849886166743772, 43.082285738417546 ], [ 131.8498513900023, 43.082282205021947 ], [ 131.849850274941303, 43.082288910504836 ], [ 131.849746310028678, 43.082279384433427 ], [ 131.849742597771154, 43.082300035776932 ], [ 131.849672257392427, 43.0822932047083 ], [ 131.849625125982072, 43.082288627541281 ], [ 131.84961627614075, 43.082347939053157 ], [ 131.849871890929847, 43.082371934504017 ], [ 131.849873920495838, 43.082359680181924 ] ] ] ] } },
{ "type": "Feature", "properties": { "fid": 46, "Layer": "2 - окн федерального значения", "PaperSpace": null, "SubClasses": "AcDbEntity:AcDbPolyline", "Linetype": "ByLayer", "EntityHandle": "609", "Text": null, "ogr_style": "PEN(c:#000000)", "font": null, "angle": null, "size": null, "size_u": null, "anchor": null, "color": "#000000", "underline": null, "plaintext": null, "fcolor": null, "flnum": null, "bold": null, "italic": null, "dx": null, "dx_u": null, "dy": null, "dy_u": null }, "geometry": { "type": "MultiPolygon", "coordinates": [ [ [ [ 131.850460311701937, 43.08329926911604 ], [ 131.850448083604107, 43.083303560740013 ], [ 131.850433515649428, 43.08331229036429 ], [ 131.850419383355558, 43.083329194710011 ], [ 131.850411295340763, 43.083348085491018 ], [ 131.850409192109339, 43.083367824562856 ], [ 131.85041121714255, 43.08338161431216 ], [ 131.850416905993654, 43.083394842039084 ], [ 131.85042856174536, 43.083410489018775 ], [ 131.850444270822294, 43.083424099126084 ], [ 131.85046167327144, 43.083433573528552 ], [ 131.850481425337449, 43.08344012039646 ], [ 131.850505150158853, 43.083444036036553 ], [ 131.850529463104266, 43.083444427552749 ], [ 131.850550522962436, 43.083440975184885 ], [ 131.850560562737343, 43.083438002175562 ], [ 131.850565478742709, 43.083436359627655 ], [ 131.850555136407252, 43.083424409285655 ], [ 131.850589258845559, 43.083408062921741 ], [ 131.850595063090594, 43.08341446890168 ], [ 131.850602068870302, 43.083407259090635 ], [ 131.850612216894092, 43.083394521840148 ], [ 131.850620849003178, 43.083374901847627 ], [ 131.850622840628176, 43.083361669498004 ], [ 131.850621987420368, 43.08334837156282 ], [ 131.850619619207748, 43.083339647543653 ], [ 131.850613740022339, 43.0833287180889 ], [ 131.850609797785694, 43.083323569836601 ], [ 131.850601200923307, 43.083313498879924 ], [ 131.85058794217656, 43.083302565949758 ], [ 131.850581441758379, 43.083299047426891 ], [ 131.850567505089316, 43.083292883218363 ], [ 131.850560265722976, 43.083290267909355 ], [ 131.85054496032285, 43.083286843410342 ], [ 131.850536939598157, 43.083286118417988 ], [ 131.850520780092864, 43.083286100177652 ], [ 131.850508860836555, 43.08328742165078 ], [ 131.850504936257778, 43.083288083772985 ], [ 131.850507742979232, 43.083295452963092 ], [ 131.850482076008177, 43.083304690653591 ], [ 131.850475400675464, 43.083294944208404 ], [ 131.850460311701937, 43.08329926911604 ] ] ] ] } },
{ "type": "Feature", "properties": { "fid": 47, "Layer": "2 - окн федерального значения", "PaperSpace": null, "SubClasses": "AcDbEntity:AcDbPolyline", "Linetype": "ByLayer", "EntityHandle": "60B", "Text": null, "ogr_style": "PEN(c:#000000)", "font": null, "angle": null, "size": null, "size_u": null, "anchor": null, "color": "#000000", "underline": null, "plaintext": null, "fcolor": null, "flnum": null, "bold": null, "italic": null, "dx": null, "dx_u": null, "dy": null, "dy_u": null }, "geometry": { "type": "MultiPolygon", "coordinates": [ [ [ [ 131.863318501070296, 43.099596040766421 ], [ 131.863311178929564, 43.099602228407875 ], [ 131.863308727161524, 43.099613965820957 ], [ 131.86341035751542, 43.099727302037749 ], [ 131.863424000489488, 43.099734592457715 ], [ 131.863438154734411, 43.099735336794339 ], [ 131.863608302709338, 43.099656103499491 ], [ 131.86361417468666, 43.099639680239235 ], [ 131.86358536361476, 43.099603962916404 ], [ 131.863626499304615, 43.099586144911171 ], [ 131.863585959858597, 43.099535887785116 ], [ 131.863545944619716, 43.099555667168403 ], [ 131.863509647392902, 43.099516235313047 ], [ 131.863506378589591, 43.09951557992057 ], [ 131.86349287793891, 43.099513381851736 ], [ 131.863318501070296, 43.099596040766421 ] ] ] ] } },
{ "type": "Feature", "properties": { "fid": 48, "Layer": "2 - окн федерального значения", "PaperSpace": null, "SubClasses": "AcDbEntity:AcDbPolyline", "Linetype": "ByLayer", "EntityHandle": "60D", "Text": null, "ogr_style": "PEN(c:#000000)", "font": null, "angle": null, "size": null, "size_u": null, "anchor": null, "color": "#000000", "underline": null, "plaintext": null, "fcolor": null, "flnum": null, "bold": null, "italic": null, "dx": null, "dx_u": null, "dy": null, "dy_u": null }, "geometry": { "type": "MultiPolygon", "coordinates": [ [ [ [ 131.863337678504593, 43.099955681687831 ], [ 131.863463412306572, 43.100265075099671 ], [ 131.863596130172368, 43.10057195871272 ], [ 131.86365400935955, 43.100558525710248 ], [ 131.863526337209919, 43.100265399203792 ], [ 131.863638817432218, 43.100241669959971 ], [ 131.863633513274436, 43.100224655790015 ], [ 131.863521514754041, 43.100246632183094 ], [ 131.863416767932705, 43.099975208486164 ], [ 131.863534348563633, 43.099883088956155 ], [ 131.863517316621113, 43.099870836763742 ], [ 131.863405452687488, 43.099954665295463 ], [ 131.863401155322435, 43.099943250004777 ], [ 131.863337678504593, 43.099955681687831 ] ] ] ] } },
{ "type": "Feature", "properties": { "fid": 49, "Layer": "2 - окн федерального значения", "PaperSpace": null, "SubClasses": "AcDbEntity:AcDbPolyline", "Linetype": "ByLayer", "EntityHandle": "60F", "Text": null, "ogr_style": "PEN(c:#000000)", "font": null, "angle": null, "size": null, "size_u": null, "anchor": null, "color": "#000000", "underline": null, "plaintext": null, "fcolor": null, "flnum": null, "bold": null, "italic": null, "dx": null, "dx_u": null, "dy": null, "dy_u": null }, "geometry": { "type": "MultiPolygon", "coordinates": [ [ [ [ 131.848913131970761, 43.082173363420345 ], [ 131.848918101196745, 43.082189430452971 ], [ 131.848931556294332, 43.082202626900425 ], [ 131.848951170756919, 43.082210670974646 ], [ 131.848973553062109, 43.08221217178 ], [ 131.848994833098914, 43.082206869813263 ], [ 131.849011331350312, 43.082195681834214 ], [ 131.84902019511847, 43.082180542348596 ], [ 131.849019891782007, 43.082164069112743 ], [ 131.849010473797506, 43.082149110498698 ], [ 131.848993569624611, 43.082138252984755 ], [ 131.848972102147229, 43.082133373931164 ], [ 131.84894978328137, 43.082135316969321 ], [ 131.848930472155217, 43.08214374613096 ], [ 131.84891750783467, 43.082157203939651 ], [ 131.848913131970761, 43.082173363420345 ] ] ] ] } },
{ "type": "Feature", "properties": { "fid": 50, "Layer": "2 - окн федерального значения", "PaperSpace": null, "SubClasses": "AcDbEntity:AcDbPolyline", "Linetype": "ByLayer", "EntityHandle": "611", "Text": null, "ogr_style": "PEN(c:#000000)", "font": null, "angle": null, "size": null, "size_u": null, "anchor": null, "color": "#000000", "underline": null, "plaintext": null, "fcolor": null, "flnum": null, "bold": null, "italic": null, "dx": null, "dx_u": null, "dy": null, "dy_u": null }, "geometry": { "type": "MultiPolygon", "coordinates": [ [ [ [ 131.850341665916176, 43.083188841879931 ], [ 131.850346646985088, 43.083207010589142 ], [ 131.85036024585969, 43.083222633487814 ], [ 131.85038062593992, 43.083233600614278 ], [ 131.850405034780692, 43.083238430794637 ], [ 131.85043017582575, 43.083236471684899 ], [ 131.850452653630043, 43.083227987874395 ], [ 131.85046943243708, 43.083214125151123 ], [ 131.850478246177033, 43.083196755755466 ], [ 131.850477904511507, 43.083178225522403 ], [ 131.850468453592157, 43.083161037062411 ], [ 131.850451169823714, 43.083147511770207 ], [ 131.850428387475262, 43.08313947630856 ], [ 131.850403183424191, 43.083138015908965 ], [ 131.850378961609351, 43.083143327806084 ], [ 131.850358993314643, 43.083154694600438 ], [ 131.850345975367048, 43.083170581146241 ], [ 131.850341665916176, 43.083188841879931 ] ] ] ] } },
{ "type": "Feature", "properties": { "fid": 51, "Layer": "2 - окн федерального значения", "PaperSpace": null, "SubClasses": "AcDbEntity:AcDbPolyline", "Linetype": "ByLayer", "EntityHandle": "613", "Text": null, "ogr_style": "PEN(c:#000000)", "font": null, "angle": null, "size": null, "size_u": null, "anchor": null, "color": "#000000", "underline": null, "plaintext": null, "fcolor": null, "flnum": null, "bold": null, "italic": null, "dx": null, "dx_u": null, "dy": null, "dy_u": null }, "geometry": { "type": "MultiPolygon", "coordinates": [ [ [ [ 131.850341665916176, 43.083188841879931 ], [ 131.850346646985088, 43.083207010589142 ], [ 131.85036024585969, 43.083222633487814 ], [ 131.85038062593992, 43.083233600614278 ], [ 131.850405034780692, 43.083238430794637 ], [ 131.85043017582575, 43.083236471684899 ], [ 131.850452653630043, 43.083227987874395 ], [ 131.85046943243708, 43.083214125151123 ], [ 131.850478246177033, 43.083196755755466 ], [ 131.850477904511507, 43.083178225522403 ], [ 131.850468453592157, 43.083161037062411 ], [ 131.850451169823714, 43.083147511770207 ], [ 131.850428387475262, 43.08313947630856 ], [ 131.850403183424191, 43.083138015908965 ], [ 131.850378961609351, 43.083143327806084 ], [ 131.850358993314643, 43.083154694600438 ], [ 131.850345975367048, 43.083170581146241 ], [ 131.850341665916176, 43.083188841879931 ] ] ] ] } },
{ "type": "Feature", "properties": { "fid": 52, "Layer": "2 - окн федерального значения", "PaperSpace": null, "SubClasses": "AcDbEntity:AcDbPolyline", "Linetype": "ByLayer", "EntityHandle": "615", "Text": null, "ogr_style": "PEN(c:#000000)", "font": null, "angle": null, "size": null, "size_u": null, "anchor": null, "color": "#000000", "underline": null, "plaintext": null, "fcolor": null, "flnum": null, "bold": null, "italic": null, "dx": null, "dx_u": null, "dy": null, "dy_u": null }, "geometry": { "type": "MultiPolygon", "coordinates": [ [ [ [ 131.850341665916176, 43.083188841879931 ], [ 131.850346646985088, 43.083207010589142 ], [ 131.85036024585969, 43.083222633487814 ], [ 131.85038062593992, 43.083233600614278 ], [ 131.850405034780692, 43.083238430794637 ], [ 131.85043017582575, 43.083236471684899 ], [ 131.850452653630043, 43.083227987874395 ], [ 131.85046943243708, 43.083214125151123 ], [ 131.850478246177033, 43.083196755755466 ], [ 131.850477904511507, 43.083178225522403 ], [ 131.850468453592157, 43.083161037062411 ], [ 131.850451169823714, 43.083147511770207 ], [ 131.850428387475262, 43.08313947630856 ], [ 131.850403183424191, 43.083138015908965 ], [ 131.850378961609351, 43.083143327806084 ], [ 131.850358993314643, 43.083154694600438 ], [ 131.850345975367048, 43.083170581146241 ], [ 131.850341665916176, 43.083188841879931 ] ] ] ] } }
]
}
