{"type":"FeatureCollection","name":"10_valued_city_landscape","crs":{"type":"name","properties":{"name":"urn:ogc:def:crs:OGC:1.3:CRS84"}},"features":[{"type":"Feature","properties":{"fid":1,"Layer":"10 - ценные фрагменты благоустройства","PaperSpace":null,"SubClasses":"AcDbEntity:AcDbPolyline","Linetype":"ByLayer","EntityHandle":"5AB","Text":null,"ogr_style":"PEN(c:#000000)","font":null,"angle":null,"size":null,"size_u":null,"anchor":null,"color":"#000000","underline":null,"plaintext":null,"fcolor":null,"flnum":null,"bold":null,"italic":null,"dx":null,"dx_u":null,"dy":null,"dy_u":null},"geometry":{"type":"MultiPolygon","coordinates":[[[[131.892377,43.104939],[131.892377,43.104885],[131.892205,43.104885],[131.892205,43.104939],[131.892377,43.104939]]]]}},{"type":"Feature","properties":{"fid":2,"Layer":"10 - ценные фрагменты благоустройства","PaperSpace":null,"SubClasses":"AcDbEntity:AcDbPolyline","Linetype":"ByLayer","EntityHandle":"5AD","Text":null,"ogr_style":"PEN(c:#000000)","font":null,"angle":null,"size":null,"size_u":null,"anchor":null,"color":"#000000","underline":null,"plaintext":null,"fcolor":null,"flnum":null,"bold":null,"italic":null,"dx":null,"dx_u":null,"dy":null,"dy_u":null},"geometry":{"type":"MultiPolygon","coordinates":[[[[131.8982,43.117496],[131.898403,43.117467],[131.899369,43.117736],[131.899611,43.11795],[131.89976,43.117849],[131.899686,43.117792],[131.899007,43.117414],[131.898732,43.117325],[131.89846,43.117268],[131.897973,43.117174],[131.8982,43.117496]]]]}},{"type":"Feature","properties":{"fid":3,"Layer":"10 - ценные фрагменты благоустройства","PaperSpace":null,"SubClasses":"AcDbEntity:AcDbPolyline","Linetype":"ByLayer","EntityHandle":"5AF","Text":null,"ogr_style":"PEN(c:#000000)","font":null,"angle":null,"size":null,"size_u":null,"anchor":null,"color":"#000000","underline":null,"plaintext":null,"fcolor":null,"flnum":null,"bold":null,"italic":null,"dx":null,"dx_u":null,"dy":null,"dy_u":null},"geometry":{"type":"MultiPolygon","coordinates":[[[[131.92316,43.111915],[131.922855,43.111924],[131.922571,43.111934],[131.92256,43.111862],[131.922533,43.111858],[131.922003,43.111842],[131.922002,43.111866],[131.922013,43.112103],[131.922704,43.11208],[131.922948,43.112072],[131.923172,43.112063],[131.92316,43.111915]]]]}},{"type":"Feature","properties":{"fid":4,"Layer":"10 - ценные фрагменты благоустройства","PaperSpace":null,"SubClasses":"AcDbEntity:AcDbPolyline","Linetype":"ByLayer","EntityHandle":"5B1","Text":null,"ogr_style":"PEN(c:#000000)","font":null,"angle":null,"size":null,"size_u":null,"anchor":null,"color":"#000000","underline":null,"plaintext":null,"fcolor":null,"flnum":null,"bold":null,"italic":null,"dx":null,"dx_u":null,"dy":null,"dy_u":null},"geometry":{"type":"MultiPolygon","coordinates":[[[[131.925545,43.111708],[131.925457,43.111685],[131.925383,43.111642],[131.925331,43.111626],[131.925313,43.111555],[131.925308,43.111525],[131.925185,43.111533],[131.925059,43.111485],[131.925,43.111488],[131.924898,43.111494],[131.924732,43.111576],[131.924759,43.111892],[131.925352,43.111799],[131.925432,43.11179],[131.925568,43.111766],[131.925545,43.111708]]]]}},{"type":"Feature","properties":{"fid":5,"Layer":"10 - ценные фрагменты благоустройства","PaperSpace":null,"SubClasses":"AcDbEntity:AcDbPolyline","Linetype":"ByLayer","EntityHandle":"5B3","Text":null,"ogr_style":"PEN(c:#000000)","font":null,"angle":null,"size":null,"size_u":null,"anchor":null,"color":"#000000","underline":null,"plaintext":null,"fcolor":null,"flnum":null,"bold":null,"italic":null,"dx":null,"dx_u":null,"dy":null,"dy_u":null},"geometry":{"type":"MultiPolygon","coordinates":[[[[131.881814,43.115614],[131.881831,43.115655],[131.881858,43.115671],[131.882005,43.115652],[131.881989,43.115605],[131.881979,43.115596],[131.881974,43.115578],[131.881964,43.115552],[131.881857,43.115271],[131.881824,43.115183],[131.881764,43.115241],[131.881728,43.115359],[131.881814,43.115614]]]]}},{"type":"Feature","properties":{"fid":6,"Layer":"10 - ценные фрагменты благоустройства","PaperSpace":null,"SubClasses":"AcDbEntity:AcDbPolyline","Linetype":"ByLayer","EntityHandle":"5B5","Text":null,"ogr_style":"PEN(c:#000000)","font":null,"angle":null,"size":null,"size_u":null,"anchor":null,"color":"#000000","underline":null,"plaintext":null,"fcolor":null,"flnum":null,"bold":null,"italic":null,"dx":null,"dx_u":null,"dy":null,"dy_u":null},"geometry":{"type":"MultiPolygon","coordinates":[[[[131.875199,43.114905],[131.875247,43.11492],[131.875262,43.114918],[131.875278,43.114912],[131.8753,43.114899],[131.875311,43.114887],[131.875411,43.114684],[131.875414,43.11467],[131.875415,43.114657],[131.875406,43.114624],[131.875388,43.114593],[131.875152,43.114355],[131.874926,43.11412],[131.874896,43.114085],[131.874885,43.114058],[131.874878,43.114028],[131.874875,43.113979],[131.874878,43.113956],[131.874945,43.113677],[131.874949,43.113638],[131.874958,43.113599],[131.874973,43.113561],[131.874993,43.113524],[131.875019,43.113489],[131.875048,43.113456],[131.875083,43.113426],[131.875121,43.113398],[131.87513,43.113383],[131.875139,43.113356],[131.875143,43.113321],[131.875141,43.113296],[131.875135,43.113272],[131.875119,43.113246],[131.875095,43.113221],[131.875063,43.113198],[131.875032,43.113182],[131.875008,43.11318],[131.874633,43.113878],[131.874584,43.113958],[131.87457,43.113992],[131.874562,43.114026],[131.874559,43.114054],[131.874561,43.114082],[131.874568,43.114119],[131.874577,43.114156],[131.874612,43.11426],[131.874638,43.114315],[131.874668,43.114364],[131.874695,43.114399],[131.874891,43.114602],[131.874894,43.114601],[131.875199,43.114905]]]]}},{"type":"Feature","properties":{"fid":7,"Layer":"10 - ценные фрагменты благоустройства","PaperSpace":null,"SubClasses":"AcDbEntity:AcDbPolyline","Linetype":"ByLayer","EntityHandle":"5B7","Text":null,"ogr_style":"PEN(c:#000000)","font":null,"angle":null,"size":null,"size_u":null,"anchor":null,"color":"#000000","underline":null,"plaintext":null,"fcolor":null,"flnum":null,"bold":null,"italic":null,"dx":null,"dx_u":null,"dy":null,"dy_u":null},"geometry":{"type":"MultiPolygon","coordinates":[[[[131.887128,43.122096],[131.887562,43.122022],[131.88742,43.121546],[131.887206,43.121588],[131.887135,43.121396],[131.886876,43.121447],[131.887128,43.122096]]]]}},{"type":"Feature","properties":{"fid":8,"Layer":"10 - ценные фрагменты благоустройства","PaperSpace":null,"SubClasses":"AcDbEntity:AcDbPolyline","Linetype":"ByLayer","EntityHandle":"5B9","Text":null,"ogr_style":"PEN(c:#000000)","font":null,"angle":null,"size":null,"size_u":null,"anchor":null,"color":"#000000","underline":null,"plaintext":null,"fcolor":null,"flnum":null,"bold":null,"italic":null,"dx":null,"dx_u":null,"dy":null,"dy_u":null},"geometry":{"type":"MultiPolygon","coordinates":[[[[131.913718,43.113518],[131.914625,43.113334],[131.914534,43.113139],[131.91364,43.113331],[131.913718,43.113518]]]]}},{"type":"Feature","properties":{"fid":9,"Layer":"10 - ценные фрагменты благоустройства","PaperSpace":null,"SubClasses":"AcDbEntity:AcDbPolyline","Linetype":"ByLayer","EntityHandle":"5BB","Text":null,"ogr_style":"PEN(c:#000000)","font":null,"angle":null,"size":null,"size_u":null,"anchor":null,"color":"#000000","underline":null,"plaintext":null,"fcolor":null,"flnum":null,"bold":null,"italic":null,"dx":null,"dx_u":null,"dy":null,"dy_u":null},"geometry":{"type":"MultiPolygon","coordinates":[[[[131.880385,43.119126],[131.881292,43.118942],[131.881186,43.118609],[131.880198,43.118813],[131.880309,43.119085],[131.880385,43.119126]]]]}},{"type":"Feature","properties":{"fid":10,"Layer":"10 - ценные фрагменты благоустройства","PaperSpace":null,"SubClasses":"AcDbEntity:AcDbPolyline","Linetype":"ByLayer","EntityHandle":"5BD","Text":null,"ogr_style":"PEN(c:#000000)","font":null,"angle":null,"size":null,"size_u":null,"anchor":null,"color":"#000000","underline":null,"plaintext":null,"fcolor":null,"flnum":null,"bold":null,"italic":null,"dx":null,"dx_u":null,"dy":null,"dy_u":null},"geometry":{"type":"MultiPolygon","coordinates":[[[[131.940729,43.125359],[131.942405,43.12523],[131.943103,43.124904],[131.943855,43.124254],[131.944683,43.123707],[131.945186,43.123721],[131.945935,43.123478],[131.943432,43.119075],[131.943107,43.11894],[131.942169,43.11908],[131.942049,43.119162],[131.941215,43.119475],[131.941709,43.120695],[131.940552,43.121076],[131.939699,43.121366],[131.939375,43.120865],[131.940311,43.12058],[131.940313,43.119677],[131.940008,43.118881],[131.939789,43.117811],[131.93906,43.116163],[131.938491,43.11613],[131.937769,43.116113],[131.937567,43.116123],[131.937498,43.116136],[131.937431,43.116156],[131.937348,43.116191],[131.937156,43.116319],[131.936976,43.116531],[131.936905,43.116606],[131.936829,43.11673],[131.936904,43.116866],[131.93717,43.117329],[131.937243,43.11741],[131.937404,43.117821],[131.93746,43.117961],[131.937507,43.118103],[131.937544,43.118246],[131.937572,43.11839],[131.93759,43.118536],[131.937598,43.118681],[131.937597,43.118827],[131.937586,43.118973],[131.93748,43.119663],[131.938154,43.121132],[131.940237,43.124682],[131.940422,43.125315],[131.940729,43.125359]]]]}},{"type":"Feature","properties":{"fid":11,"Layer":"10 - ценные фрагменты благоустройства","PaperSpace":null,"SubClasses":"AcDbEntity:AcDbPolyline","Linetype":"ByLayer","EntityHandle":"5BF","Text":null,"ogr_style":"PEN(c:#000000)","font":null,"angle":null,"size":null,"size_u":null,"anchor":null,"color":"#000000","underline":null,"plaintext":null,"fcolor":null,"flnum":null,"bold":null,"italic":null,"dx":null,"dx_u":null,"dy":null,"dy_u":null},"geometry":{"type":"MultiPolygon","coordinates":[[[[131.89417,43.117098],[131.895344,43.11686],[131.895041,43.115992],[131.895037,43.115983],[131.895023,43.115971],[131.894999,43.115966],[131.894972,43.11597],[131.894922,43.115994],[131.894876,43.116024],[131.894847,43.116051],[131.894038,43.117066],[131.894056,43.11709],[131.894088,43.117101],[131.89417,43.117098]]]]}},{"type":"Feature","properties":{"fid":12,"Layer":"10 - ценные фрагменты благоустройства","PaperSpace":null,"SubClasses":"AcDbEntity:AcDbPolyline","Linetype":"ByLayer","EntityHandle":"5C1","Text":null,"ogr_style":"PEN(c:#000000)","font":null,"angle":null,"size":null,"size_u":null,"anchor":null,"color":"#000000","underline":null,"plaintext":null,"fcolor":null,"flnum":null,"bold":null,"italic":null,"dx":null,"dx_u":null,"dy":null,"dy_u":null},"geometry":{"type":"MultiPolygon","coordinates":[[[[131.892947,43.115643],[131.893695,43.1155],[131.893496,43.11492],[131.893453,43.11488],[131.893425,43.11487],[131.893077,43.114807],[131.892957,43.114527],[131.892597,43.114591],[131.892861,43.115349],[131.892855,43.115375],[131.892862,43.115407],[131.892947,43.115643]]]]}},{"type":"Feature","properties":{"fid":13,"Layer":"10 - ценные фрагменты благоустройства","PaperSpace":null,"SubClasses":"AcDbEntity:AcDbPolyline","Linetype":"ByLayer","EntityHandle":"5C3","Text":null,"ogr_style":"PEN(c:#000000)","font":null,"angle":null,"size":null,"size_u":null,"anchor":null,"color":"#000000","underline":null,"plaintext":null,"fcolor":null,"flnum":null,"bold":null,"italic":null,"dx":null,"dx_u":null,"dy":null,"dy_u":null},"geometry":{"type":"MultiPolygon","coordinates":[[[[131.901197,43.115354],[131.901315,43.115446],[131.901595,43.115521],[131.901716,43.115262],[131.901471,43.115082],[131.90143,43.11508],[131.901349,43.115044],[131.901334,43.115023],[131.901352,43.114996],[131.901298,43.114971],[131.901312,43.114947],[131.9012,43.114885],[131.901093,43.115115],[131.901074,43.115207],[131.901028,43.115314],[131.901197,43.115354]]]]}},{"type":"Feature","properties":{"fid":14,"Layer":"10 - ценные фрагменты благоустройства","PaperSpace":null,"SubClasses":"AcDbEntity:AcDbPolyline","Linetype":"ByLayer","EntityHandle":"5C5","Text":null,"ogr_style":"PEN(c:#000000)","font":null,"angle":null,"size":null,"size_u":null,"anchor":null,"color":"#000000","underline":null,"plaintext":null,"fcolor":null,"flnum":null,"bold":null,"italic":null,"dx":null,"dx_u":null,"dy":null,"dy_u":null},"geometry":{"type":"MultiPolygon","coordinates":[[[[131.902763,43.114687],[131.90299,43.114755],[131.903017,43.114687],[131.902869,43.114516],[131.902889,43.114477],[131.902631,43.114134],[131.902578,43.114113],[131.902478,43.113923],[131.902436,43.11388],[131.902264,43.113966],[131.902118,43.114066],[131.902125,43.114111],[131.902051,43.114118],[131.902054,43.114141],[131.901785,43.114163],[131.901783,43.114149],[131.901685,43.114157],[131.901591,43.114186],[131.901509,43.114341],[131.901421,43.114318],[131.901342,43.11448],[131.901182,43.114453],[131.901122,43.114591],[131.901864,43.114795],[131.901886,43.114749],[131.901929,43.114759],[131.902027,43.11453],[131.902763,43.114687]]]]}},{"type":"Feature","properties":{"fid":15,"Layer":"10 - ценные фрагменты благоустройства","PaperSpace":null,"SubClasses":"AcDbEntity:AcDbPolyline","Linetype":"ByLayer","EntityHandle":"5C7","Text":null,"ogr_style":"PEN(c:#000000)","font":null,"angle":null,"size":null,"size_u":null,"anchor":null,"color":"#000000","underline":null,"plaintext":null,"fcolor":null,"flnum":null,"bold":null,"italic":null,"dx":null,"dx_u":null,"dy":null,"dy_u":null},"geometry":{"type":"MultiPolygon","coordinates":[[[[131.90822,43.116663],[131.908469,43.116601],[131.908492,43.116566],[131.908208,43.115992],[131.90817,43.115989],[131.907909,43.116122],[131.90822,43.116663]]]]}},{"type":"Feature","properties":{"fid":16,"Layer":"10 - ценные фрагменты благоустройства","PaperSpace":null,"SubClasses":"AcDbEntity:AcDbPolyline","Linetype":"ByLayer","EntityHandle":"5C9","Text":null,"ogr_style":"PEN(c:#000000)","font":null,"angle":null,"size":null,"size_u":null,"anchor":null,"color":"#000000","underline":null,"plaintext":null,"fcolor":null,"flnum":null,"bold":null,"italic":null,"dx":null,"dx_u":null,"dy":null,"dy_u":null},"geometry":{"type":"MultiPolygon","coordinates":[[[[131.911402,43.114128],[131.911468,43.114305],[131.911476,43.114341],[131.911612,43.11461],[131.91169,43.114718],[131.911776,43.114826],[131.911791,43.114839],[131.911809,43.114844],[131.911836,43.114843],[131.912215,43.114753],[131.912112,43.11452],[131.912073,43.114528],[131.911832,43.113922],[131.911862,43.113901],[131.911816,43.113786],[131.911492,43.113871],[131.911515,43.113985],[131.911402,43.114128]]]]}},{"type":"Feature","properties":{"fid":17,"Layer":"10 - ценные фрагменты благоустройства","PaperSpace":null,"SubClasses":"AcDbEntity:AcDbPolyline","Linetype":"ByLayer","EntityHandle":"5CB","Text":null,"ogr_style":"PEN(c:#000000)","font":null,"angle":null,"size":null,"size_u":null,"anchor":null,"color":"#000000","underline":null,"plaintext":null,"fcolor":null,"flnum":null,"bold":null,"italic":null,"dx":null,"dx_u":null,"dy":null,"dy_u":null},"geometry":{"type":"MultiPolygon","coordinates":[[[[131.897997,43.113856],[131.899793,43.114264],[131.899828,43.114228],[131.899833,43.114206],[131.899841,43.114186],[131.899852,43.114168],[131.899866,43.11415],[131.899881,43.114134],[131.899898,43.114118],[131.899917,43.114103],[131.899938,43.11409],[131.899961,43.114078],[131.899914,43.113997],[131.899706,43.113945],[131.899717,43.113906],[131.899699,43.11387],[131.899676,43.113862],[131.899065,43.113758],[131.899048,43.113764],[131.899011,43.113758],[131.89899,43.113763],[131.898962,43.113764],[131.898928,43.113762],[131.89875,43.11373],[131.898607,43.113707],[131.898521,43.113689],[131.898474,43.113676],[131.898417,43.113645],[131.898356,43.113566],[131.898306,43.113523],[131.898249,43.113463],[131.898177,43.113438],[131.898068,43.113415],[131.897864,43.113378],[131.897609,43.113376],[131.897522,43.113364],[131.897375,43.113314],[131.897316,43.113305],[131.897219,43.113457],[131.897073,43.113689],[131.897826,43.113818],[131.897997,43.113856]]]]}},{"type":"Feature","properties":{"fid":18,"Layer":"10 - ценные фрагменты благоустройства","PaperSpace":null,"SubClasses":"AcDbEntity:AcDbPolyline","Linetype":"ByLayer","EntityHandle":"5CD","Text":null,"ogr_style":"PEN(c:#000000)","font":null,"angle":null,"size":null,"size_u":null,"anchor":null,"color":"#000000","underline":null,"plaintext":null,"fcolor":null,"flnum":null,"bold":null,"italic":null,"dx":null,"dx_u":null,"dy":null,"dy_u":null},"geometry":{"type":"MultiPolygon","coordinates":[[[[131.896659,43.114346],[131.896807,43.11434],[131.896929,43.11434],[131.897372,43.114389],[131.897453,43.114184],[131.897493,43.11417],[131.897693,43.114212],[131.897775,43.114022],[131.897493,43.113988],[131.897348,43.113969],[131.897033,43.113935],[131.896735,43.113902],[131.89666,43.113934],[131.896656,43.114015],[131.896659,43.114346]]]]}},{"type":"Feature","properties":{"fid":19,"Layer":"10 - ценные фрагменты благоустройства","PaperSpace":null,"SubClasses":"AcDbEntity:AcDbPolyline","Linetype":"ByLayer","EntityHandle":"5CF","Text":null,"ogr_style":"PEN(c:#000000)","font":null,"angle":null,"size":null,"size_u":null,"anchor":null,"color":"#000000","underline":null,"plaintext":null,"fcolor":null,"flnum":null,"bold":null,"italic":null,"dx":null,"dx_u":null,"dy":null,"dy_u":null},"geometry":{"type":"MultiPolygon","coordinates":[[[[131.876755,43.116283],[131.876783,43.116302],[131.876788,43.116323],[131.876957,43.116459],[131.877087,43.116553],[131.877097,43.116556],[131.877116,43.116557],[131.877236,43.116543],[131.877258,43.116536],[131.877268,43.116519],[131.87727,43.116501],[131.877247,43.116349],[131.877252,43.11634],[131.8775,43.116301],[131.877548,43.116278],[131.877603,43.116275],[131.877666,43.116279],[131.877734,43.116293],[131.877758,43.116186],[131.877792,43.116153],[131.877795,43.116124],[131.87779,43.116114],[131.877766,43.116096],[131.877607,43.115999],[131.877439,43.115871],[131.877397,43.115822],[131.877211,43.115816],[131.877166,43.115777],[131.876968,43.115799],[131.876917,43.115797],[131.876875,43.115788],[131.876592,43.115575],[131.876576,43.115538],[131.876509,43.115538],[131.876172,43.115829],[131.876534,43.116117],[131.876556,43.116108],[131.876764,43.116277],[131.876755,43.116283]]]]}},{"type":"Feature","properties":{"fid":20,"Layer":"10 - ценные фрагменты благоустройства","PaperSpace":null,"SubClasses":"AcDbEntity:AcDbPolyline","Linetype":"ByLayer","EntityHandle":"5D1","Text":null,"ogr_style":"PEN(c:#000000)","font":null,"angle":null,"size":null,"size_u":null,"anchor":null,"color":"#000000","underline":null,"plaintext":null,"fcolor":null,"flnum":null,"bold":null,"italic":null,"dx":null,"dx_u":null,"dy":null,"dy_u":null},"geometry":{"type":"MultiPolygon","coordinates":[[[[131.888418,43.115158],[131.889117,43.115018],[131.889022,43.114755],[131.888311,43.114884],[131.888287,43.114904],[131.888272,43.114905],[131.888259,43.114909],[131.888246,43.114915],[131.888236,43.114922],[131.888227,43.114931],[131.888221,43.114941],[131.888218,43.114951],[131.888218,43.114962],[131.888288,43.11514],[131.888337,43.115175],[131.888418,43.115158]]]]}},{"type":"Feature","properties":{"fid":21,"Layer":"10 - ценные фрагменты благоустройства","PaperSpace":null,"SubClasses":"AcDbEntity:AcDbPolyline","Linetype":"ByLayer","EntityHandle":"5D3","Text":null,"ogr_style":"PEN(c:#000000)","font":null,"angle":null,"size":null,"size_u":null,"anchor":null,"color":"#000000","underline":null,"plaintext":null,"fcolor":null,"flnum":null,"bold":null,"italic":null,"dx":null,"dx_u":null,"dy":null,"dy_u":null},"geometry":{"type":"MultiPolygon","coordinates":[[[[131.92574,43.112737],[131.925747,43.112674],[131.925571,43.112658],[131.925601,43.112412],[131.925499,43.11241],[131.924749,43.112421],[131.924753,43.113442],[131.925088,43.113441],[131.925747,43.113423],[131.925687,43.113339],[131.925696,43.113119],[131.925776,43.113086],[131.925808,43.112739],[131.92574,43.112737]]]]}},{"type":"Feature","properties":{"fid":22,"Layer":"10 - ценные фрагменты благоустройства","PaperSpace":null,"SubClasses":"AcDbEntity:AcDbPolyline","Linetype":"ByLayer","EntityHandle":"5D5","Text":null,"ogr_style":"PEN(c:#000000)","font":null,"angle":null,"size":null,"size_u":null,"anchor":null,"color":"#000000","underline":null,"plaintext":null,"fcolor":null,"flnum":null,"bold":null,"italic":null,"dx":null,"dx_u":null,"dy":null,"dy_u":null},"geometry":{"type":"MultiPolygon","coordinates":[[[[131.893324,43.113866],[131.893849,43.113767],[131.893652,43.113197],[131.89337,43.113227],[131.893104,43.11328],[131.893324,43.113866]]]]}},{"type":"Feature","properties":{"fid":23,"Layer":"10 - ценные фрагменты благоустройства","PaperSpace":null,"SubClasses":"AcDbEntity:AcDbPolyline","Linetype":"ByLayer","EntityHandle":"5D7","Text":null,"ogr_style":"PEN(c:#000000)","font":null,"angle":null,"size":null,"size_u":null,"anchor":null,"color":"#000000","underline":null,"plaintext":null,"fcolor":null,"flnum":null,"bold":null,"italic":null,"dx":null,"dx_u":null,"dy":null,"dy_u":null},"geometry":{"type":"MultiPolygon","coordinates":[[[[131.89155,43.114492],[131.892388,43.114334],[131.892439,43.114222],[131.892198,43.113448],[131.890517,43.113869],[131.890636,43.114143],[131.891383,43.114013],[131.89155,43.114492]]]]}},{"type":"Feature","properties":{"fid":24,"Layer":"10 - ценные фрагменты благоустройства","PaperSpace":null,"SubClasses":"AcDbEntity:AcDbPolyline","Linetype":"ByLayer","EntityHandle":"5D9","Text":null,"ogr_style":"PEN(c:#000000)","font":null,"angle":null,"size":null,"size_u":null,"anchor":null,"color":"#000000","underline":null,"plaintext":null,"fcolor":null,"flnum":null,"bold":null,"italic":null,"dx":null,"dx_u":null,"dy":null,"dy_u":null},"geometry":{"type":"MultiPolygon","coordinates":[[[[131.891843,43.118607],[131.892565,43.118471],[131.892363,43.117821],[131.892319,43.11777],[131.891599,43.117907],[131.891528,43.117916],[131.891513,43.117873],[131.891411,43.117892],[131.891236,43.117939],[131.891124,43.118003],[131.891058,43.118053],[131.891013,43.118114],[131.890989,43.118177],[131.890988,43.118224],[131.891024,43.118362],[131.891135,43.118684],[131.891209,43.1187],[131.891843,43.118607]]]]}},{"type":"Feature","properties":{"fid":25,"Layer":"10 - ценные фрагменты благоустройства","PaperSpace":null,"SubClasses":"AcDbEntity:AcDbPolyline","Linetype":"ByLayer","EntityHandle":"5DB","Text":null,"ogr_style":"PEN(c:#000000)","font":null,"angle":null,"size":null,"size_u":null,"anchor":null,"color":"#000000","underline":null,"plaintext":null,"fcolor":null,"flnum":null,"bold":null,"italic":null,"dx":null,"dx_u":null,"dy":null,"dy_u":null},"geometry":{"type":"MultiPolygon","coordinates":[[[[131.893076,43.117188],[131.89314,43.117177],[131.893207,43.117194],[131.893288,43.117107],[131.893259,43.117045],[131.893239,43.117045],[131.893239,43.117014],[131.893176,43.116845],[131.892925,43.116103],[131.892859,43.115945],[131.892671,43.115944],[131.892652,43.11599],[131.892536,43.116044],[131.892513,43.116097],[131.892494,43.116431],[131.892524,43.116423],[131.892599,43.11658],[131.892589,43.116603],[131.892767,43.116935],[131.892832,43.116919],[131.892884,43.116951],[131.893014,43.117066],[131.89304,43.117102],[131.893076,43.117188]]]]}},{"type":"Feature","properties":{"fid":26,"Layer":"10 - ценные фрагменты благоустройства","PaperSpace":null,"SubClasses":"AcDbEntity:AcDbPolyline","Linetype":"ByLayer","EntityHandle":"5DD","Text":null,"ogr_style":"PEN(c:#000000)","font":null,"angle":null,"size":null,"size_u":null,"anchor":null,"color":"#000000","underline":null,"plaintext":null,"fcolor":null,"flnum":null,"bold":null,"italic":null,"dx":null,"dx_u":null,"dy":null,"dy_u":null},"geometry":{"type":"MultiPolygon","coordinates":[[[[131.905131,43.115854],[131.905108,43.1159],[131.905558,43.116019],[131.905586,43.115973],[131.906503,43.115735],[131.906503,43.115693],[131.906494,43.115661],[131.906478,43.115649],[131.906433,43.115644],[131.905867,43.115733],[131.905131,43.115854]]]]}},{"type":"Feature","properties":{"fid":27,"Layer":"10 - ценные фрагменты благоустройства","PaperSpace":null,"SubClasses":"AcDbEntity:AcDbPolyline","Linetype":"ByLayer","EntityHandle":"5DF","Text":null,"ogr_style":"PEN(c:#000000)","font":null,"angle":null,"size":null,"size_u":null,"anchor":null,"color":"#000000","underline":null,"plaintext":null,"fcolor":null,"flnum":null,"bold":null,"italic":null,"dx":null,"dx_u":null,"dy":null,"dy_u":null},"geometry":{"type":"MultiPolygon","coordinates":[[[[131.890885,43.115997],[131.890686,43.115973],[131.890595,43.115974],[131.890477,43.11598],[131.890343,43.116004],[131.890269,43.116048],[131.890229,43.116115],[131.890229,43.116202],[131.890256,43.116291],[131.890275,43.116412],[131.890517,43.116415],[131.890706,43.116568],[131.890763,43.116533],[131.890983,43.11653],[131.891497,43.116437],[131.891441,43.116369],[131.891284,43.116292],[131.891145,43.11623],[131.891073,43.116258],[131.89092,43.116187],[131.890824,43.116114],[131.890831,43.116065],[131.890877,43.11603],[131.890885,43.115997]]]]}},{"type":"Feature","properties":{"fid":28,"Layer":"10 - ценные фрагменты благоустройства","PaperSpace":null,"SubClasses":"AcDbEntity:AcDbPolyline","Linetype":"ByLayer","EntityHandle":"5E1","Text":null,"ogr_style":"PEN(c:#000000)","font":null,"angle":null,"size":null,"size_u":null,"anchor":null,"color":"#000000","underline":null,"plaintext":null,"fcolor":null,"flnum":null,"bold":null,"italic":null,"dx":null,"dx_u":null,"dy":null,"dy_u":null},"geometry":{"type":"MultiPolygon","coordinates":[[[[131.900682,43.116409],[131.901167,43.1163],[131.901403,43.116229],[131.901468,43.116209],[131.901589,43.116155],[131.901684,43.116072],[131.901742,43.115968],[131.901207,43.115827],[131.901059,43.115787],[131.900896,43.116113],[131.900829,43.1161],[131.900682,43.116409]]]]}},{"type":"Feature","properties":{"fid":29,"Layer":"10 - ценные фрагменты благоустройства","PaperSpace":null,"SubClasses":"AcDbEntity:AcDbPolyline","Linetype":"ByLayer","EntityHandle":"5E3","Text":null,"ogr_style":"PEN(c:#000000)","font":null,"angle":null,"size":null,"size_u":null,"anchor":null,"color":"#000000","underline":null,"plaintext":null,"fcolor":null,"flnum":null,"bold":null,"italic":null,"dx":null,"dx_u":null,"dy":null,"dy_u":null},"geometry":{"type":"MultiPolygon","coordinates":[[[[131.874603,43.113404],[131.874626,43.11341],[131.874771,43.11312],[131.874819,43.1128],[131.874778,43.11279],[131.874734,43.112786],[131.874453,43.11284],[131.874434,43.112845],[131.87441,43.112857],[131.874391,43.11287],[131.874376,43.112887],[131.874603,43.113404]]]]}},{"type":"Feature","properties":{"fid":30,"Layer":"10 - ценные фрагменты благоустройства","PaperSpace":null,"SubClasses":"AcDbEntity:AcDbPolyline","Linetype":"ByLayer","EntityHandle":"5E5","Text":null,"ogr_style":"PEN(c:#000000)","font":null,"angle":null,"size":null,"size_u":null,"anchor":null,"color":"#000000","underline":null,"plaintext":null,"fcolor":null,"flnum":null,"bold":null,"italic":null,"dx":null,"dx_u":null,"dy":null,"dy_u":null},"geometry":{"type":"MultiPolygon","coordinates":[[[[131.881814,43.115614],[131.881831,43.115655],[131.881858,43.115671],[131.882005,43.115652],[131.881989,43.115605],[131.881979,43.115596],[131.881974,43.115578],[131.881964,43.115552],[131.881857,43.115271],[131.881824,43.115183],[131.881764,43.115241],[131.881728,43.115359],[131.881814,43.115614]]]]}},{"type":"Feature","properties":{"fid":31,"Layer":"10 - ценные фрагменты благоустройства","PaperSpace":null,"SubClasses":"AcDbEntity:AcDbPolyline","Linetype":"ByLayer","EntityHandle":"5E7","Text":null,"ogr_style":"PEN(c:#000000)","font":null,"angle":null,"size":null,"size_u":null,"anchor":null,"color":"#000000","underline":null,"plaintext":null,"fcolor":null,"flnum":null,"bold":null,"italic":null,"dx":null,"dx_u":null,"dy":null,"dy_u":null},"geometry":{"type":"MultiPolygon","coordinates":[[[[131.877616,43.118854],[131.877802,43.118559],[131.87969,43.118211],[131.879339,43.117192],[131.879189,43.117141],[131.877904,43.117385],[131.877615,43.117448],[131.877196,43.117149],[131.876693,43.11672],[131.87671,43.11668],[131.876599,43.116579],[131.876522,43.116594],[131.876357,43.116435],[131.875876,43.116094],[131.875709,43.115957],[131.875742,43.115938],[131.875529,43.11574],[131.875482,43.115632],[131.87526,43.115406],[131.875131,43.115313],[131.87485,43.11511],[131.874664,43.114917],[131.874285,43.115164],[131.87423,43.115118],[131.874085,43.115211],[131.874377,43.115358],[131.874519,43.115454],[131.874613,43.115581],[131.874963,43.115868],[131.876412,43.117106],[131.876753,43.117211],[131.877189,43.117605],[131.877306,43.117821],[131.877341,43.118111],[131.877334,43.118398],[131.877176,43.118832],[131.877115,43.119003],[131.87681,43.119294],[131.876612,43.119434],[131.876424,43.119656],[131.875529,43.120232],[131.875805,43.120389],[131.875461,43.120724],[131.875632,43.120818],[131.876811,43.119612],[131.877047,43.1196],[131.877199,43.119352],[131.877616,43.118854]]]]}},{"type":"Feature","properties":{"fid":32,"Layer":"10 - ценные фрагменты благоустройства","PaperSpace":null,"SubClasses":"AcDbEntity:AcDbPolyline","Linetype":"ByLayer","EntityHandle":"5E9","Text":null,"ogr_style":"PEN(c:#000000)","font":null,"angle":null,"size":null,"size_u":null,"anchor":null,"color":"#000000","underline":null,"plaintext":null,"fcolor":null,"flnum":null,"bold":null,"italic":null,"dx":null,"dx_u":null,"dy":null,"dy_u":null},"geometry":{"type":"MultiPolygon","coordinates":[[[[131.880385,43.119126],[131.881292,43.118942],[131.881186,43.118609],[131.880198,43.118813],[131.880309,43.119085],[131.880385,43.119126]]]]}},{"type":"Feature","properties":{"fid":33,"Layer":"10 - ценные фрагменты благоустройства","PaperSpace":null,"SubClasses":"AcDbEntity:AcDbPolyline","Linetype":"ByLayer","EntityHandle":"5EB","Text":null,"ogr_style":"PEN(c:#000000)","font":null,"angle":null,"size":null,"size_u":null,"anchor":null,"color":"#000000","underline":null,"plaintext":null,"fcolor":null,"flnum":null,"bold":null,"italic":null,"dx":null,"dx_u":null,"dy":null,"dy_u":null},"geometry":{"type":"MultiPolygon","coordinates":[[[[131.888418,43.115158],[131.889117,43.115018],[131.889022,43.114755],[131.888311,43.114884],[131.888287,43.114904],[131.888272,43.114905],[131.888259,43.114909],[131.888246,43.114915],[131.888236,43.114922],[131.888227,43.114931],[131.888221,43.114941],[131.888218,43.114951],[131.888218,43.114962],[131.888288,43.11514],[131.888337,43.115175],[131.888418,43.115158]]]]}},{"type":"Feature","properties":{"fid":34,"Layer":"10 - ценные фрагменты благоустройства","PaperSpace":null,"SubClasses":"AcDbEntity:AcDbPolyline","Linetype":"ByLayer","EntityHandle":"5ED","Text":null,"ogr_style":"PEN(c:#000000)","font":null,"angle":null,"size":null,"size_u":null,"anchor":null,"color":"#000000","underline":null,"plaintext":null,"fcolor":null,"flnum":null,"bold":null,"italic":null,"dx":null,"dx_u":null,"dy":null,"dy_u":null},"geometry":{"type":"MultiPolygon","coordinates":[[[[131.89155,43.114492],[131.892388,43.114334],[131.892439,43.114222],[131.892198,43.113448],[131.890517,43.113869],[131.890636,43.114143],[131.891383,43.114013],[131.89155,43.114492]]]]}},{"type":"Feature","properties":{"fid":35,"Layer":"10 - ценные фрагменты благоустройства","PaperSpace":null,"SubClasses":"AcDbEntity:AcDbPolyline","Linetype":"ByLayer","EntityHandle":"5EF","Text":null,"ogr_style":"PEN(c:#000000)","font":null,"angle":null,"size":null,"size_u":null,"anchor":null,"color":"#000000","underline":null,"plaintext":null,"fcolor":null,"flnum":null,"bold":null,"italic":null,"dx":null,"dx_u":null,"dy":null,"dy_u":null},"geometry":{"type":"MultiPolygon","coordinates":[[[[131.856363,43.084998],[131.856691,43.084994],[131.856818,43.084989],[131.857013,43.084982],[131.857033,43.084982],[131.857154,43.084978],[131.857209,43.084976],[131.857332,43.084972],[131.857354,43.084964],[131.857484,43.084864],[131.857681,43.084714],[131.857691,43.084624],[131.857645,43.084571],[131.857586,43.084551],[131.857441,43.084549],[131.856992,43.084547],[131.856895,43.084547],[131.856797,43.084545],[131.856666,43.084606],[131.856587,43.084666],[131.856343,43.084862],[131.85634,43.084921],[131.856363,43.084998]]]]}},{"type":"Feature","properties":{"fid":36,"Layer":"10 - ценные фрагменты благоустройства","PaperSpace":null,"SubClasses":"AcDbEntity:AcDbPolyline","Linetype":"ByLayer","EntityHandle":"5F1","Text":null,"ogr_style":"PEN(c:#000000)","font":null,"angle":null,"size":null,"size_u":null,"anchor":null,"color":"#000000","underline":null,"plaintext":null,"fcolor":null,"flnum":null,"bold":null,"italic":null,"dx":null,"dx_u":null,"dy":null,"dy_u":null},"geometry":{"type":"MultiPolygon","coordinates":[[[[131.86482,43.100252],[131.864997,43.100419],[131.865095,43.100515],[131.865549,43.100894],[131.865758,43.100765],[131.865831,43.100698],[131.865869,43.1007],[131.866035,43.100781],[131.866203,43.100904],[131.866288,43.100902],[131.866342,43.10087],[131.866233,43.1008],[131.865762,43.100491],[131.865316,43.100208],[131.864632,43.099791],[131.864542,43.099739],[131.864467,43.099737],[131.864439,43.099761],[131.864416,43.099805],[131.864413,43.099846],[131.864417,43.099886],[131.86482,43.100252]]]]}},{"type":"Feature","properties":{"fid":37,"Layer":"10 - ценные фрагменты благоустройства","PaperSpace":null,"SubClasses":"AcDbEntity:AcDbPolyline","Linetype":"ByLayer","EntityHandle":"5F3","Text":null,"ogr_style":"PEN(c:#000000)","font":null,"angle":null,"size":null,"size_u":null,"anchor":null,"color":"#000000","underline":null,"plaintext":null,"fcolor":null,"flnum":null,"bold":null,"italic":null,"dx":null,"dx_u":null,"dy":null,"dy_u":null},"geometry":{"type":"MultiPolygon","coordinates":[[[[131.867762,43.101995],[131.867813,43.101901],[131.867221,43.101478],[131.866826,43.101185],[131.866788,43.101207],[131.866671,43.101257],[131.866607,43.101286],[131.866569,43.101321],[131.866515,43.101362],[131.866198,43.101477],[131.866389,43.101632],[131.8666,43.101715],[131.867065,43.101856],[131.867171,43.10188],[131.867471,43.101971],[131.867737,43.102048],[131.867762,43.101995]]]]}},{"type":"Feature","properties":{"fid":38,"Layer":"10 - ценные фрагменты благоустройства","PaperSpace":null,"SubClasses":"AcDbEntity:AcDbPolyline","Linetype":"ByLayer","EntityHandle":"5F5","Text":null,"ogr_style":"PEN(c:#000000)","font":null,"angle":null,"size":null,"size_u":null,"anchor":null,"color":"#000000","underline":null,"plaintext":null,"fcolor":null,"flnum":null,"bold":null,"italic":null,"dx":null,"dx_u":null,"dy":null,"dy_u":null},"geometry":{"type":"MultiPolygon","coordinates":[[[[131.873582,43.10528],[131.87361,43.10529],[131.873702,43.105312],[131.873849,43.105317],[131.874159,43.1053],[131.874145,43.105285],[131.873727,43.105089],[131.873048,43.104772],[131.872866,43.104693],[131.872277,43.104413],[131.872235,43.10441],[131.87207,43.104338],[131.871969,43.104404],[131.871907,43.104368],[131.871838,43.104436],[131.871921,43.104505],[131.872112,43.104603],[131.872857,43.104946],[131.873582,43.10528]]]]}},{"type":"Feature","properties":{"fid":39,"Layer":"10 - ценные фрагменты благоустройства","PaperSpace":null,"SubClasses":"AcDbEntity:AcDbPolyline","Linetype":"ByLayer","EntityHandle":"5F7","Text":null,"ogr_style":"PEN(c:#000000)","font":null,"angle":null,"size":null,"size_u":null,"anchor":null,"color":"#000000","underline":null,"plaintext":null,"fcolor":null,"flnum":null,"bold":null,"italic":null,"dx":null,"dx_u":null,"dy":null,"dy_u":null},"geometry":{"type":"MultiPolygon","coordinates":[[[[131.876908,43.10735],[131.876845,43.107146],[131.877029,43.107074],[131.877286,43.107025],[131.877359,43.107015],[131.877227,43.106873],[131.87728,43.106812],[131.877283,43.106724],[131.877155,43.106661],[131.877088,43.106636],[131.876969,43.106599],[131.876939,43.106609],[131.877032,43.106741],[131.876686,43.106871],[131.876573,43.106758],[131.876545,43.106741],[131.87652,43.106733],[131.876347,43.106437],[131.876355,43.106351],[131.876317,43.106289],[131.876302,43.106244],[131.876285,43.106254],[131.876251,43.106412],[131.876224,43.106428],[131.875995,43.106478],[131.875961,43.10648],[131.875927,43.106476],[131.875834,43.106443],[131.875774,43.106418],[131.875781,43.106449],[131.875845,43.106538],[131.875899,43.106659],[131.876021,43.106929],[131.876089,43.107063],[131.876136,43.107149],[131.876191,43.107196],[131.876622,43.107518],[131.876774,43.107412],[131.876908,43.10735]]]]}},{"type":"Feature","properties":{"fid":40,"Layer":"10 - ценные фрагменты благоустройства","PaperSpace":null,"SubClasses":"AcDbEntity:AcDbPolyline","Linetype":"ByLayer","EntityHandle":"5F9","Text":null,"ogr_style":"PEN(c:#000000)","font":null,"angle":null,"size":null,"size_u":null,"anchor":null,"color":"#000000","underline":null,"plaintext":null,"fcolor":null,"flnum":null,"bold":null,"italic":null,"dx":null,"dx_u":null,"dy":null,"dy_u":null},"geometry":{"type":"MultiPolygon","coordinates":[[[[131.875215,43.114897],[131.875247,43.11492],[131.875262,43.114918],[131.875278,43.114912],[131.8753,43.114899],[131.875311,43.114887],[131.875411,43.114684],[131.875414,43.11467],[131.875415,43.114657],[131.875406,43.114624],[131.875388,43.114593],[131.875152,43.114355],[131.874926,43.11412],[131.874896,43.114085],[131.874885,43.114058],[131.874878,43.114028],[131.874875,43.113979],[131.874878,43.113956],[131.874945,43.113677],[131.874949,43.113638],[131.874958,43.113599],[131.874973,43.113561],[131.874993,43.113524],[131.875019,43.113489],[131.875048,43.113456],[131.875083,43.113426],[131.875121,43.113398],[131.87513,43.113383],[131.875139,43.113356],[131.875143,43.113321],[131.875141,43.113296],[131.875135,43.113272],[131.875119,43.113246],[131.875095,43.113221],[131.875063,43.113198],[131.875032,43.113182],[131.875008,43.11318],[131.874633,43.113878],[131.874584,43.113958],[131.87457,43.113992],[131.874562,43.114026],[131.874559,43.114054],[131.874561,43.114082],[131.874568,43.114119],[131.874577,43.114156],[131.874612,43.11426],[131.874638,43.114315],[131.874668,43.114364],[131.874695,43.114399],[131.874891,43.114602],[131.874894,43.114601],[131.875215,43.114897]]]]}},{"type":"Feature","properties":{"fid":41,"Layer":"10 - ценные фрагменты благоустройства","PaperSpace":null,"SubClasses":"AcDbEntity:AcDbPolyline","Linetype":"ByLayer","EntityHandle":"5FB","Text":null,"ogr_style":"PEN(c:#000000)","font":null,"angle":null,"size":null,"size_u":null,"anchor":null,"color":"#000000","underline":null,"plaintext":null,"fcolor":null,"flnum":null,"bold":null,"italic":null,"dx":null,"dx_u":null,"dy":null,"dy_u":null},"geometry":{"type":"MultiPolygon","coordinates":[[[[131.8775,43.111255],[131.877605,43.111593],[131.877908,43.111547],[131.877976,43.111587],[131.878003,43.111603],[131.87833,43.111544],[131.878258,43.111381],[131.878174,43.111127],[131.878138,43.111027],[131.87808,43.111081],[131.878101,43.111139],[131.877858,43.111185],[131.877834,43.111114],[131.877633,43.110537],[131.877597,43.11044],[131.877298,43.110497],[131.877282,43.110502],[131.877246,43.110519],[131.8775,43.111255]]]]}},{"type":"Feature","properties":{"fid":42,"Layer":"10 - ценные фрагменты благоустройства","PaperSpace":null,"SubClasses":"AcDbEntity:AcDbPolyline","Linetype":"ByLayer","EntityHandle":"5FD","Text":null,"ogr_style":"PEN(c:#000000)","font":null,"angle":null,"size":null,"size_u":null,"anchor":null,"color":"#000000","underline":null,"plaintext":null,"fcolor":null,"flnum":null,"bold":null,"italic":null,"dx":null,"dx_u":null,"dy":null,"dy_u":null},"geometry":{"type":"MultiPolygon","coordinates":[[[[131.861162,43.097762],[131.861238,43.097739],[131.861232,43.097726],[131.861253,43.097719],[131.861263,43.097717],[131.861269,43.097721],[131.861273,43.097728],[131.861435,43.097676],[131.861327,43.097578],[131.86117,43.097443],[131.861104,43.097388],[131.861101,43.097385],[131.861097,43.097383],[131.861093,43.097381],[131.861088,43.097379],[131.861084,43.097378],[131.861079,43.097377],[131.861074,43.097377],[131.861069,43.097377],[131.861064,43.097378],[131.861059,43.097379],[131.861055,43.09738],[131.861051,43.097382],[131.861047,43.097385],[131.861043,43.097387],[131.86104,43.09739],[131.861038,43.097393],[131.861036,43.097397],[131.861035,43.0974],[131.861034,43.097416],[131.861054,43.097565],[131.861086,43.097786],[131.861162,43.097762]]]]}},{"type":"Feature","properties":{"fid":43,"Layer":"10 - ценные фрагменты благоустройства","PaperSpace":null,"SubClasses":"AcDbEntity:AcDbPolyline","Linetype":"ByLayer","EntityHandle":"5FF","Text":null,"ogr_style":"PEN(c:#000000)","font":null,"angle":null,"size":null,"size_u":null,"anchor":null,"color":"#000000","underline":null,"plaintext":null,"fcolor":null,"flnum":null,"bold":null,"italic":null,"dx":null,"dx_u":null,"dy":null,"dy_u":null},"geometry":{"type":"MultiPolygon","coordinates":[[[[131.879439,43.111936],[131.879643,43.111879],[131.879664,43.111857],[131.879944,43.111784],[131.880047,43.111755],[131.880381,43.111683],[131.880295,43.11145],[131.880189,43.111473],[131.879969,43.111525],[131.879527,43.111603],[131.879432,43.111361],[131.87924,43.111395],[131.879337,43.111634],[131.879439,43.111936]]]]}}]}