{"type":"FeatureCollection","name":"11_natural_landscape","crs":{"type":"name","properties":{"name":"urn:ogc:def:crs:OGC:1.3:CRS84"}},"features":[{"type":"Feature","properties":{"fid":1,"Layer":"11 - фрагменты природного ландшафта","PaperSpace":null,"SubClasses":"AcDbEntity:AcDbPolyline","Linetype":"ByLayer","EntityHandle":"519","Text":null,"ogr_style":"PEN(c:#000000)","font":null,"angle":null,"size":null,"size_u":null,"anchor":null,"color":"#000000","underline":null,"plaintext":null,"fcolor":null,"flnum":null,"bold":null,"italic":null,"dx":null,"dx_u":null,"dy":null,"dy_u":null},"geometry":{"type":"MultiPolygon","coordinates":[[[[131.91355,43.114866],[131.913496,43.115099],[131.913467,43.115174],[131.913444,43.115361],[131.913635,43.115475],[131.913681,43.115383],[131.913888,43.115422],[131.9139,43.115542],[131.913934,43.115557],[131.914013,43.115592],[131.914105,43.115649],[131.914201,43.115687],[131.914239,43.115687],[131.914278,43.115674],[131.914362,43.115666],[131.914423,43.115676],[131.914473,43.115688],[131.914462,43.115445],[131.914568,43.115243],[131.914689,43.11509],[131.914857,43.115023],[131.9149,43.114965],[131.915152,43.114895],[131.915261,43.114776],[131.915398,43.11477],[131.915481,43.114709],[131.915605,43.114696],[131.915836,43.114688],[131.915819,43.114605],[131.915613,43.114576],[131.915425,43.114569],[131.915147,43.114569],[131.914631,43.114609],[131.914277,43.114687],[131.913984,43.114796],[131.913903,43.114784],[131.91355,43.114866]]]]}},{"type":"Feature","properties":{"fid":2,"Layer":"11 - фрагменты природного ландшафта","PaperSpace":null,"SubClasses":"AcDbEntity:AcDbPolyline","Linetype":"ByLayer","EntityHandle":"51B","Text":null,"ogr_style":"PEN(c:#000000)","font":null,"angle":null,"size":null,"size_u":null,"anchor":null,"color":"#000000","underline":null,"plaintext":null,"fcolor":null,"flnum":null,"bold":null,"italic":null,"dx":null,"dx_u":null,"dy":null,"dy_u":null},"geometry":{"type":"MultiPolygon","coordinates":[[[[131.875908,43.116117],[131.876357,43.116435],[131.876521,43.116594],[131.8766,43.116579],[131.87671,43.116681],[131.876693,43.11672],[131.877196,43.117149],[131.877349,43.117045],[131.876986,43.116739],[131.876546,43.11639],[131.876308,43.116211],[131.876154,43.116098],[131.87588,43.11591],[131.875441,43.115462],[131.874753,43.114767],[131.874549,43.11456],[131.874327,43.114336],[131.874309,43.114293],[131.874292,43.114191],[131.874311,43.1141],[131.873995,43.114001],[131.873958,43.114034],[131.873923,43.114055],[131.873851,43.114032],[131.873702,43.113937],[131.873608,43.113874],[131.873537,43.113853],[131.873528,43.113866],[131.87365,43.11397],[131.873815,43.114087],[131.874093,43.114279],[131.874208,43.114451],[131.87461,43.114861],[131.87485,43.11511],[131.87526,43.115406],[131.875483,43.115632],[131.875529,43.11574],[131.875742,43.115938],[131.875709,43.115957],[131.875908,43.116117]]]]}},{"type":"Feature","properties":{"fid":3,"Layer":"11 - фрагменты природного ландшафта","PaperSpace":null,"SubClasses":"AcDbEntity:AcDbPolyline","Linetype":"ByLayer","EntityHandle":"51D","Text":null,"ogr_style":"PEN(c:#000000)","font":null,"angle":null,"size":null,"size_u":null,"anchor":null,"color":"#000000","underline":null,"plaintext":null,"fcolor":null,"flnum":null,"bold":null,"italic":null,"dx":null,"dx_u":null,"dy":null,"dy_u":null},"geometry":{"type":"MultiPolygon","coordinates":[[[[131.896442,43.120164],[131.896116,43.120255],[131.896046,43.120407],[131.895795,43.120509],[131.89581,43.12056],[131.895883,43.120801],[131.895707,43.120839],[131.895856,43.121101],[131.895645,43.121449],[131.895547,43.121489],[131.895516,43.12146],[131.895364,43.121516],[131.895307,43.121406],[131.895126,43.121488],[131.895005,43.12153],[131.894701,43.121633],[131.89454,43.12174],[131.894338,43.121899],[131.894379,43.122137],[131.894723,43.12246],[131.895216,43.122818],[131.895522,43.12295],[131.895819,43.123115],[131.89606,43.123171],[131.896194,43.123159],[131.896255,43.123153],[131.896239,43.122992],[131.896317,43.122875],[131.896133,43.1228],[131.896209,43.122671],[131.896513,43.122636],[131.89666,43.122633],[131.896513,43.121914],[131.896496,43.121851],[131.896484,43.121822],[131.896615,43.121335],[131.896895,43.121364],[131.897268,43.12143],[131.897542,43.12148],[131.898274,43.121648],[131.898503,43.121745],[131.898563,43.121821],[131.898642,43.121939],[131.898987,43.122021],[131.899051,43.122061],[131.899205,43.122162],[131.899281,43.122198],[131.899501,43.122397],[131.89958,43.122466],[131.899649,43.122556],[131.899675,43.12259],[131.89972,43.122646],[131.900047,43.122675],[131.900077,43.122689],[131.900174,43.122724],[131.900336,43.122785],[131.900359,43.122806],[131.900573,43.123016],[131.900757,43.122997],[131.900984,43.123347],[131.900981,43.123444],[131.901194,43.123677],[131.901302,43.123717],[131.901326,43.123786],[131.901259,43.123882],[131.901721,43.124034],[131.901759,43.123874],[131.901708,43.123659],[131.901553,43.123256],[131.9013,43.123008],[131.900809,43.122626],[131.900641,43.122515],[131.900603,43.122538],[131.900394,43.122371],[131.900411,43.122359],[131.90021,43.122206],[131.89969,43.121804],[131.898795,43.121289],[131.898395,43.121286],[131.897754,43.121223],[131.897536,43.121148],[131.897064,43.120843],[131.896539,43.120626],[131.896442,43.120164]]]]}},{"type":"Feature","properties":{"fid":4,"Layer":"11 - фрагменты природного ландшафта","PaperSpace":null,"SubClasses":"AcDbEntity:AcDbPolyline","Linetype":"ByLayer","EntityHandle":"51F","Text":null,"ogr_style":"PEN(c:#000000)","font":null,"angle":null,"size":null,"size_u":null,"anchor":null,"color":"#000000","underline":null,"plaintext":null,"fcolor":null,"flnum":null,"bold":null,"italic":null,"dx":null,"dx_u":null,"dy":null,"dy_u":null},"geometry":{"type":"MultiPolygon","coordinates":[[[[131.893649,43.118641],[131.893369,43.118699],[131.893366,43.118933],[131.893278,43.118976],[131.893437,43.119288],[131.893449,43.119495],[131.893391,43.119639],[131.893385,43.119858],[131.893554,43.119836],[131.893911,43.119788],[131.894103,43.119713],[131.894213,43.11968],[131.894532,43.119595],[131.894625,43.119645],[131.894756,43.119702],[131.894964,43.119582],[131.89486,43.119449],[131.894434,43.11937],[131.894216,43.119277],[131.89418,43.119064],[131.894211,43.118903],[131.894436,43.118882],[131.894622,43.118906],[131.894814,43.118922],[131.894827,43.118837],[131.894755,43.118803],[131.894659,43.118623],[131.894645,43.118487],[131.894658,43.11842],[131.894442,43.118398],[131.894462,43.118457],[131.894122,43.118526],[131.893649,43.118641]]]]}},{"type":"Feature","properties":{"fid":5,"Layer":"11 - фрагменты природного ландшафта","PaperSpace":null,"SubClasses":"AcDbEntity:AcDbPolyline","Linetype":"ByLayer","EntityHandle":"521","Text":null,"ogr_style":"PEN(c:#000000)","font":null,"angle":null,"size":null,"size_u":null,"anchor":null,"color":"#000000","underline":null,"plaintext":null,"fcolor":null,"flnum":null,"bold":null,"italic":null,"dx":null,"dx_u":null,"dy":null,"dy_u":null},"geometry":{"type":"MultiPolygon","coordinates":[[[[131.879759,43.115241],[131.879611,43.115307],[131.879695,43.115552],[131.879621,43.115584],[131.879628,43.115651],[131.879863,43.115796],[131.880058,43.115647],[131.880114,43.115638],[131.880166,43.115384],[131.880147,43.115246],[131.880075,43.11524],[131.879759,43.115241]]]]}},{"type":"Feature","properties":{"fid":6,"Layer":"11 - фрагменты природного ландшафта","PaperSpace":null,"SubClasses":"AcDbEntity:AcDbPolyline","Linetype":"ByLayer","EntityHandle":"523","Text":null,"ogr_style":"PEN(c:#000000)","font":null,"angle":null,"size":null,"size_u":null,"anchor":null,"color":"#000000","underline":null,"plaintext":null,"fcolor":null,"flnum":null,"bold":null,"italic":null,"dx":null,"dx_u":null,"dy":null,"dy_u":null},"geometry":{"type":"MultiPolygon","coordinates":[[[[131.916892,43.118895],[131.916917,43.119065],[131.91727,43.119631],[131.917448,43.119757],[131.917393,43.119847],[131.916926,43.119746],[131.916219,43.119279],[131.915714,43.119419],[131.914889,43.119477],[131.9145,43.11933],[131.914131,43.119434],[131.913936,43.119468],[131.913687,43.119498],[131.913623,43.119517],[131.913612,43.119659],[131.913685,43.119712],[131.913826,43.119941],[131.913915,43.120044],[131.91404,43.12015],[131.914302,43.12033],[131.914384,43.120322],[131.914368,43.120297],[131.914347,43.12025],[131.914231,43.119946],[131.914077,43.119724],[131.914454,43.119593],[131.914642,43.11988],[131.914939,43.12013],[131.914987,43.120145],[131.915205,43.119885],[131.916044,43.119875],[131.915866,43.119722],[131.91591,43.119681],[131.916159,43.119562],[131.91635,43.119708],[131.916346,43.119762],[131.916669,43.119962],[131.91715,43.12033],[131.917328,43.120371],[131.918011,43.120351],[131.918084,43.12036],[131.918245,43.120484],[131.918491,43.120688],[131.918742,43.121005],[131.918903,43.121239],[131.918677,43.121414],[131.918184,43.121413],[131.917784,43.121393],[131.917215,43.121318],[131.916847,43.121233],[131.916484,43.120709],[131.916301,43.120697],[131.91633,43.121407],[131.918279,43.122083],[131.918284,43.12216],[131.919087,43.122107],[131.919688,43.121898],[131.919941,43.12165],[131.920104,43.121308],[131.920057,43.12111],[131.920008,43.120988],[131.919779,43.120777],[131.9197,43.120824],[131.919568,43.120705],[131.919628,43.12063],[131.919095,43.119716],[131.918914,43.119739],[131.918654,43.11953],[131.918117,43.119445],[131.917696,43.119359],[131.917376,43.119231],[131.917229,43.119165],[131.917184,43.119098],[131.917156,43.118997],[131.9171,43.118897],[131.916892,43.118895]]]]}},{"type":"Feature","properties":{"fid":7,"Layer":"11 - фрагменты природного ландшафта","PaperSpace":null,"SubClasses":"AcDbEntity:AcDbPolyline","Linetype":"ByLayer","EntityHandle":"525","Text":null,"ogr_style":"PEN(c:#000000)","font":null,"angle":null,"size":null,"size_u":null,"anchor":null,"color":"#000000","underline":null,"plaintext":null,"fcolor":null,"flnum":null,"bold":null,"italic":null,"dx":null,"dx_u":null,"dy":null,"dy_u":null},"geometry":{"type":"MultiPolygon","coordinates":[[[[131.831612,43.074338],[131.831612,43.074284],[131.83144,43.074284],[131.83144,43.074338],[131.831612,43.074338]]]]}},{"type":"Feature","properties":{"fid":8,"Layer":"11 - фрагменты природного ландшафта","PaperSpace":null,"SubClasses":"AcDbEntity:AcDbPolyline","Linetype":"ByLayer","EntityHandle":"527","Text":null,"ogr_style":"PEN(c:#000000)","font":null,"angle":null,"size":null,"size_u":null,"anchor":null,"color":"#000000","underline":null,"plaintext":null,"fcolor":null,"flnum":null,"bold":null,"italic":null,"dx":null,"dx_u":null,"dy":null,"dy_u":null},"geometry":{"type":"MultiPolygon","coordinates":[[[[131.879759,43.115241],[131.879611,43.115307],[131.879695,43.115552],[131.879621,43.115584],[131.879628,43.115651],[131.879863,43.115796],[131.880058,43.115647],[131.880114,43.115638],[131.880166,43.115384],[131.880147,43.115246],[131.880075,43.11524],[131.879759,43.115241]]]]}},{"type":"Feature","properties":{"fid":9,"Layer":"11 - фрагменты природного ландшафта","PaperSpace":null,"SubClasses":"AcDbEntity:AcDbPolyline","Linetype":"ByLayer","EntityHandle":"529","Text":null,"ogr_style":"PEN(c:#000000)","font":null,"angle":null,"size":null,"size_u":null,"anchor":null,"color":"#000000","underline":null,"plaintext":null,"fcolor":null,"flnum":null,"bold":null,"italic":null,"dx":null,"dx_u":null,"dy":null,"dy_u":null},"geometry":{"type":"MultiPolygon","coordinates":[[[[131.875908,43.116117],[131.876357,43.116435],[131.876521,43.116594],[131.8766,43.116579],[131.87671,43.116681],[131.876693,43.11672],[131.877196,43.117149],[131.877349,43.117045],[131.876986,43.116739],[131.876546,43.11639],[131.876308,43.116211],[131.876154,43.116098],[131.87588,43.11591],[131.875441,43.115462],[131.874753,43.114767],[131.874549,43.11456],[131.874327,43.114336],[131.874309,43.114293],[131.874292,43.114191],[131.874311,43.1141],[131.873995,43.114001],[131.873958,43.114034],[131.873923,43.114055],[131.873851,43.114032],[131.873702,43.113937],[131.873608,43.113874],[131.873537,43.113853],[131.873528,43.113866],[131.87365,43.11397],[131.873815,43.114087],[131.874093,43.114279],[131.874208,43.114451],[131.87461,43.114861],[131.87485,43.11511],[131.87526,43.115406],[131.875483,43.115632],[131.875529,43.11574],[131.875742,43.115938],[131.875709,43.115957],[131.875908,43.116117]]]]}},{"type":"Feature","properties":{"fid":10,"Layer":"11 - фрагменты природного ландшафта","PaperSpace":null,"SubClasses":"AcDbEntity:AcDbPolyline","Linetype":"ByLayer","EntityHandle":"52B","Text":null,"ogr_style":"PEN(c:#000000)","font":null,"angle":null,"size":null,"size_u":null,"anchor":null,"color":"#000000","underline":null,"plaintext":null,"fcolor":null,"flnum":null,"bold":null,"italic":null,"dx":null,"dx_u":null,"dy":null,"dy_u":null},"geometry":{"type":"MultiPolygon","coordinates":[[[[131.860875,43.097412],[131.860799,43.097414],[131.860829,43.098289],[131.860653,43.098515],[131.860897,43.09929],[131.861074,43.099453],[131.861482,43.099973],[131.86154,43.100143],[131.861385,43.100232],[131.861514,43.100478],[131.86182,43.100372],[131.861872,43.10009],[131.861806,43.099968],[131.861762,43.099888],[131.861483,43.099524],[131.861332,43.099392],[131.861103,43.099166],[131.86105,43.099076],[131.860968,43.0989],[131.860951,43.098687],[131.860974,43.098514],[131.861024,43.098443],[131.861037,43.098281],[131.860979,43.098121],[131.860953,43.098092],[131.860875,43.097412]]]]}},{"type":"Feature","properties":{"fid":11,"Layer":"11 - фрагменты природного ландшафта","PaperSpace":null,"SubClasses":"AcDbEntity:AcDbPolyline","Linetype":"ByLayer","EntityHandle":"52D","Text":null,"ogr_style":"PEN(c:#000000)","font":null,"angle":null,"size":null,"size_u":null,"anchor":null,"color":"#000000","underline":null,"plaintext":null,"fcolor":null,"flnum":null,"bold":null,"italic":null,"dx":null,"dx_u":null,"dy":null,"dy_u":null},"geometry":{"type":"MultiPolygon","coordinates":[[[[131.862887,43.10149],[131.862608,43.101577],[131.862637,43.101718],[131.862688,43.102077],[131.862668,43.102189],[131.862472,43.102508],[131.862205,43.102895],[131.862122,43.102971],[131.86221,43.102979],[131.862424,43.102773],[131.862612,43.102573],[131.862744,43.102408],[131.86285,43.102151],[131.862941,43.101911],[131.862981,43.101792],[131.862967,43.10173],[131.862936,43.101631],[131.862887,43.10149]]]]}},{"type":"Feature","properties":{"fid":12,"Layer":"11 - фрагменты природного ландшафта","PaperSpace":null,"SubClasses":"AcDbEntity:AcDbPolyline","Linetype":"ByLayer","EntityHandle":"52F","Text":null,"ogr_style":"PEN(c:#000000)","font":null,"angle":null,"size":null,"size_u":null,"anchor":null,"color":"#000000","underline":null,"plaintext":null,"fcolor":null,"flnum":null,"bold":null,"italic":null,"dx":null,"dx_u":null,"dy":null,"dy_u":null},"geometry":{"type":"MultiPolygon","coordinates":[[[[131.866754,43.09377],[131.865013,43.093914],[131.865,43.093932],[131.865001,43.094187],[131.865181,43.094284],[131.865448,43.09445],[131.865683,43.094669],[131.865587,43.094728],[131.86569,43.094792],[131.865809,43.094881],[131.865854,43.094933],[131.865914,43.094958],[131.866018,43.094911],[131.86609,43.094854],[131.866153,43.094893],[131.866357,43.094565],[131.866465,43.09423],[131.866649,43.094029],[131.866832,43.093796],[131.866754,43.09377]]]]}},{"type":"Feature","properties":{"fid":13,"Layer":"11 - фрагменты природного ландшафта","PaperSpace":null,"SubClasses":"AcDbEntity:AcDbPolyline","Linetype":"ByLayer","EntityHandle":"531","Text":null,"ogr_style":"PEN(c:#000000)","font":null,"angle":null,"size":null,"size_u":null,"anchor":null,"color":"#000000","underline":null,"plaintext":null,"fcolor":null,"flnum":null,"bold":null,"italic":null,"dx":null,"dx_u":null,"dy":null,"dy_u":null},"geometry":{"type":"MultiPolygon","coordinates":[[[[131.868438,43.095346],[131.868488,43.095347],[131.868705,43.095299],[131.868775,43.0953],[131.868844,43.095303],[131.868914,43.095308],[131.868984,43.095315],[131.869084,43.095339],[131.86914,43.095365],[131.86939,43.095461],[131.869437,43.095468],[131.869484,43.095477],[131.869529,43.095489],[131.869573,43.095503],[131.86959,43.09552],[131.869604,43.095537],[131.869615,43.095556],[131.869622,43.095576],[131.869634,43.095612],[131.869649,43.095647],[131.86965,43.09566],[131.86966,43.095672],[131.869675,43.095678],[131.869693,43.095678],[131.869784,43.095683],[131.869622,43.095809],[131.869688,43.095813],[131.869763,43.095982],[131.8698,43.096081],[131.869912,43.096231],[131.87,43.096282],[131.869979,43.096366],[131.869819,43.096443],[131.86897,43.096862],[131.868428,43.097022],[131.867938,43.097064],[131.86793,43.097135],[131.868495,43.097141],[131.868506,43.097174],[131.868628,43.097159],[131.869113,43.096989],[131.869778,43.096638],[131.870468,43.096267],[131.870508,43.096221],[131.870545,43.096175],[131.87058,43.096127],[131.870612,43.096078],[131.870641,43.096028],[131.870667,43.095978],[131.87069,43.095926],[131.87071,43.095874],[131.870774,43.095631],[131.870778,43.09559],[131.870779,43.095549],[131.870777,43.095508],[131.870772,43.095467],[131.870765,43.095426],[131.870754,43.095385],[131.870741,43.095345],[131.870726,43.095306],[131.870558,43.095141],[131.870323,43.094952],[131.8698,43.094601],[131.869057,43.094084],[131.868962,43.094258],[131.868982,43.094417],[131.868868,43.094541],[131.868758,43.094749],[131.868714,43.094794],[131.868679,43.094805],[131.868512,43.094792],[131.868333,43.094806],[131.868281,43.094824],[131.868438,43.095346]]]]}},{"type":"Feature","properties":{"fid":14,"Layer":"11 - фрагменты природного ландшафта","PaperSpace":null,"SubClasses":"AcDbEntity:AcDbPolyline","Linetype":"ByLayer","EntityHandle":"533","Text":null,"ogr_style":"PEN(c:#000000)","font":null,"angle":null,"size":null,"size_u":null,"anchor":null,"color":"#000000","underline":null,"plaintext":null,"fcolor":null,"flnum":null,"bold":null,"italic":null,"dx":null,"dx_u":null,"dy":null,"dy_u":null},"geometry":{"type":"MultiPolygon","coordinates":[[[[131.857247,43.091263],[131.857078,43.091115],[131.857011,43.091128],[131.856455,43.091254],[131.856263,43.091426],[131.856241,43.091638],[131.856534,43.091856],[131.856446,43.09193],[131.856212,43.091788],[131.856078,43.091762],[131.856023,43.091851],[131.856075,43.091926],[131.856223,43.091993],[131.856217,43.092546],[131.856215,43.092884],[131.856159,43.093164],[131.85604,43.093412],[131.855946,43.093787],[131.856144,43.094251],[131.856589,43.094501],[131.857293,43.09477],[131.858264,43.09507],[131.858457,43.095111],[131.858453,43.095039],[131.857923,43.094836],[131.85765,43.094713],[131.857266,43.094586],[131.856921,43.094506],[131.856432,43.094132],[131.856436,43.094089],[131.856273,43.093961],[131.856239,43.09392],[131.856248,43.093844],[131.85626,43.093809],[131.856254,43.09374],[131.856271,43.093733],[131.856525,43.09355],[131.85652,43.093511],[131.856525,43.093328],[131.856534,43.093098],[131.856686,43.092841],[131.856693,43.092681],[131.856689,43.092538],[131.85674,43.092522],[131.85666,43.091991],[131.856654,43.091917],[131.856673,43.091876],[131.857113,43.09139],[131.857247,43.091263]]]]}},{"type":"Feature","properties":{"fid":15,"Layer":"11 - фрагменты природного ландшафта","PaperSpace":null,"SubClasses":"AcDbEntity:AcDbPolyline","Linetype":"ByLayer","EntityHandle":"535","Text":null,"ogr_style":"PEN(c:#000000)","font":null,"angle":null,"size":null,"size_u":null,"anchor":null,"color":"#000000","underline":null,"plaintext":null,"fcolor":null,"flnum":null,"bold":null,"italic":null,"dx":null,"dx_u":null,"dy":null,"dy_u":null},"geometry":{"type":"MultiPolygon","coordinates":[[[[131.857883,43.084473],[131.858096,43.084715],[131.858152,43.084789],[131.858508,43.085243],[131.858746,43.085558],[131.859042,43.085802],[131.859104,43.085843],[131.859339,43.085745],[131.859143,43.085593],[131.858659,43.08511],[131.858433,43.084729],[131.858494,43.084642],[131.858415,43.084546],[131.858303,43.08441],[131.858235,43.084226],[131.858059,43.084402],[131.857883,43.084473]]]]}},{"type":"Feature","properties":{"fid":16,"Layer":"11 - фрагменты природного ландшафта","PaperSpace":null,"SubClasses":"AcDbEntity:AcDbPolyline","Linetype":"ByLayer","EntityHandle":"537","Text":null,"ogr_style":"PEN(c:#000000)","font":null,"angle":null,"size":null,"size_u":null,"anchor":null,"color":"#000000","underline":null,"plaintext":null,"fcolor":null,"flnum":null,"bold":null,"italic":null,"dx":null,"dx_u":null,"dy":null,"dy_u":null},"geometry":{"type":"MultiPolygon","coordinates":[[[[131.849379,43.079759],[131.849076,43.079647],[131.848678,43.079547],[131.848257,43.079561],[131.847282,43.079889],[131.846975,43.080036],[131.846263,43.080312],[131.846436,43.080571],[131.847222,43.080473],[131.848153,43.080066],[131.848679,43.079963],[131.849083,43.080142],[131.849309,43.080339],[131.849548,43.080238],[131.849962,43.080385],[131.849988,43.080375],[131.850213,43.080337],[131.850323,43.080396],[131.851624,43.080646],[131.851713,43.080632],[131.851879,43.080634],[131.851997,43.080623],[131.85232,43.080627],[131.852809,43.08085],[131.852952,43.081003],[131.853223,43.081009],[131.853537,43.081147],[131.853736,43.081471],[131.853486,43.081553],[131.85347,43.081704],[131.853541,43.081768],[131.85406,43.081746],[131.854291,43.081778],[131.85428,43.082059],[131.854649,43.082135],[131.854826,43.081925],[131.854861,43.081717],[131.854889,43.081495],[131.854758,43.081168],[131.854415,43.080741],[131.854033,43.080704],[131.85362,43.080501],[131.852827,43.080417],[131.852175,43.080265],[131.851222,43.080201],[131.85105,43.080167],[131.850713,43.08012],[131.850369,43.080113],[131.850196,43.080105],[131.850048,43.080002],[131.849379,43.079759]]]]}},{"type":"Feature","properties":{"fid":17,"Layer":"11 - фрагменты природного ландшафта","PaperSpace":null,"SubClasses":"AcDbEntity:AcDbPolyline","Linetype":"ByLayer","EntityHandle":"539","Text":null,"ogr_style":"PEN(c:#000000)","font":null,"angle":null,"size":null,"size_u":null,"anchor":null,"color":"#000000","underline":null,"plaintext":null,"fcolor":null,"flnum":null,"bold":null,"italic":null,"dx":null,"dx_u":null,"dy":null,"dy_u":null},"geometry":{"type":"MultiPolygon","coordinates":[[[[131.842423,43.07971],[131.843202,43.079933],[131.843351,43.079932],[131.843527,43.079981],[131.843637,43.080022],[131.844364,43.080416],[131.844648,43.080528],[131.844752,43.080544],[131.844915,43.08054],[131.845355,43.080456],[131.846189,43.080217],[131.846143,43.080096],[131.845618,43.080161],[131.845555,43.080185],[131.845147,43.080265],[131.845059,43.08026],[131.844923,43.080241],[131.844775,43.080213],[131.844646,43.080185],[131.844636,43.080208],[131.844475,43.080171],[131.844407,43.080139],[131.844174,43.080024],[131.843752,43.079836],[131.843727,43.079824],[131.843261,43.079618],[131.843216,43.079641],[131.843027,43.079538],[131.842777,43.079508],[131.842515,43.079568],[131.842423,43.07971]]]]}},{"type":"Feature","properties":{"fid":18,"Layer":"11 - фрагменты природного ландшафта","PaperSpace":null,"SubClasses":"AcDbEntity:AcDbPolyline","Linetype":"ByLayer","EntityHandle":"53B","Text":null,"ogr_style":"PEN(c:#000000)","font":null,"angle":null,"size":null,"size_u":null,"anchor":null,"color":"#000000","underline":null,"plaintext":null,"fcolor":null,"flnum":null,"bold":null,"italic":null,"dx":null,"dx_u":null,"dy":null,"dy_u":null},"geometry":{"type":"MultiPolygon","coordinates":[[[[131.842949,43.080508],[131.842806,43.080229],[131.842321,43.080232],[131.842096,43.080291],[131.84213,43.080359],[131.842312,43.08067],[131.842519,43.080972],[131.84275,43.081264],[131.843005,43.081546],[131.843283,43.081816],[131.843582,43.082074],[131.844017,43.082399],[131.844677,43.082837],[131.844698,43.082976],[131.846783,43.084226],[131.847515,43.085449],[131.847595,43.085704],[131.847584,43.085799],[131.847575,43.085901],[131.847652,43.085958],[131.847667,43.086021],[131.847764,43.086274],[131.847895,43.08652],[131.848059,43.086755],[131.848253,43.086975],[131.848476,43.087181],[131.848726,43.08737],[131.849021,43.087533],[131.849438,43.087715],[131.849796,43.0878],[131.850511,43.087886],[131.850784,43.087883],[131.850785,43.0874],[131.850628,43.087043],[131.849726,43.087172],[131.849235,43.086997],[131.848994,43.086788],[131.849028,43.086515],[131.848866,43.086449],[131.849114,43.085795],[131.848795,43.08513],[131.848902,43.084275],[131.848803,43.083515],[131.848321,43.083171],[131.847647,43.082726],[131.846011,43.0826],[131.845435,43.082628],[131.845096,43.082621],[131.844874,43.082531],[131.844635,43.08219],[131.844128,43.08191],[131.844087,43.081696],[131.843302,43.081422],[131.843203,43.081248],[131.843275,43.081026],[131.84343,43.080907],[131.842949,43.080508]]]]}},{"type":"Feature","properties":{"fid":19,"Layer":"11 - фрагменты природного ландшафта","PaperSpace":null,"SubClasses":"AcDbEntity:AcDbPolyline","Linetype":"ByLayer","EntityHandle":"53D","Text":null,"ogr_style":"PEN(c:#000000)","font":null,"angle":null,"size":null,"size_u":null,"anchor":null,"color":"#000000","underline":null,"plaintext":null,"fcolor":null,"flnum":null,"bold":null,"italic":null,"dx":null,"dx_u":null,"dy":null,"dy_u":null},"geometry":{"type":"MultiPolygon","coordinates":[[[[131.831637,43.076648],[131.831637,43.076612],[131.831465,43.076612],[131.831465,43.076648],[131.831637,43.076648]]]]}},{"type":"Feature","properties":{"fid":20,"Layer":"11 - фрагменты природного ландшафта","PaperSpace":null,"SubClasses":"AcDbEntity:AcDbPolyline","Linetype":"ByLayer","EntityHandle":"53F","Text":null,"ogr_style":"PEN(c:#000000)","font":null,"angle":null,"size":null,"size_u":null,"anchor":null,"color":"#000000","underline":null,"plaintext":null,"fcolor":null,"flnum":null,"bold":null,"italic":null,"dx":null,"dx_u":null,"dy":null,"dy_u":null},"geometry":{"type":"MultiPolygon","coordinates":[[[[131.86807,43.105188],[131.869943,43.105911],[131.870113,43.105667],[131.870134,43.105635],[131.869996,43.105593],[131.869771,43.105542],[131.869665,43.105512],[131.869614,43.10551],[131.869596,43.105498],[131.869633,43.105468],[131.869328,43.105376],[131.869262,43.105372],[131.869104,43.105312],[131.868883,43.10529],[131.868788,43.105239],[131.868707,43.105179],[131.868058,43.104972],[131.86807,43.105188]]]]}}]}