{"type":"FeatureCollection","name":"15_historical_plan","crs":{"type":"name","properties":{"name":"urn:ogc:def:crs:OGC:1.3:CRS84"}},"features":[{"type":"Feature","properties":{"fid":1,"Layer":"15 - историческая планировочная структура","PaperSpace":null,"SubClasses":"AcDbEntity:AcDbPolyline","Linetype":"ByLayer","EntityHandle":"66B","Text":null,"ogr_style":"PEN(c:#000000)","font":null,"angle":null,"size":null,"size_u":null,"anchor":null,"color":"#000000","underline":null,"plaintext":null,"fcolor":null,"flnum":null,"bold":null,"italic":null,"dx":null,"dx_u":null,"dy":null,"dy_u":null},"geometry":{"type":"LineString","coordinates":[[131.868456,43.102279],[131.86837,43.102222],[131.866886,43.101152],[131.866312,43.100777],[131.865132,43.100004],[131.864553,43.099675],[131.863902,43.099359],[131.863281,43.098967]]}},{"type":"Feature","properties":{"fid":2,"Layer":"15 - историческая планировочная структура","PaperSpace":null,"SubClasses":"AcDbEntity:AcDbPolyline","Linetype":"ByLayer","EntityHandle":"66C","Text":null,"ogr_style":"PEN(c:#000000)","font":null,"angle":null,"size":null,"size_u":null,"anchor":null,"color":"#000000","underline":null,"plaintext":null,"fcolor":null,"flnum":null,"bold":null,"italic":null,"dx":null,"dx_u":null,"dy":null,"dy_u":null},"geometry":{"type":"LineString","coordinates":[[131.863086,43.09363],[131.863228,43.093555],[131.863392,43.093487],[131.863452,43.093465],[131.863518,43.093457],[131.864442,43.093438],[131.864785,43.093433],[131.86489,43.093406],[131.864993,43.093377],[131.865208,43.093359],[131.865368,43.093359],[131.865537,43.093386],[131.865729,43.093413],[131.865883,43.093423],[131.866377,43.093419],[131.866485,43.093425],[131.866573,43.09345]]}},{"type":"Feature","properties":{"fid":3,"Layer":"15 - историческая планировочная структура","PaperSpace":null,"SubClasses":"AcDbEntity:AcDbPolyline","Linetype":"ByLayer","EntityHandle":"66D","Text":null,"ogr_style":"PEN(c:#000000)","font":null,"angle":null,"size":null,"size_u":null,"anchor":null,"color":"#000000","underline":null,"plaintext":null,"fcolor":null,"flnum":null,"bold":null,"italic":null,"dx":null,"dx_u":null,"dy":null,"dy_u":null},"geometry":{"type":"LineString","coordinates":[[131.880927,43.116661],[131.880532,43.115286],[131.88035,43.114729],[131.879988,43.113728],[131.879376,43.112221],[131.878846,43.110721],[131.878584,43.110021],[131.878286,43.109223],[131.877918,43.108286],[131.877258,43.107964],[131.876915,43.107803],[131.87658,43.107559],[131.876103,43.107209],[131.876006,43.107088],[131.875747,43.106533],[131.875589,43.106342],[131.875203,43.106053],[131.874751,43.105797],[131.874436,43.105647],[131.874084,43.105505],[131.87404,43.105492],[131.874016,43.10548],[131.874003,43.105461],[131.873996,43.105417]]}},{"type":"Feature","properties":{"fid":4,"Layer":"15 - историческая планировочная структура","PaperSpace":null,"SubClasses":"AcDbEntity:AcDbPolyline","Linetype":"ByLayer","EntityHandle":"66E","Text":null,"ogr_style":"PEN(c:#000000)","font":null,"angle":null,"size":null,"size_u":null,"anchor":null,"color":"#000000","underline":null,"plaintext":null,"fcolor":null,"flnum":null,"bold":null,"italic":null,"dx":null,"dx_u":null,"dy":null,"dy_u":null},"geometry":{"type":"LineString","coordinates":[[131.880696,43.111013],[131.880427,43.110026],[131.880123,43.108822],[131.880022,43.108645],[131.878095,43.10707],[131.87792,43.106966],[131.877741,43.106865],[131.87756,43.106767],[131.877375,43.106672],[131.877063,43.106493],[131.876701,43.106243],[131.876477,43.106112],[131.875925,43.105859],[131.874816,43.105503],[131.874455,43.105368],[131.874122,43.105351],[131.873881,43.105375],[131.873634,43.105373],[131.873196,43.105197],[131.871777,43.104546],[131.871574,43.104426],[131.870322,43.103551],[131.870076,43.103375],[131.869462,43.102948],[131.868456,43.102279]]}},{"type":"Feature","properties":{"fid":5,"Layer":"15 - историческая планировочная структура","PaperSpace":null,"SubClasses":"AcDbEntity:AcDbPolyline","Linetype":"ByLayer","EntityHandle":"66F","Text":null,"ogr_style":"PEN(c:#000000)","font":null,"angle":null,"size":null,"size_u":null,"anchor":null,"color":"#000000","underline":null,"plaintext":null,"fcolor":null,"flnum":null,"bold":null,"italic":null,"dx":null,"dx_u":null,"dy":null,"dy_u":null},"geometry":{"type":"LineString","coordinates":[[131.863281,43.098967],[131.862688,43.098495],[131.861796,43.097732],[131.861087,43.097086]]}},{"type":"Feature","properties":{"fid":6,"Layer":"15 - историческая планировочная структура","PaperSpace":null,"SubClasses":"AcDbEntity:AcDbPolyline","Linetype":"ByLayer","EntityHandle":"670","Text":null,"ogr_style":"PEN(c:#000000)","font":null,"angle":null,"size":null,"size_u":null,"anchor":null,"color":"#000000","underline":null,"plaintext":null,"fcolor":null,"flnum":null,"bold":null,"italic":null,"dx":null,"dx_u":null,"dy":null,"dy_u":null},"geometry":{"type":"LineString","coordinates":[[131.863455,43.094243],[131.863322,43.09411],[131.863289,43.094065],[131.863276,43.094012],[131.863265,43.093924],[131.863069,43.093698],[131.862367,43.093074],[131.861654,43.092407],[131.861516,43.092231],[131.860755,43.090657],[131.860663,43.090504],[131.860236,43.090017],[131.859728,43.089453],[131.859316,43.088963],[131.858948,43.088471],[131.858692,43.088074],[131.858594,43.087919],[131.858571,43.087766],[131.858558,43.087417],[131.85857,43.086907],[131.858519,43.086712],[131.85841,43.086499],[131.85813,43.086132],[131.857476,43.085317],[131.857298,43.085157],[131.85712,43.085071],[131.856909,43.085049],[131.855524,43.085066],[131.855117,43.085058],[131.854541,43.085041],[131.854253,43.085008],[131.853999,43.084947],[131.853736,43.084826],[131.853505,43.084663],[131.853211,43.084366],[131.852973,43.084125],[131.852785,43.08382],[131.852618,43.083529],[131.852448,43.083127],[131.852357,43.08293],[131.852253,43.082636],[131.852058,43.082228],[131.85186,43.08204],[131.851794,43.082013]]}},{"type":"Feature","properties":{"fid":7,"Layer":"15 - историческая планировочная структура","PaperSpace":null,"SubClasses":"AcDbEntity:AcDbPolyline","Linetype":"ByLayer","EntityHandle":"671","Text":null,"ogr_style":"PEN(c:#000000)","font":null,"angle":null,"size":null,"size_u":null,"anchor":null,"color":"#000000","underline":null,"plaintext":null,"fcolor":null,"flnum":null,"bold":null,"italic":null,"dx":null,"dx_u":null,"dy":null,"dy_u":null},"geometry":{"type":"LineString","coordinates":[[131.849928,43.081288],[131.849755,43.081132],[131.849314,43.08065],[131.849273,43.080618],[131.849093,43.080455],[131.848937,43.080293],[131.848803,43.080198],[131.84874,43.080185],[131.848676,43.080187],[131.848584,43.080206],[131.848499,43.080241],[131.848274,43.080347],[131.847939,43.080515],[131.847773,43.080593],[131.847608,43.080662],[131.847306,43.080764],[131.847059,43.080815],[131.846814,43.080832],[131.846281,43.080869],[131.845657,43.080924],[131.845527,43.080931],[131.845402,43.080913],[131.845177,43.080872],[131.845075,43.080849],[131.844935,43.080781],[131.844657,43.080609],[131.844269,43.080424],[131.843833,43.080205],[131.843545,43.080086],[131.843188,43.07999],[131.842751,43.079865],[131.842384,43.07978],[131.842181,43.079751],[131.84202,43.079685],[131.841884,43.079619],[131.841737,43.079526],[131.841622,43.079428],[131.841577,43.079342]]}},{"type":"Feature","properties":{"fid":8,"Layer":"15 - историческая планировочная структура","PaperSpace":null,"SubClasses":"AcDbEntity:AcDbPolyline","Linetype":"ByLayer","EntityHandle":"672","Text":null,"ogr_style":"PEN(c:#000000)","font":null,"angle":null,"size":null,"size_u":null,"anchor":null,"color":"#000000","underline":null,"plaintext":null,"fcolor":null,"flnum":null,"bold":null,"italic":null,"dx":null,"dx_u":null,"dy":null,"dy_u":null},"geometry":{"type":"LineString","coordinates":[[131.879468,43.112258],[131.880894,43.111995]]}},{"type":"Feature","properties":{"fid":9,"Layer":"15 - историческая планировочная структура","PaperSpace":null,"SubClasses":"AcDbEntity:AcDbPolyline","Linetype":"ByLayer","EntityHandle":"673","Text":null,"ogr_style":"PEN(c:#000000)","font":null,"angle":null,"size":null,"size_u":null,"anchor":null,"color":"#000000","underline":null,"plaintext":null,"fcolor":null,"flnum":null,"bold":null,"italic":null,"dx":null,"dx_u":null,"dy":null,"dy_u":null},"geometry":{"type":"LineString","coordinates":[[131.877185,43.110418],[131.878026,43.110275],[131.878552,43.110225],[131.878583,43.110219]]}},{"type":"Feature","properties":{"fid":10,"Layer":"15 - историческая планировочная структура","PaperSpace":null,"SubClasses":"AcDbEntity:AcDbPolyline","Linetype":"ByLayer","EntityHandle":"674","Text":null,"ogr_style":"PEN(c:#000000)","font":null,"angle":null,"size":null,"size_u":null,"anchor":null,"color":"#000000","underline":null,"plaintext":null,"fcolor":null,"flnum":null,"bold":null,"italic":null,"dx":null,"dx_u":null,"dy":null,"dy_u":null},"geometry":{"type":"LineString","coordinates":[[131.8755,43.111628],[131.876696,43.112352],[131.877085,43.112609],[131.877096,43.112643]]}},{"type":"Feature","properties":{"fid":11,"Layer":"15 - историческая планировочная структура","PaperSpace":null,"SubClasses":"AcDbEntity:AcDbPolyline","Linetype":"ByLayer","EntityHandle":"675","Text":null,"ogr_style":"PEN(c:#000000)","font":null,"angle":null,"size":null,"size_u":null,"anchor":null,"color":"#000000","underline":null,"plaintext":null,"fcolor":null,"flnum":null,"bold":null,"italic":null,"dx":null,"dx_u":null,"dy":null,"dy_u":null},"geometry":{"type":"LineString","coordinates":[[131.8824,43.116429],[131.87944,43.116987]]}},{"type":"Feature","properties":{"fid":12,"Layer":"15 - историческая планировочная структура","PaperSpace":null,"SubClasses":"AcDbEntity:AcDbPolyline","Linetype":"ByLayer","EntityHandle":"676","Text":null,"ogr_style":"PEN(c:#000000)","font":null,"angle":null,"size":null,"size_u":null,"anchor":null,"color":"#000000","underline":null,"plaintext":null,"fcolor":null,"flnum":null,"bold":null,"italic":null,"dx":null,"dx_u":null,"dy":null,"dy_u":null},"geometry":{"type":"LineString","coordinates":[[131.879309,43.117011],[131.877982,43.117262],[131.87795,43.117262],[131.877919,43.11726],[131.877888,43.117256],[131.877858,43.117249],[131.877829,43.117241],[131.877801,43.11723],[131.877775,43.117217],[131.877751,43.117202],[131.877095,43.116669],[131.875612,43.115468],[131.875241,43.11507],[131.874831,43.114651],[131.874683,43.114508],[131.874542,43.114336],[131.874487,43.114262],[131.874465,43.114185],[131.874467,43.114079],[131.874527,43.113903],[131.874688,43.113566],[131.875012,43.112945]]}},{"type":"Feature","properties":{"fid":13,"Layer":"15 - историческая планировочная структура","PaperSpace":null,"SubClasses":"AcDbEntity:AcDbPolyline","Linetype":"ByLayer","EntityHandle":"677","Text":null,"ogr_style":"PEN(c:#000000)","font":null,"angle":null,"size":null,"size_u":null,"anchor":null,"color":"#000000","underline":null,"plaintext":null,"fcolor":null,"flnum":null,"bold":null,"italic":null,"dx":null,"dx_u":null,"dy":null,"dy_u":null},"geometry":{"type":"LineString","coordinates":[[131.877848,43.112506],[131.87751,43.111492],[131.876995,43.110025],[131.876872,43.109709],[131.876733,43.109281],[131.876519,43.108665],[131.876286,43.108017],[131.876054,43.107416],[131.876029,43.107314],[131.876085,43.107271]]}},{"type":"Feature","properties":{"fid":14,"Layer":"15 - историческая планировочная структура","PaperSpace":null,"SubClasses":"AcDbEntity:AcDbPolyline","Linetype":"ByLayer","EntityHandle":"678","Text":null,"ogr_style":"PEN(c:#000000)","font":null,"angle":null,"size":null,"size_u":null,"anchor":null,"color":"#000000","underline":null,"plaintext":null,"fcolor":null,"flnum":null,"bold":null,"italic":null,"dx":null,"dx_u":null,"dy":null,"dy_u":null},"geometry":{"type":"LineString","coordinates":[[131.863285,43.098965],[131.864332,43.099909],[131.86494,43.10047],[131.865778,43.101226],[131.866388,43.101692],[131.867718,43.102094]]}},{"type":"Feature","properties":{"fid":15,"Layer":"15 - историческая планировочная структура","PaperSpace":null,"SubClasses":"AcDbEntity:AcDbPolyline","Linetype":"ByLayer","EntityHandle":"679","Text":null,"ogr_style":"PEN(c:#000000)","font":null,"angle":null,"size":null,"size_u":null,"anchor":null,"color":"#000000","underline":null,"plaintext":null,"fcolor":null,"flnum":null,"bold":null,"italic":null,"dx":null,"dx_u":null,"dy":null,"dy_u":null},"geometry":{"type":"LineString","coordinates":[[131.867722,43.102082],[131.868094,43.102182],[131.868435,43.10228]]}},{"type":"Feature","properties":{"fid":16,"Layer":"15 - историческая планировочная структура","PaperSpace":null,"SubClasses":"AcDbEntity:AcDbPolyline","Linetype":"ByLayer","EntityHandle":"67A","Text":null,"ogr_style":"PEN(c:#000000)","font":null,"angle":null,"size":null,"size_u":null,"anchor":null,"color":"#000000","underline":null,"plaintext":null,"fcolor":null,"flnum":null,"bold":null,"italic":null,"dx":null,"dx_u":null,"dy":null,"dy_u":null},"geometry":{"type":"LineString","coordinates":[[131.862069,43.100186],[131.861602,43.099564],[131.861381,43.099272],[131.861282,43.099165],[131.861246,43.099098],[131.86118,43.098951],[131.861156,43.098847],[131.861121,43.098502],[131.860978,43.09743],[131.860944,43.097201],[131.861048,43.097134]]}},{"type":"Feature","properties":{"fid":17,"Layer":"15 - историческая планировочная структура","PaperSpace":null,"SubClasses":"AcDbEntity:AcDbPolyline","Linetype":"ByLayer","EntityHandle":"67B","Text":null,"ogr_style":"PEN(c:#000000)","font":null,"angle":null,"size":null,"size_u":null,"anchor":null,"color":"#000000","underline":null,"plaintext":null,"fcolor":null,"flnum":null,"bold":null,"italic":null,"dx":null,"dx_u":null,"dy":null,"dy_u":null},"geometry":{"type":"LineString","coordinates":[[131.86349,43.094226],[131.864352,43.094919],[131.86493,43.095409],[131.865142,43.095574]]}},{"type":"Feature","properties":{"fid":18,"Layer":"15 - историческая планировочная структура","PaperSpace":null,"SubClasses":"AcDbEntity:AcDbPolyline","Linetype":"ByLayer","EntityHandle":"67C","Text":null,"ogr_style":"PEN(c:#000000)","font":null,"angle":null,"size":null,"size_u":null,"anchor":null,"color":"#000000","underline":null,"plaintext":null,"fcolor":null,"flnum":null,"bold":null,"italic":null,"dx":null,"dx_u":null,"dy":null,"dy_u":null},"geometry":{"type":"LineString","coordinates":[[131.879359,43.116956],[131.879066,43.116023],[131.878976,43.115934],[131.877966,43.11532],[131.8773,43.114975],[131.876898,43.114773],[131.876355,43.114437],[131.875428,43.113473],[131.875129,43.11318],[131.87505,43.113106],[131.875001,43.113092]]}},{"type":"Feature","properties":{"fid":19,"Layer":"15 - историческая планировочная структура","PaperSpace":null,"SubClasses":"AcDbEntity:AcDbPolyline","Linetype":"ByLayer","EntityHandle":"67D","Text":null,"ogr_style":"PEN(c:#000000)","font":null,"angle":null,"size":null,"size_u":null,"anchor":null,"color":"#000000","underline":null,"plaintext":null,"fcolor":null,"flnum":null,"bold":null,"italic":null,"dx":null,"dx_u":null,"dy":null,"dy_u":null},"geometry":{"type":"LineString","coordinates":[[131.875015,43.112948],[131.875026,43.11292],[131.87504,43.112892],[131.875059,43.112865],[131.875081,43.11284],[131.875106,43.112817],[131.875135,43.112796],[131.875166,43.112777],[131.8752,43.112761],[131.875235,43.112747],[131.875273,43.112736],[131.875312,43.112728],[131.875352,43.112722],[131.875392,43.11272],[131.875433,43.112721],[131.875473,43.112725],[131.875512,43.112732],[131.876139,43.11287],[131.879326,43.112283]]}},{"type":"Feature","properties":{"fid":20,"Layer":"15 - историческая планировочная структура","PaperSpace":null,"SubClasses":"AcDbEntity:AcDbPolyline","Linetype":"ByLayer","EntityHandle":"67E","Text":null,"ogr_style":"PEN(c:#000000)","font":null,"angle":null,"size":null,"size_u":null,"anchor":null,"color":"#000000","underline":null,"plaintext":null,"fcolor":null,"flnum":null,"bold":null,"italic":null,"dx":null,"dx_u":null,"dy":null,"dy_u":null},"geometry":{"type":"LineString","coordinates":[[131.896139,43.125783],[131.894029,43.124934],[131.89205,43.124176],[131.891308,43.12398],[131.890823,43.123928],[131.890553,43.123931],[131.888212,43.124319],[131.887438,43.124371],[131.885639,43.124072],[131.885207,43.123872],[131.88505,43.123711],[131.884302,43.12153],[131.883342,43.11885],[131.882787,43.117303],[131.88206,43.115265],[131.881273,43.112921],[131.880966,43.112002],[131.880696,43.111013]]}},{"type":"Feature","properties":{"fid":21,"Layer":"15 - историческая планировочная структура","PaperSpace":null,"SubClasses":"AcDbEntity:AcDbPolyline","Linetype":"ByLayer","EntityHandle":"67F","Text":null,"ogr_style":"PEN(c:#000000)","font":null,"angle":null,"size":null,"size_u":null,"anchor":null,"color":"#000000","underline":null,"plaintext":null,"fcolor":null,"flnum":null,"bold":null,"italic":null,"dx":null,"dx_u":null,"dy":null,"dy_u":null},"geometry":{"type":"LineString","coordinates":[[131.851794,43.082013],[131.851497,43.081892],[131.850165,43.081423],[131.849944,43.081302],[131.849928,43.081288]]}},{"type":"Feature","properties":{"fid":22,"Layer":"15 - историческая планировочная структура","PaperSpace":null,"SubClasses":"AcDbEntity:AcDbPolyline","Linetype":"ByLayer","EntityHandle":"680","Text":null,"ogr_style":"PEN(c:#000000)","font":null,"angle":null,"size":null,"size_u":null,"anchor":null,"color":"#000000","underline":null,"plaintext":null,"fcolor":null,"flnum":null,"bold":null,"italic":null,"dx":null,"dx_u":null,"dy":null,"dy_u":null},"geometry":{"type":"LineString","coordinates":[[131.875937,43.110667],[131.876586,43.11056],[131.877098,43.110464]]}},{"type":"Feature","properties":{"fid":23,"Layer":"15 - историческая планировочная структура","PaperSpace":null,"SubClasses":"AcDbEntity:AcDbPolyline","Linetype":"ByLayer","EntityHandle":"681","Text":null,"ogr_style":"PEN(c:#000000)","font":null,"angle":null,"size":null,"size_u":null,"anchor":null,"color":"#000000","underline":null,"plaintext":null,"fcolor":null,"flnum":null,"bold":null,"italic":null,"dx":null,"dx_u":null,"dy":null,"dy_u":null},"geometry":{"type":"LineString","coordinates":[[131.884372,43.11486],[131.884892,43.114538],[131.885239,43.11444],[131.885486,43.114397],[131.886834,43.114184],[131.887556,43.114044],[131.88824,43.113876],[131.890756,43.113234],[131.892124,43.112872],[131.892913,43.112701],[131.893288,43.112647],[131.893698,43.112623],[131.89382,43.11263]]}},{"type":"Feature","properties":{"fid":24,"Layer":"15 - историческая планировочная структура","PaperSpace":null,"SubClasses":"AcDbEntity:AcDbPolyline","Linetype":"ByLayer","EntityHandle":"682","Text":null,"ogr_style":"PEN(c:#000000)","font":null,"angle":null,"size":null,"size_u":null,"anchor":null,"color":"#000000","underline":null,"plaintext":null,"fcolor":null,"flnum":null,"bold":null,"italic":null,"dx":null,"dx_u":null,"dy":null,"dy_u":null},"geometry":{"type":"LineString","coordinates":[[131.884119,43.115981],[131.884067,43.115823],[131.884054,43.115743],[131.884047,43.11559],[131.884055,43.115476],[131.884074,43.115393],[131.88412,43.115249],[131.884189,43.115129],[131.884255,43.115017],[131.88432,43.114924],[131.884373,43.114862]]}},{"type":"Feature","properties":{"fid":25,"Layer":"15 - историческая планировочная структура","PaperSpace":null,"SubClasses":"AcDbEntity:AcDbPolyline","Linetype":"ByLayer","EntityHandle":"683","Text":null,"ogr_style":"PEN(c:#000000)","font":null,"angle":null,"size":null,"size_u":null,"anchor":null,"color":"#000000","underline":null,"plaintext":null,"fcolor":null,"flnum":null,"bold":null,"italic":null,"dx":null,"dx_u":null,"dy":null,"dy_u":null},"geometry":{"type":"LineString","coordinates":[[131.891935,43.121269],[131.892013,43.12125],[131.894761,43.120711]]}},{"type":"Feature","properties":{"fid":26,"Layer":"15 - историческая планировочная структура","PaperSpace":null,"SubClasses":"AcDbEntity:AcDbPolyline","Linetype":"ByLayer","EntityHandle":"684","Text":null,"ogr_style":"PEN(c:#000000)","font":null,"angle":null,"size":null,"size_u":null,"anchor":null,"color":"#000000","underline":null,"plaintext":null,"fcolor":null,"flnum":null,"bold":null,"italic":null,"dx":null,"dx_u":null,"dy":null,"dy_u":null},"geometry":{"type":"LineString","coordinates":[[131.879843,43.118103],[131.882777,43.11754]]}},{"type":"Feature","properties":{"fid":27,"Layer":"15 - историческая планировочная структура","PaperSpace":null,"SubClasses":"AcDbEntity:AcDbPolyline","Linetype":"ByLayer","EntityHandle":"685","Text":null,"ogr_style":"PEN(c:#000000)","font":null,"angle":null,"size":null,"size_u":null,"anchor":null,"color":"#000000","underline":null,"plaintext":null,"fcolor":null,"flnum":null,"bold":null,"italic":null,"dx":null,"dx_u":null,"dy":null,"dy_u":null},"geometry":{"type":"LineString","coordinates":[[131.882543,43.116352],[131.886829,43.115533],[131.887163,43.115509],[131.892564,43.114458],[131.896165,43.113758],[131.896638,43.11376],[131.897752,43.113923],[131.902532,43.115085],[131.90487,43.115703],[131.905051,43.115712],[131.905951,43.115608],[131.90939,43.11473],[131.910757,43.113954],[131.910984,43.113863],[131.911763,43.113649],[131.914482,43.113047],[131.917215,43.112469],[131.918082,43.112328],[131.920319,43.112329],[131.92134,43.11226],[131.924402,43.11218]]}},{"type":"Feature","properties":{"fid":28,"Layer":"15 - историческая планировочная структура","PaperSpace":null,"SubClasses":"AcDbEntity:AcDbPolyline","Linetype":"ByLayer","EntityHandle":"686","Text":null,"ogr_style":"PEN(c:#000000)","font":null,"angle":null,"size":null,"size_u":null,"anchor":null,"color":"#000000","underline":null,"plaintext":null,"fcolor":null,"flnum":null,"bold":null,"italic":null,"dx":null,"dx_u":null,"dy":null,"dy_u":null},"geometry":{"type":"LineString","coordinates":[[131.933232,43.111733],[131.933354,43.111709],[131.935563,43.110588],[131.93686,43.109889]]}},{"type":"Feature","properties":{"fid":29,"Layer":"15 - историческая планировочная структура","PaperSpace":null,"SubClasses":"AcDbEntity:AcDbPolyline","Linetype":"ByLayer","EntityHandle":"687","Text":null,"ogr_style":"PEN(c:#000000)","font":null,"angle":null,"size":null,"size_u":null,"anchor":null,"color":"#000000","underline":null,"plaintext":null,"fcolor":null,"flnum":null,"bold":null,"italic":null,"dx":null,"dx_u":null,"dy":null,"dy_u":null},"geometry":{"type":"LineString","coordinates":[[131.880927,43.116661],[131.880532,43.115286],[131.88035,43.114729],[131.879988,43.113728],[131.879376,43.112221],[131.878846,43.110721],[131.878584,43.110021]]}},{"type":"Feature","properties":{"fid":30,"Layer":"15 - историческая планировочная структура","PaperSpace":null,"SubClasses":"AcDbEntity:AcDbPolyline","Linetype":"ByLayer","EntityHandle":"688","Text":null,"ogr_style":"PEN(c:#000000)","font":null,"angle":null,"size":null,"size_u":null,"anchor":null,"color":"#000000","underline":null,"plaintext":null,"fcolor":null,"flnum":null,"bold":null,"italic":null,"dx":null,"dx_u":null,"dy":null,"dy_u":null},"geometry":{"type":"LineString","coordinates":[[131.89219,43.127653],[131.89063,43.125777],[131.890557,43.125696],[131.890469,43.12562],[131.890326,43.125556],[131.89018,43.125507],[131.889232,43.125277],[131.888961,43.125102],[131.888874,43.124971],[131.887847,43.12234],[131.887076,43.120192],[131.886374,43.118098],[131.885543,43.115843]]}},{"type":"Feature","properties":{"fid":31,"Layer":"15 - историческая планировочная структура","PaperSpace":null,"SubClasses":"AcDbEntity:AcDbPolyline","Linetype":"ByLayer","EntityHandle":"689","Text":null,"ogr_style":"PEN(c:#000000)","font":null,"angle":null,"size":null,"size_u":null,"anchor":null,"color":"#000000","underline":null,"plaintext":null,"fcolor":null,"flnum":null,"bold":null,"italic":null,"dx":null,"dx_u":null,"dy":null,"dy_u":null},"geometry":{"type":"LineString","coordinates":[[131.894029,43.124934],[131.89205,43.124176],[131.891308,43.12398],[131.890823,43.123928],[131.890553,43.123931],[131.888684,43.124241]]}},{"type":"Feature","properties":{"fid":32,"Layer":"15 - историческая планировочная структура","PaperSpace":null,"SubClasses":"AcDbEntity:AcDbPolyline","Linetype":"ByLayer","EntityHandle":"68A","Text":null,"ogr_style":"PEN(c:#000000)","font":null,"angle":null,"size":null,"size_u":null,"anchor":null,"color":"#000000","underline":null,"plaintext":null,"fcolor":null,"flnum":null,"bold":null,"italic":null,"dx":null,"dx_u":null,"dy":null,"dy_u":null},"geometry":{"type":"LineString","coordinates":[[131.885292,43.123863],[131.885174,43.123782],[131.885032,43.123597],[131.884302,43.12153],[131.883342,43.11885],[131.882787,43.117303],[131.88206,43.115265],[131.881273,43.112921],[131.880966,43.112002],[131.880678,43.110917]]}},{"type":"Feature","properties":{"fid":33,"Layer":"15 - историческая планировочная структура","PaperSpace":null,"SubClasses":"AcDbEntity:AcDbPolyline","Linetype":"ByLayer","EntityHandle":"68B","Text":null,"ogr_style":"PEN(c:#000000)","font":null,"angle":null,"size":null,"size_u":null,"anchor":null,"color":"#000000","underline":null,"plaintext":null,"fcolor":null,"flnum":null,"bold":null,"italic":null,"dx":null,"dx_u":null,"dy":null,"dy_u":null},"geometry":{"type":"LineString","coordinates":[[131.881932,43.1243],[131.881898,43.123878],[131.881776,43.123458],[131.881691,43.123273],[131.881263,43.122121],[131.880922,43.121215]]}},{"type":"Feature","properties":{"fid":34,"Layer":"15 - историческая планировочная структура","PaperSpace":null,"SubClasses":"AcDbEntity:AcDbPolyline","Linetype":"ByLayer","EntityHandle":"68C","Text":null,"ogr_style":"PEN(c:#000000)","font":null,"angle":null,"size":null,"size_u":null,"anchor":null,"color":"#000000","underline":null,"plaintext":null,"fcolor":null,"flnum":null,"bold":null,"italic":null,"dx":null,"dx_u":null,"dy":null,"dy_u":null},"geometry":{"type":"LineString","coordinates":[[131.880805,43.120906],[131.880794,43.120874],[131.879815,43.118219],[131.87939,43.117042]]}},{"type":"Feature","properties":{"fid":35,"Layer":"15 - историческая планировочная структура","PaperSpace":null,"SubClasses":"AcDbEntity:AcDbPolyline","Linetype":"ByLayer","EntityHandle":"68D","Text":null,"ogr_style":"PEN(c:#000000)","font":null,"angle":null,"size":null,"size_u":null,"anchor":null,"color":"#000000","underline":null,"plaintext":null,"fcolor":null,"flnum":null,"bold":null,"italic":null,"dx":null,"dx_u":null,"dy":null,"dy_u":null},"geometry":{"type":"LineString","coordinates":[[131.879359,43.116956],[131.879066,43.116023],[131.878976,43.115934],[131.877966,43.11532],[131.8773,43.114975],[131.876898,43.114773],[131.876355,43.114437],[131.875428,43.113473],[131.875129,43.11318],[131.87505,43.113106],[131.875001,43.113092]]}},{"type":"Feature","properties":{"fid":36,"Layer":"15 - историческая планировочная структура","PaperSpace":null,"SubClasses":"AcDbEntity:AcDbPolyline","Linetype":"ByLayer","EntityHandle":"68E","Text":null,"ogr_style":"PEN(c:#000000)","font":null,"angle":null,"size":null,"size_u":null,"anchor":null,"color":"#000000","underline":null,"plaintext":null,"fcolor":null,"flnum":null,"bold":null,"italic":null,"dx":null,"dx_u":null,"dy":null,"dy_u":null},"geometry":{"type":"LineString","coordinates":[[131.879444,43.11226],[131.880877,43.111996]]}},{"type":"Feature","properties":{"fid":37,"Layer":"15 - историческая планировочная структура","PaperSpace":null,"SubClasses":"AcDbEntity:AcDbPolyline","Linetype":"ByLayer","EntityHandle":"68F","Text":null,"ogr_style":"PEN(c:#000000)","font":null,"angle":null,"size":null,"size_u":null,"anchor":null,"color":"#000000","underline":null,"plaintext":null,"fcolor":null,"flnum":null,"bold":null,"italic":null,"dx":null,"dx_u":null,"dy":null,"dy_u":null},"geometry":{"type":"LineString","coordinates":[[131.935986,43.114423],[131.936157,43.112909],[131.936321,43.112133],[131.93638,43.111997],[131.936503,43.111517],[131.936728,43.110688],[131.9372,43.110125]]}},{"type":"Feature","properties":{"fid":38,"Layer":"15 - историческая планировочная структура","PaperSpace":null,"SubClasses":"AcDbEntity:AcDbPolyline","Linetype":"ByLayer","EntityHandle":"690","Text":null,"ogr_style":"PEN(c:#000000)","font":null,"angle":null,"size":null,"size_u":null,"anchor":null,"color":"#000000","underline":null,"plaintext":null,"fcolor":null,"flnum":null,"bold":null,"italic":null,"dx":null,"dx_u":null,"dy":null,"dy_u":null},"geometry":{"type":"LineString","coordinates":[[131.936057,43.112999],[131.93506,43.112926],[131.93342,43.112824],[131.930647,43.112643],[131.929175,43.112525],[131.927615,43.1124],[131.925638,43.112273],[131.924945,43.112237],[131.924401,43.112196]]}},{"type":"Feature","properties":{"fid":39,"Layer":"15 - историческая планировочная структура","PaperSpace":null,"SubClasses":"AcDbEntity:AcDbPolyline","Linetype":"ByLayer","EntityHandle":"691","Text":null,"ogr_style":"PEN(c:#000000)","font":null,"angle":null,"size":null,"size_u":null,"anchor":null,"color":"#000000","underline":null,"plaintext":null,"fcolor":null,"flnum":null,"bold":null,"italic":null,"dx":null,"dx_u":null,"dy":null,"dy_u":null},"geometry":{"type":"LineString","coordinates":[[131.876995,43.110025],[131.87751,43.111492],[131.877848,43.112506]]}},{"type":"Feature","properties":{"fid":40,"Layer":"15 - историческая планировочная структура","PaperSpace":null,"SubClasses":"AcDbEntity:AcDbPolyline","Linetype":"ByLayer","EntityHandle":"692","Text":null,"ogr_style":"PEN(c:#000000)","font":null,"angle":null,"size":null,"size_u":null,"anchor":null,"color":"#000000","underline":null,"plaintext":null,"fcolor":null,"flnum":null,"bold":null,"italic":null,"dx":null,"dx_u":null,"dy":null,"dy_u":null},"geometry":{"type":"LineString","coordinates":[[131.874845,43.110209],[131.87508,43.110519],[131.875167,43.110557],[131.875258,43.110591],[131.875352,43.110619],[131.875449,43.110642],[131.875548,43.110659],[131.875649,43.11067],[131.87575,43.110676],[131.875852,43.110676],[131.876064,43.110656],[131.878604,43.110207]]}},{"type":"Feature","properties":{"fid":41,"Layer":"15 - историческая планировочная структура","PaperSpace":null,"SubClasses":"AcDbEntity:AcDbPolyline","Linetype":"ByLayer","EntityHandle":"693","Text":null,"ogr_style":"PEN(c:#000000)","font":null,"angle":null,"size":null,"size_u":null,"anchor":null,"color":"#000000","underline":null,"plaintext":null,"fcolor":null,"flnum":null,"bold":null,"italic":null,"dx":null,"dx_u":null,"dy":null,"dy_u":null},"geometry":{"type":"LineString","coordinates":[[131.892246,43.124175],[131.892288,43.124117],[131.891661,43.123717],[131.891618,43.123673],[131.891583,43.123627],[131.891554,43.123578],[131.891532,43.123528],[131.891518,43.123476],[131.891511,43.123423],[131.891512,43.12337],[131.891521,43.123317],[131.891635,43.122817],[131.892034,43.122309],[131.892108,43.122181],[131.892108,43.122008],[131.891453,43.120111],[131.891035,43.118874],[131.890725,43.117857],[131.889151,43.117542],[131.889035,43.11753],[131.888289,43.115357]]}},{"type":"Feature","properties":{"fid":42,"Layer":"15 - историческая планировочная структура","PaperSpace":null,"SubClasses":"AcDbEntity:AcDbPolyline","Linetype":"ByLayer","EntityHandle":"694","Text":null,"ogr_style":"PEN(c:#000000)","font":null,"angle":null,"size":null,"size_u":null,"anchor":null,"color":"#000000","underline":null,"plaintext":null,"fcolor":null,"flnum":null,"bold":null,"italic":null,"dx":null,"dx_u":null,"dy":null,"dy_u":null},"geometry":{"type":"LineString","coordinates":[[131.878611,43.124165],[131.878539,43.123825],[131.877789,43.121467],[131.877516,43.120695]]}},{"type":"Feature","properties":{"fid":43,"Layer":"15 - историческая планировочная структура","PaperSpace":null,"SubClasses":"AcDbEntity:AcDbPolyline","Linetype":"ByLayer","EntityHandle":"695","Text":null,"ogr_style":"PEN(c:#000000)","font":null,"angle":null,"size":null,"size_u":null,"anchor":null,"color":"#000000","underline":null,"plaintext":null,"fcolor":null,"flnum":null,"bold":null,"italic":null,"dx":null,"dx_u":null,"dy":null,"dy_u":null},"geometry":{"type":"LineString","coordinates":[[131.875859,43.121],[131.875966,43.120894],[131.880477,43.120197]]}},{"type":"Feature","properties":{"fid":44,"Layer":"15 - историческая планировочная структура","PaperSpace":null,"SubClasses":"AcDbEntity:AcDbPolyline","Linetype":"ByLayer","EntityHandle":"696","Text":null,"ogr_style":"PEN(c:#000000)","font":null,"angle":null,"size":null,"size_u":null,"anchor":null,"color":"#000000","underline":null,"plaintext":null,"fcolor":null,"flnum":null,"bold":null,"italic":null,"dx":null,"dx_u":null,"dy":null,"dy_u":null},"geometry":{"type":"LineString","coordinates":[[131.881772,43.123302],[131.882163,43.123224],[131.884625,43.122713]]}},{"type":"Feature","properties":{"fid":45,"Layer":"15 - историческая планировочная структура","PaperSpace":null,"SubClasses":"AcDbEntity:AcDbPolyline","Linetype":"ByLayer","EntityHandle":"697","Text":null,"ogr_style":"PEN(c:#000000)","font":null,"angle":null,"size":null,"size_u":null,"anchor":null,"color":"#000000","underline":null,"plaintext":null,"fcolor":null,"flnum":null,"bold":null,"italic":null,"dx":null,"dx_u":null,"dy":null,"dy_u":null},"geometry":{"type":"LineString","coordinates":[[131.884802,43.122676],[131.884844,43.122668],[131.887668,43.122109],[131.887669,43.122109]]}},{"type":"Feature","properties":{"fid":46,"Layer":"15 - историческая планировочная структура","PaperSpace":null,"SubClasses":"AcDbEntity:AcDbPolyline","Linetype":"ByLayer","EntityHandle":"698","Text":null,"ogr_style":"PEN(c:#000000)","font":null,"angle":null,"size":null,"size_u":null,"anchor":null,"color":"#000000","underline":null,"plaintext":null,"fcolor":null,"flnum":null,"bold":null,"italic":null,"dx":null,"dx_u":null,"dy":null,"dy_u":null},"geometry":{"type":"LineString","coordinates":[[131.887845,43.122067],[131.887923,43.122048],[131.89178,43.121293]]}},{"type":"Feature","properties":{"fid":47,"Layer":"15 - историческая планировочная структура","PaperSpace":null,"SubClasses":"AcDbEntity:AcDbPolyline","Linetype":"ByLayer","EntityHandle":"699","Text":null,"ogr_style":"PEN(c:#000000)","font":null,"angle":null,"size":null,"size_u":null,"anchor":null,"color":"#000000","underline":null,"plaintext":null,"fcolor":null,"flnum":null,"bold":null,"italic":null,"dx":null,"dx_u":null,"dy":null,"dy_u":null},"geometry":{"type":"LineString","coordinates":[[131.885306,43.12378],[131.885331,43.123761],[131.885966,43.123623],[131.886143,43.12361],[131.888104,43.123219]]}},{"type":"Feature","properties":{"fid":48,"Layer":"15 - историческая планировочная структура","PaperSpace":null,"SubClasses":"AcDbEntity:AcDbPolyline","Linetype":"ByLayer","EntityHandle":"69A","Text":null,"ogr_style":"PEN(c:#000000)","font":null,"angle":null,"size":null,"size_u":null,"anchor":null,"color":"#000000","underline":null,"plaintext":null,"fcolor":null,"flnum":null,"bold":null,"italic":null,"dx":null,"dx_u":null,"dy":null,"dy_u":null},"geometry":{"type":"LineString","coordinates":[[131.889117,43.122992],[131.889916,43.122826],[131.891336,43.122559],[131.891692,43.122477],[131.891755,43.122475],[131.891782,43.12248],[131.891801,43.122488]]}},{"type":"Feature","properties":{"fid":49,"Layer":"15 - историческая планировочная структура","PaperSpace":null,"SubClasses":"AcDbEntity:AcDbPolyline","Linetype":"ByLayer","EntityHandle":"69B","Text":null,"ogr_style":"PEN(c:#000000)","font":null,"angle":null,"size":null,"size_u":null,"anchor":null,"color":"#000000","underline":null,"plaintext":null,"fcolor":null,"flnum":null,"bold":null,"italic":null,"dx":null,"dx_u":null,"dy":null,"dy_u":null},"geometry":{"type":"LineString","coordinates":[[131.879789,43.122468],[131.881214,43.122176]]}},{"type":"Feature","properties":{"fid":50,"Layer":"15 - историческая планировочная структура","PaperSpace":null,"SubClasses":"AcDbEntity:AcDbPolyline","Linetype":"ByLayer","EntityHandle":"69C","Text":null,"ogr_style":"PEN(c:#000000)","font":null,"angle":null,"size":null,"size_u":null,"anchor":null,"color":"#000000","underline":null,"plaintext":null,"fcolor":null,"flnum":null,"bold":null,"italic":null,"dx":null,"dx_u":null,"dy":null,"dy_u":null},"geometry":{"type":"LineString","coordinates":[[131.881345,43.122149],[131.881394,43.122139],[131.882879,43.121838],[131.88422,43.121565]]}},{"type":"Feature","properties":{"fid":51,"Layer":"15 - историческая планировочная структура","PaperSpace":null,"SubClasses":"AcDbEntity:AcDbPolyline","Linetype":"ByLayer","EntityHandle":"69D","Text":null,"ogr_style":"PEN(c:#000000)","font":null,"angle":null,"size":null,"size_u":null,"anchor":null,"color":"#000000","underline":null,"plaintext":null,"fcolor":null,"flnum":null,"bold":null,"italic":null,"dx":null,"dx_u":null,"dy":null,"dy_u":null},"geometry":{"type":"LineString","coordinates":[[131.884397,43.121529],[131.884427,43.121523],[131.886305,43.121157],[131.887261,43.120968]]}},{"type":"Feature","properties":{"fid":52,"Layer":"15 - историческая планировочная структура","PaperSpace":null,"SubClasses":"AcDbEntity:AcDbPolyline","Linetype":"ByLayer","EntityHandle":"69E","Text":null,"ogr_style":"PEN(c:#000000)","font":null,"angle":null,"size":null,"size_u":null,"anchor":null,"color":"#000000","underline":null,"plaintext":null,"fcolor":null,"flnum":null,"bold":null,"italic":null,"dx":null,"dx_u":null,"dy":null,"dy_u":null},"geometry":{"type":"LineString","coordinates":[[131.877867,43.121528],[131.880965,43.120916]]}},{"type":"Feature","properties":{"fid":53,"Layer":"15 - историческая планировочная структура","PaperSpace":null,"SubClasses":"AcDbEntity:AcDbPolyline","Linetype":"ByLayer","EntityHandle":"69F","Text":null,"ogr_style":"PEN(c:#000000)","font":null,"angle":null,"size":null,"size_u":null,"anchor":null,"color":"#000000","underline":null,"plaintext":null,"fcolor":null,"flnum":null,"bold":null,"italic":null,"dx":null,"dx_u":null,"dy":null,"dy_u":null},"geometry":{"type":"LineString","coordinates":[[131.880988,43.121247],[131.881327,43.120935],[131.883809,43.120418]]}},{"type":"Feature","properties":{"fid":54,"Layer":"15 - историческая планировочная структура","PaperSpace":null,"SubClasses":"AcDbEntity:AcDbPolyline","Linetype":"ByLayer","EntityHandle":"6A0","Text":null,"ogr_style":"PEN(c:#000000)","font":null,"angle":null,"size":null,"size_u":null,"anchor":null,"color":"#000000","underline":null,"plaintext":null,"fcolor":null,"flnum":null,"bold":null,"italic":null,"dx":null,"dx_u":null,"dy":null,"dy_u":null},"geometry":{"type":"LineString","coordinates":[[131.883985,43.120381],[131.884003,43.120378],[131.886856,43.119818]]}},{"type":"Feature","properties":{"fid":55,"Layer":"15 - историческая планировочная структура","PaperSpace":null,"SubClasses":"AcDbEntity:AcDbPolyline","Linetype":"ByLayer","EntityHandle":"6A1","Text":null,"ogr_style":"PEN(c:#000000)","font":null,"angle":null,"size":null,"size_u":null,"anchor":null,"color":"#000000","underline":null,"plaintext":null,"fcolor":null,"flnum":null,"bold":null,"italic":null,"dx":null,"dx_u":null,"dy":null,"dy_u":null},"geometry":{"type":"LineString","coordinates":[[131.887034,43.119783],[131.887108,43.119769],[131.891015,43.119037]]}},{"type":"Feature","properties":{"fid":56,"Layer":"15 - историческая планировочная структура","PaperSpace":null,"SubClasses":"AcDbEntity:AcDbPolyline","Linetype":"ByLayer","EntityHandle":"6A2","Text":null,"ogr_style":"PEN(c:#000000)","font":null,"angle":null,"size":null,"size_u":null,"anchor":null,"color":"#000000","underline":null,"plaintext":null,"fcolor":null,"flnum":null,"bold":null,"italic":null,"dx":null,"dx_u":null,"dy":null,"dy_u":null},"geometry":{"type":"LineString","coordinates":[[131.880268,43.119265],[131.883181,43.118668]]}},{"type":"Feature","properties":{"fid":57,"Layer":"15 - историческая планировочная структура","PaperSpace":null,"SubClasses":"AcDbEntity:AcDbPolyline","Linetype":"ByLayer","EntityHandle":"6A3","Text":null,"ogr_style":"PEN(c:#000000)","font":null,"angle":null,"size":null,"size_u":null,"anchor":null,"color":"#000000","underline":null,"plaintext":null,"fcolor":null,"flnum":null,"bold":null,"italic":null,"dx":null,"dx_u":null,"dy":null,"dy_u":null},"geometry":{"type":"LineString","coordinates":[[131.883358,43.118632],[131.88372,43.118558],[131.884745,43.11836],[131.886266,43.118066]]}},{"type":"Feature","properties":{"fid":58,"Layer":"15 - историческая планировочная структура","PaperSpace":null,"SubClasses":"AcDbEntity:AcDbPolyline","Linetype":"ByLayer","EntityHandle":"6A4","Text":null,"ogr_style":"PEN(c:#000000)","font":null,"angle":null,"size":null,"size_u":null,"anchor":null,"color":"#000000","underline":null,"plaintext":null,"fcolor":null,"flnum":null,"bold":null,"italic":null,"dx":null,"dx_u":null,"dy":null,"dy_u":null},"geometry":{"type":"LineString","coordinates":[[131.886446,43.118031],[131.88652,43.118016],[131.888952,43.117529]]}},{"type":"Feature","properties":{"fid":59,"Layer":"15 - историческая планировочная структура","PaperSpace":null,"SubClasses":"AcDbEntity:AcDbPolyline","Linetype":"ByLayer","EntityHandle":"6A5","Text":null,"ogr_style":"PEN(c:#000000)","font":null,"angle":null,"size":null,"size_u":null,"anchor":null,"color":"#000000","underline":null,"plaintext":null,"fcolor":null,"flnum":null,"bold":null,"italic":null,"dx":null,"dx_u":null,"dy":null,"dy_u":null},"geometry":{"type":"LineString","coordinates":[[131.883628,43.119386],[131.883733,43.119366],[131.886595,43.119776],[131.88661,43.119816]]}},{"type":"Feature","properties":{"fid":60,"Layer":"15 - историческая планировочная структура","PaperSpace":null,"SubClasses":"AcDbEntity:AcDbPolyline","Linetype":"ByLayer","EntityHandle":"6A6","Text":null,"ogr_style":"PEN(c:#000000)","font":null,"angle":null,"size":null,"size_u":null,"anchor":null,"color":"#000000","underline":null,"plaintext":null,"fcolor":null,"flnum":null,"bold":null,"italic":null,"dx":null,"dx_u":null,"dy":null,"dy_u":null},"geometry":{"type":"LineString","coordinates":[[131.887756,43.120878],[131.888374,43.12071],[131.890136,43.12037],[131.891385,43.120143]]}},{"type":"Feature","properties":{"fid":61,"Layer":"15 - историческая планировочная структура","PaperSpace":null,"SubClasses":"AcDbEntity:AcDbPolyline","Linetype":"ByLayer","EntityHandle":"6A7","Text":null,"ogr_style":"PEN(c:#000000)","font":null,"angle":null,"size":null,"size_u":null,"anchor":null,"color":"#000000","underline":null,"plaintext":null,"fcolor":null,"flnum":null,"bold":null,"italic":null,"dx":null,"dx_u":null,"dy":null,"dy_u":null},"geometry":{"type":"LineString","coordinates":[[131.890818,43.117909],[131.896426,43.116781],[131.897716,43.117067],[131.898378,43.117129],[131.899096,43.117327],[131.899812,43.117739],[131.900031,43.117768]]}},{"type":"Feature","properties":{"fid":62,"Layer":"15 - историческая планировочная структура","PaperSpace":null,"SubClasses":"AcDbEntity:AcDbPolyline","Linetype":"ByLayer","EntityHandle":"6A8","Text":null,"ogr_style":"PEN(c:#000000)","font":null,"angle":null,"size":null,"size_u":null,"anchor":null,"color":"#000000","underline":null,"plaintext":null,"fcolor":null,"flnum":null,"bold":null,"italic":null,"dx":null,"dx_u":null,"dy":null,"dy_u":null},"geometry":{"type":"LineString","coordinates":[[131.882953,43.117509],[131.883765,43.117357],[131.884626,43.117202],[131.885861,43.116961]]}},{"type":"Feature","properties":{"fid":63,"Layer":"15 - историческая планировочная структура","PaperSpace":null,"SubClasses":"AcDbEntity:AcDbPolyline","Linetype":"ByLayer","EntityHandle":"6A9","Text":null,"ogr_style":"PEN(c:#000000)","font":null,"angle":null,"size":null,"size_u":null,"anchor":null,"color":"#000000","underline":null,"plaintext":null,"fcolor":null,"flnum":null,"bold":null,"italic":null,"dx":null,"dx_u":null,"dy":null,"dy_u":null},"geometry":{"type":"LineString","coordinates":[[131.886035,43.11692],[131.886158,43.116891],[131.887627,43.116611],[131.888573,43.116423]]}},{"type":"Feature","properties":{"fid":64,"Layer":"15 - историческая планировочная структура","PaperSpace":null,"SubClasses":"AcDbEntity:AcDbPolyline","Linetype":"ByLayer","EntityHandle":"6AA","Text":null,"ogr_style":"PEN(c:#000000)","font":null,"angle":null,"size":null,"size_u":null,"anchor":null,"color":"#000000","underline":null,"plaintext":null,"fcolor":null,"flnum":null,"bold":null,"italic":null,"dx":null,"dx_u":null,"dy":null,"dy_u":null},"geometry":{"type":"LineString","coordinates":[[131.892493,43.11454],[131.892811,43.115427],[131.892947,43.115849]]}},{"type":"Feature","properties":{"fid":65,"Layer":"15 - историческая планировочная структура","PaperSpace":null,"SubClasses":"AcDbEntity:AcDbPolyline","Linetype":"ByLayer","EntityHandle":"6AB","Text":null,"ogr_style":"PEN(c:#000000)","font":null,"angle":null,"size":null,"size_u":null,"anchor":null,"color":"#000000","underline":null,"plaintext":null,"fcolor":null,"flnum":null,"bold":null,"italic":null,"dx":null,"dx_u":null,"dy":null,"dy_u":null},"geometry":{"type":"LineString","coordinates":[[131.894524,43.114145],[131.894842,43.115031],[131.89503,43.115708],[131.895409,43.11679]]}},{"type":"Feature","properties":{"fid":66,"Layer":"15 - историческая планировочная структура","PaperSpace":null,"SubClasses":"AcDbEntity:AcDbPolyline","Linetype":"ByLayer","EntityHandle":"6AC","Text":null,"ogr_style":"PEN(c:#000000)","font":null,"angle":null,"size":null,"size_u":null,"anchor":null,"color":"#000000","underline":null,"plaintext":null,"fcolor":null,"flnum":null,"bold":null,"italic":null,"dx":null,"dx_u":null,"dy":null,"dy_u":null},"geometry":{"type":"LineString","coordinates":[[131.895003,43.115849],[131.894971,43.115855],[131.894934,43.115872],[131.894896,43.115905],[131.893956,43.11703],[131.893894,43.117104],[131.893847,43.117175],[131.893866,43.117226]]}},{"type":"Feature","properties":{"fid":67,"Layer":"15 - историческая планировочная структура","PaperSpace":null,"SubClasses":"AcDbEntity:AcDbPolyline","Linetype":"ByLayer","EntityHandle":"6AD","Text":null,"ogr_style":"PEN(c:#000000)","font":null,"angle":null,"size":null,"size_u":null,"anchor":null,"color":"#000000","underline":null,"plaintext":null,"fcolor":null,"flnum":null,"bold":null,"italic":null,"dx":null,"dx_u":null,"dy":null,"dy_u":null},"geometry":{"type":"LineString","coordinates":[[131.898275,43.116189],[131.898569,43.11623],[131.899322,43.116288],[131.900522,43.116524],[131.900772,43.116465],[131.901296,43.11636],[131.901549,43.116279],[131.901938,43.116032],[131.901955,43.116028]]}},{"type":"Feature","properties":{"fid":68,"Layer":"15 - историческая планировочная структура","PaperSpace":null,"SubClasses":"AcDbEntity:AcDbPolyline","Linetype":"ByLayer","EntityHandle":"6AE","Text":null,"ogr_style":"PEN(c:#000000)","font":null,"angle":null,"size":null,"size_u":null,"anchor":null,"color":"#000000","underline":null,"plaintext":null,"fcolor":null,"flnum":null,"bold":null,"italic":null,"dx":null,"dx_u":null,"dy":null,"dy_u":null},"geometry":{"type":"LineString","coordinates":[[131.896287,43.113822],[131.896328,43.114188],[131.896352,43.114394],[131.896448,43.114544],[131.896709,43.114679],[131.897117,43.114774],[131.89848,43.115076],[131.899823,43.11539],[131.901192,43.115728],[131.901706,43.115857],[131.901985,43.115924],[131.901999,43.115954]]}},{"type":"Feature","properties":{"fid":69,"Layer":"15 - историческая планировочная структура","PaperSpace":null,"SubClasses":"AcDbEntity:AcDbPolyline","Linetype":"ByLayer","EntityHandle":"6AF","Text":null,"ogr_style":"PEN(c:#000000)","font":null,"angle":null,"size":null,"size_u":null,"anchor":null,"color":"#000000","underline":null,"plaintext":null,"fcolor":null,"flnum":null,"bold":null,"italic":null,"dx":null,"dx_u":null,"dy":null,"dy_u":null},"geometry":{"type":"LineString","coordinates":[[131.884372,43.11486],[131.884892,43.114538],[131.885239,43.11444],[131.885486,43.114397],[131.886834,43.114184],[131.887556,43.114044],[131.88824,43.113876],[131.890756,43.113234],[131.892124,43.112872],[131.892913,43.112701],[131.893288,43.112647],[131.893698,43.112623],[131.89382,43.11263]]}},{"type":"Feature","properties":{"fid":70,"Layer":"15 - историческая планировочная структура","PaperSpace":null,"SubClasses":"AcDbEntity:AcDbPolyline","Linetype":"ByLayer","EntityHandle":"6B0","Text":null,"ogr_style":"PEN(c:#000000)","font":null,"angle":null,"size":null,"size_u":null,"anchor":null,"color":"#000000","underline":null,"plaintext":null,"fcolor":null,"flnum":null,"bold":null,"italic":null,"dx":null,"dx_u":null,"dy":null,"dy_u":null},"geometry":{"type":"LineString","coordinates":[[131.876772,43.124234],[131.877691,43.124066],[131.878504,43.123929]]}},{"type":"Feature","properties":{"fid":71,"Layer":"15 - историческая планировочная структура","PaperSpace":null,"SubClasses":"AcDbEntity:AcDbPolyline","Linetype":"ByLayer","EntityHandle":"6B1","Text":null,"ogr_style":"PEN(c:#000000)","font":null,"angle":null,"size":null,"size_u":null,"anchor":null,"color":"#000000","underline":null,"plaintext":null,"fcolor":null,"flnum":null,"bold":null,"italic":null,"dx":null,"dx_u":null,"dy":null,"dy_u":null},"geometry":{"type":"LineString","coordinates":[[131.8755,43.111628],[131.876696,43.112352],[131.877133,43.112656]]}},{"type":"Feature","properties":{"fid":72,"Layer":"15 - историческая планировочная структура","PaperSpace":null,"SubClasses":"AcDbEntity:AcDbPolyline","Linetype":"ByLayer","EntityHandle":"6B2","Text":null,"ogr_style":"PEN(c:#000000)","font":null,"angle":null,"size":null,"size_u":null,"anchor":null,"color":"#000000","underline":null,"plaintext":null,"fcolor":null,"flnum":null,"bold":null,"italic":null,"dx":null,"dx_u":null,"dy":null,"dy_u":null},"geometry":{"type":"LineString","coordinates":[[131.901411,43.114884],[131.901407,43.114893],[131.901408,43.114916],[131.901431,43.114941],[131.901462,43.114964],[131.901641,43.115075],[131.901986,43.11535],[131.902261,43.115672],[131.902455,43.115943],[131.902491,43.116009],[131.902481,43.116028]]}},{"type":"Feature","properties":{"fid":73,"Layer":"15 - историческая планировочная структура","PaperSpace":null,"SubClasses":"AcDbEntity:AcDbPolyline","Linetype":"ByLayer","EntityHandle":"6B3","Text":null,"ogr_style":"PEN(c:#000000)","font":null,"angle":null,"size":null,"size_u":null,"anchor":null,"color":"#000000","underline":null,"plaintext":null,"fcolor":null,"flnum":null,"bold":null,"italic":null,"dx":null,"dx_u":null,"dy":null,"dy_u":null},"geometry":{"type":"LineString","coordinates":[[131.900594,43.116572],[131.900613,43.116586],[131.90064,43.116594],[131.900724,43.116612],[131.901,43.116652],[131.901772,43.116833],[131.901957,43.116936],[131.902228,43.117039],[131.902547,43.117241],[131.902923,43.117475],[131.903625,43.11777],[131.903981,43.11789],[131.904285,43.118],[131.904618,43.118039],[131.905198,43.11805],[131.905587,43.118134],[131.905893,43.118221],[131.906199,43.118327],[131.906644,43.118421],[131.906715,43.118459],[131.906714,43.118479]]}},{"type":"Feature","properties":{"fid":74,"Layer":"15 - историческая планировочная структура","PaperSpace":null,"SubClasses":"AcDbEntity:AcDbPolyline","Linetype":"ByLayer","EntityHandle":"6B4","Text":null,"ogr_style":"PEN(c:#000000)","font":null,"angle":null,"size":null,"size_u":null,"anchor":null,"color":"#000000","underline":null,"plaintext":null,"fcolor":null,"flnum":null,"bold":null,"italic":null,"dx":null,"dx_u":null,"dy":null,"dy_u":null},"geometry":{"type":"LineString","coordinates":[[131.911734,43.117912],[131.91174,43.117815],[131.911718,43.117701],[131.91165,43.117517],[131.911541,43.117315],[131.911458,43.11721],[131.911324,43.117055],[131.911228,43.116956],[131.911138,43.116889],[131.911026,43.116857],[131.910852,43.11682],[131.91068,43.116767],[131.910619,43.116716],[131.910379,43.116758],[131.909343,43.117003],[131.908756,43.117144],[131.908421,43.117213],[131.908271,43.117218],[131.907444,43.117215],[131.906876,43.117197],[131.906677,43.117217],[131.906355,43.117268],[131.906283,43.117262],[131.906207,43.117241],[131.906147,43.117203],[131.9061,43.117154],[131.906072,43.117112],[131.906055,43.117044]]}},{"type":"Feature","properties":{"fid":75,"Layer":"15 - историческая планировочная структура","PaperSpace":null,"SubClasses":"AcDbEntity:AcDbPolyline","Linetype":"ByLayer","EntityHandle":"6B5","Text":null,"ogr_style":"PEN(c:#000000)","font":null,"angle":null,"size":null,"size_u":null,"anchor":null,"color":"#000000","underline":null,"plaintext":null,"fcolor":null,"flnum":null,"bold":null,"italic":null,"dx":null,"dx_u":null,"dy":null,"dy_u":null},"geometry":{"type":"LineString","coordinates":[[131.907834,43.115199],[131.908129,43.115799],[131.908158,43.115825]]}},{"type":"Feature","properties":{"fid":76,"Layer":"15 - историческая планировочная структура","PaperSpace":null,"SubClasses":"AcDbEntity:AcDbPolyline","Linetype":"ByLayer","EntityHandle":"6B6","Text":null,"ogr_style":"PEN(c:#000000)","font":null,"angle":null,"size":null,"size_u":null,"anchor":null,"color":"#000000","underline":null,"plaintext":null,"fcolor":null,"flnum":null,"bold":null,"italic":null,"dx":null,"dx_u":null,"dy":null,"dy_u":null},"geometry":{"type":"LineString","coordinates":[[131.924637,43.112258],[131.924631,43.112432],[131.924631,43.113131],[131.924627,43.113928],[131.924639,43.114459]]}},{"type":"Feature","properties":{"fid":77,"Layer":"15 - историческая планировочная структура","PaperSpace":null,"SubClasses":"AcDbEntity:AcDbPolyline","Linetype":"ByLayer","EntityHandle":"6B7","Text":null,"ogr_style":"PEN(c:#000000)","font":null,"angle":null,"size":null,"size_u":null,"anchor":null,"color":"#000000","underline":null,"plaintext":null,"fcolor":null,"flnum":null,"bold":null,"italic":null,"dx":null,"dx_u":null,"dy":null,"dy_u":null},"geometry":{"type":"LineString","coordinates":[[131.882388,43.11643],[131.879309,43.117011]]}},{"type":"Feature","properties":{"fid":78,"Layer":"15 - историческая планировочная структура","PaperSpace":null,"SubClasses":"AcDbEntity:AcDbPolyline","Linetype":"ByLayer","EntityHandle":"6B8","Text":null,"ogr_style":"PEN(c:#000000)","font":null,"angle":null,"size":null,"size_u":null,"anchor":null,"color":"#000000","underline":null,"plaintext":null,"fcolor":null,"flnum":null,"bold":null,"italic":null,"dx":null,"dx_u":null,"dy":null,"dy_u":null},"geometry":{"type":"LineString","coordinates":[[131.877949,43.117262],[131.877895,43.117257],[131.877842,43.117245],[131.877794,43.117226],[131.877751,43.117202],[131.877095,43.116669],[131.875612,43.115468],[131.875241,43.11507],[131.874831,43.114651],[131.874683,43.114508],[131.874542,43.114336],[131.874487,43.114262],[131.874465,43.114185],[131.874467,43.114079],[131.874527,43.113903],[131.874688,43.113566],[131.875012,43.112945]]}},{"type":"Feature","properties":{"fid":79,"Layer":"15 - историческая планировочная структура","PaperSpace":null,"SubClasses":"AcDbEntity:AcDbPolyline","Linetype":"ByLayer","EntityHandle":"6B9","Text":null,"ogr_style":"PEN(c:#000000)","font":null,"angle":null,"size":null,"size_u":null,"anchor":null,"color":"#000000","underline":null,"plaintext":null,"fcolor":null,"flnum":null,"bold":null,"italic":null,"dx":null,"dx_u":null,"dy":null,"dy_u":null},"geometry":{"type":"LineString","coordinates":[[131.892595,43.114385],[131.89217,43.112938]]}},{"type":"Feature","properties":{"fid":80,"Layer":"15 - историческая планировочная структура","PaperSpace":null,"SubClasses":"AcDbEntity:AcDbPolyline","Linetype":"ByLayer","EntityHandle":"6BA","Text":null,"ogr_style":"PEN(c:#000000)","font":null,"angle":null,"size":null,"size_u":null,"anchor":null,"color":"#000000","underline":null,"plaintext":null,"fcolor":null,"flnum":null,"bold":null,"italic":null,"dx":null,"dx_u":null,"dy":null,"dy_u":null},"geometry":{"type":"LineString","coordinates":[[131.89339,43.114228],[131.893171,43.113622],[131.892878,43.112779]]}},{"type":"Feature","properties":{"fid":81,"Layer":"15 - историческая планировочная структура","PaperSpace":null,"SubClasses":"AcDbEntity:AcDbPolyline","Linetype":"ByLayer","EntityHandle":"6BB","Text":null,"ogr_style":"PEN(c:#000000)","font":null,"angle":null,"size":null,"size_u":null,"anchor":null,"color":"#000000","underline":null,"plaintext":null,"fcolor":null,"flnum":null,"bold":null,"italic":null,"dx":null,"dx_u":null,"dy":null,"dy_u":null},"geometry":{"type":"LineString","coordinates":[[131.908451,43.11649],[131.909092,43.116345],[131.910099,43.116077],[131.911209,43.115785],[131.912186,43.115521]]}},{"type":"Feature","properties":{"fid":82,"Layer":"15 - историческая планировочная структура","PaperSpace":null,"SubClasses":"AcDbEntity:AcDbPolyline","Linetype":"ByLayer","EntityHandle":"6BC","Text":null,"ogr_style":"PEN(c:#000000)","font":null,"angle":null,"size":null,"size_u":null,"anchor":null,"color":"#000000","underline":null,"plaintext":null,"fcolor":null,"flnum":null,"bold":null,"italic":null,"dx":null,"dx_u":null,"dy":null,"dy_u":null},"geometry":{"type":"LineString","coordinates":[[131.916851,43.111436],[131.917226,43.112395]]}},{"type":"Feature","properties":{"fid":83,"Layer":"15 - историческая планировочная структура","PaperSpace":null,"SubClasses":"AcDbEntity:AcDbPolyline","Linetype":"ByLayer","EntityHandle":"6BD","Text":null,"ogr_style":"PEN(c:#000000)","font":null,"angle":null,"size":null,"size_u":null,"anchor":null,"color":"#000000","underline":null,"plaintext":null,"fcolor":null,"flnum":null,"bold":null,"italic":null,"dx":null,"dx_u":null,"dy":null,"dy_u":null},"geometry":{"type":"LineString","coordinates":[[131.919604,43.110728],[131.9197,43.111902],[131.919734,43.112261]]}},{"type":"Feature","properties":{"fid":84,"Layer":"15 - историческая планировочная структура","PaperSpace":null,"SubClasses":"AcDbEntity:AcDbPolyline","Linetype":"ByLayer","EntityHandle":"6BE","Text":null,"ogr_style":"PEN(c:#000000)","font":null,"angle":null,"size":null,"size_u":null,"anchor":null,"color":"#000000","underline":null,"plaintext":null,"fcolor":null,"flnum":null,"bold":null,"italic":null,"dx":null,"dx_u":null,"dy":null,"dy_u":null},"geometry":{"type":"LineString","coordinates":[[131.924202,43.10942],[131.924594,43.111335],[131.924605,43.112012]]}},{"type":"Feature","properties":{"fid":85,"Layer":"15 - историческая планировочная структура","PaperSpace":null,"SubClasses":"AcDbEntity:AcDbPolyline","Linetype":"ByLayer","EntityHandle":"6BF","Text":null,"ogr_style":"PEN(c:#000000)","font":null,"angle":null,"size":null,"size_u":null,"anchor":null,"color":"#000000","underline":null,"plaintext":null,"fcolor":null,"flnum":null,"bold":null,"italic":null,"dx":null,"dx_u":null,"dy":null,"dy_u":null},"geometry":{"type":"LineString","coordinates":[[131.926489,43.112377],[131.926354,43.113322],[131.926309,43.113826],[131.92627,43.11448],[131.926265,43.114721],[131.926215,43.115007],[131.926186,43.115063],[131.926139,43.115093],[131.926071,43.115102],[131.925802,43.115127],[131.925521,43.115119],[131.925309,43.115099],[131.925077,43.115071],[131.924902,43.115037],[131.924712,43.114976],[131.924616,43.114938]]}},{"type":"Feature","properties":{"fid":86,"Layer":"15 - историческая планировочная структура","PaperSpace":null,"SubClasses":"AcDbEntity:AcDbPolyline","Linetype":"ByLayer","EntityHandle":"6C0","Text":null,"ogr_style":"PEN(c:#000000)","font":null,"angle":null,"size":null,"size_u":null,"anchor":null,"color":"#000000","underline":null,"plaintext":null,"fcolor":null,"flnum":null,"bold":null,"italic":null,"dx":null,"dx_u":null,"dy":null,"dy_u":null},"geometry":{"type":"LineString","coordinates":[[131.889499,43.119271],[131.889412,43.11908],[131.888499,43.118774],[131.887731,43.118487],[131.887425,43.118377]]}},{"type":"Feature","properties":{"fid":87,"Layer":"15 - историческая планировочная структура","PaperSpace":null,"SubClasses":"AcDbEntity:AcDbPolyline","Linetype":"ByLayer","EntityHandle":"6C1","Text":null,"ogr_style":"PEN(c:#000000)","font":null,"angle":null,"size":null,"size_u":null,"anchor":null,"color":"#000000","underline":null,"plaintext":null,"fcolor":null,"flnum":null,"bold":null,"italic":null,"dx":null,"dx_u":null,"dy":null,"dy_u":null},"geometry":{"type":"LineString","coordinates":[[131.885593,43.124932],[131.888554,43.1244]]}},{"type":"Feature","properties":{"fid":88,"Layer":"15 - историческая планировочная структура","PaperSpace":null,"SubClasses":"AcDbEntity:AcDbPolyline","Linetype":"ByLayer","EntityHandle":"6C2","Text":null,"ogr_style":"PEN(c:#000000)","font":null,"angle":null,"size":null,"size_u":null,"anchor":null,"color":"#000000","underline":null,"plaintext":null,"fcolor":null,"flnum":null,"bold":null,"italic":null,"dx":null,"dx_u":null,"dy":null,"dy_u":null},"geometry":{"type":"LineString","coordinates":[[131.911892,43.114985],[131.912132,43.115504]]}},{"type":"Feature","properties":{"fid":89,"Layer":"15 - историческая планировочная структура","PaperSpace":null,"SubClasses":"AcDbEntity:AcDbPolyline","Linetype":"ByLayer","EntityHandle":"6C3","Text":null,"ogr_style":"PEN(c:#000000)","font":null,"angle":null,"size":null,"size_u":null,"anchor":null,"color":"#000000","underline":null,"plaintext":null,"fcolor":null,"flnum":null,"bold":null,"italic":null,"dx":null,"dx_u":null,"dy":null,"dy_u":null},"geometry":{"type":"LineString","coordinates":[[131.908226,43.115947],[131.908248,43.115976],[131.908471,43.116451]]}},{"type":"Feature","properties":{"fid":90,"Layer":"15 - историческая планировочная структура","PaperSpace":null,"SubClasses":"AcDbEntity:AcDbPolyline","Linetype":"ByLayer","EntityHandle":"6C4","Text":null,"ogr_style":"PEN(c:#000000)","font":null,"angle":null,"size":null,"size_u":null,"anchor":null,"color":"#000000","underline":null,"plaintext":null,"fcolor":null,"flnum":null,"bold":null,"italic":null,"dx":null,"dx_u":null,"dy":null,"dy_u":null},"geometry":{"type":"LineString","coordinates":[[131.924616,43.114938],[131.924327,43.114825],[131.924168,43.114762],[131.923945,43.114742],[131.92383,43.114749],[131.923748,43.114777],[131.923699,43.114884],[131.923722,43.114994],[131.923875,43.115173],[131.924051,43.115309],[131.924875,43.115752],[131.925373,43.116022],[131.925533,43.116079]]}},{"type":"Feature","properties":{"fid":91,"Layer":"15 - историческая планировочная структура","PaperSpace":null,"SubClasses":"AcDbEntity:AcDbPolyline","Linetype":"ByLayer","EntityHandle":"6C5","Text":null,"ogr_style":"PEN(c:#000000)","font":null,"angle":null,"size":null,"size_u":null,"anchor":null,"color":"#000000","underline":null,"plaintext":null,"fcolor":null,"flnum":null,"bold":null,"italic":null,"dx":null,"dx_u":null,"dy":null,"dy_u":null},"geometry":{"type":"LineString","coordinates":[[131.924748,43.112177],[131.924754,43.112123],[131.924764,43.112094],[131.924832,43.11206],[131.927638,43.111459],[131.927894,43.111433],[131.933165,43.111745],[131.933232,43.111733]]}},{"type":"Feature","properties":{"fid":92,"Layer":"15 - историческая планировочная структура","PaperSpace":null,"SubClasses":"AcDbEntity:AcDbPolyline","Linetype":"ByLayer","EntityHandle":"6C6","Text":null,"ogr_style":"PEN(c:#000000)","font":null,"angle":null,"size":null,"size_u":null,"anchor":null,"color":"#000000","underline":null,"plaintext":null,"fcolor":null,"flnum":null,"bold":null,"italic":null,"dx":null,"dx_u":null,"dy":null,"dy_u":null},"geometry":{"type":"LineString","coordinates":[[131.901955,43.116028],[131.90213,43.115991],[131.902854,43.116208],[131.904801,43.116779],[131.905615,43.116995],[131.905883,43.116996],[131.906203,43.116967],[131.906445,43.116882],[131.907815,43.116104],[131.908289,43.11583],[131.909629,43.115499],[131.911651,43.114976],[131.912353,43.114809],[131.912507,43.114753],[131.913756,43.114391],[131.914182,43.114242],[131.914748,43.114105],[131.915193,43.114011],[131.915772,43.113958],[131.916366,43.113865],[131.916948,43.113737]]}},{"type":"Feature","properties":{"fid":93,"Layer":"15 - историческая планировочная структура","PaperSpace":null,"SubClasses":"AcDbEntity:AcDbPolyline","Linetype":"ByLayer","EntityHandle":"6C7","Text":null,"ogr_style":"PEN(c:#000000)","font":null,"angle":null,"size":null,"size_u":null,"anchor":null,"color":"#000000","underline":null,"plaintext":null,"fcolor":null,"flnum":null,"bold":null,"italic":null,"dx":null,"dx_u":null,"dy":null,"dy_u":null},"geometry":{"type":"LineString","coordinates":[[131.900031,43.117768],[131.900244,43.117795],[131.901579,43.117904],[131.902524,43.118096],[131.903252,43.118362],[131.903894,43.118493],[131.904545,43.118543],[131.905955,43.118522],[131.906822,43.11855],[131.907419,43.118615],[131.907897,43.118669],[131.908244,43.118644],[131.909915,43.118217],[131.910736,43.11807],[131.911832,43.11796],[131.912554,43.117924],[131.91405,43.117719],[131.914607,43.117669],[131.915471,43.117715],[131.915919,43.11781],[131.91684,43.11797],[131.917643,43.118173],[131.918438,43.118317],[131.919271,43.118366]]}},{"type":"Feature","properties":{"fid":94,"Layer":"15 - историческая планировочная структура","PaperSpace":null,"SubClasses":"AcDbEntity:AcDbPolyline","Linetype":"ByLayer","EntityHandle":"6C8","Text":null,"ogr_style":"PEN(c:#000000)","font":null,"angle":null,"size":null,"size_u":null,"anchor":null,"color":"#000000","underline":null,"plaintext":null,"fcolor":null,"flnum":null,"bold":null,"italic":null,"dx":null,"dx_u":null,"dy":null,"dy_u":null},"geometry":{"type":"LineString","coordinates":[[131.899908,43.114374],[131.899919,43.11435],[131.899977,43.114257],[131.900024,43.114197],[131.900066,43.114158],[131.900107,43.11413],[131.900155,43.114107],[131.900221,43.114091],[131.900294,43.114075],[131.900408,43.114067],[131.900518,43.114075],[131.900768,43.114117],[131.900885,43.114133],[131.900949,43.114128],[131.900984,43.114108],[131.901,43.114074],[131.900994,43.114034],[131.900943,43.114009],[131.900883,43.113992],[131.90069,43.113942],[131.900529,43.1139],[131.900365,43.113866],[131.900217,43.113838],[131.900131,43.113823],[131.900035,43.113785],[131.899974,43.113747],[131.899949,43.11371],[131.899931,43.113676],[131.899929,43.113646],[131.899934,43.113627],[131.899947,43.113594]]}},{"type":"Feature","properties":{"fid":95,"Layer":"15 - историческая планировочная структура","PaperSpace":null,"SubClasses":"AcDbEntity:AcDbPolyline","Linetype":"ByLayer","EntityHandle":"6C9","Text":null,"ogr_style":"PEN(c:#000000)","font":null,"angle":null,"size":null,"size_u":null,"anchor":null,"color":"#000000","underline":null,"plaintext":null,"fcolor":null,"flnum":null,"bold":null,"italic":null,"dx":null,"dx_u":null,"dy":null,"dy_u":null},"geometry":{"type":"LineString","coordinates":[[131.89382,43.112612],[131.893987,43.112618],[131.894422,43.112659],[131.895633,43.112829],[131.896708,43.112996],[131.897919,43.113185],[131.899224,43.113407],[131.900028,43.113569],[131.900691,43.113683],[131.901064,43.113718],[131.901349,43.113727],[131.901841,43.113672],[131.902092,43.113638]]}},{"type":"Feature","properties":{"fid":96,"Layer":"15 - историческая планировочная структура","PaperSpace":null,"SubClasses":"AcDbEntity:AcDbPolyline","Linetype":"ByLayer","EntityHandle":"6CA","Text":null,"ogr_style":"PEN(c:#000000)","font":null,"angle":null,"size":null,"size_u":null,"anchor":null,"color":"#000000","underline":null,"plaintext":null,"fcolor":null,"flnum":null,"bold":null,"italic":null,"dx":null,"dx_u":null,"dy":null,"dy_u":null},"geometry":{"type":"LineString","coordinates":[[131.888505,43.124271],[131.888213,43.12432],[131.88749,43.124368],[131.887236,43.124352],[131.885747,43.124082],[131.88567,43.124061],[131.885596,43.124034],[131.885458,43.123962],[131.885305,43.123873],[131.885291,43.123864]]}},{"type":"Feature","properties":{"fid":97,"Layer":"15 - историческая планировочная структура","PaperSpace":null,"SubClasses":"AcDbEntity:AcDbPolyline","Linetype":"ByLayer","EntityHandle":"6CB","Text":null,"ogr_style":"PEN(c:#000000)","font":null,"angle":null,"size":null,"size_u":null,"anchor":null,"color":"#000000","underline":null,"plaintext":null,"fcolor":null,"flnum":null,"bold":null,"italic":null,"dx":null,"dx_u":null,"dy":null,"dy_u":null},"geometry":{"type":"LineString","coordinates":[[131.879309,43.117011],[131.877982,43.117262],[131.877949,43.117262]]}},{"type":"Feature","properties":{"fid":98,"Layer":"15 - историческая планировочная структура","PaperSpace":null,"SubClasses":"AcDbEntity:AcDbPolyline","Linetype":"ByLayer","EntityHandle":"6CC","Text":null,"ogr_style":"PEN(c:#000000)","font":null,"angle":null,"size":null,"size_u":null,"anchor":null,"color":"#000000","underline":null,"plaintext":null,"fcolor":null,"flnum":null,"bold":null,"italic":null,"dx":null,"dx_u":null,"dy":null,"dy_u":null},"geometry":{"type":"LineString","coordinates":[[131.875015,43.112948],[131.875026,43.11292],[131.87504,43.112892],[131.875059,43.112865],[131.875081,43.11284],[131.875106,43.112817],[131.875135,43.112796],[131.875166,43.112777],[131.8752,43.112761],[131.875235,43.112747],[131.875273,43.112736],[131.875312,43.112728],[131.875352,43.112722],[131.875392,43.11272],[131.875433,43.112721],[131.875473,43.112725],[131.875512,43.112732],[131.876139,43.11287],[131.87935,43.112277]]}},{"type":"Feature","properties":{"fid":99,"Layer":"15 - историческая планировочная структура","PaperSpace":null,"SubClasses":"AcDbEntity:AcDbPolyline","Linetype":"ByLayer","EntityHandle":"6CD","Text":null,"ogr_style":"PEN(c:#000000)","font":null,"angle":null,"size":null,"size_u":null,"anchor":null,"color":"#000000","underline":null,"plaintext":null,"fcolor":null,"flnum":null,"bold":null,"italic":null,"dx":null,"dx_u":null,"dy":null,"dy_u":null},"geometry":{"type":"LineString","coordinates":[[131.877456,43.120618],[131.877215,43.119933],[131.877099,43.119566]]}},{"type":"Feature","properties":{"fid":100,"Layer":"15 - историческая планировочная структура","PaperSpace":null,"SubClasses":"AcDbEntity:AcDbPolyline","Linetype":"ByLayer","EntityHandle":"6CE","Text":null,"ogr_style":"PEN(c:#000000)","font":null,"angle":null,"size":null,"size_u":null,"anchor":null,"color":"#000000","underline":null,"plaintext":null,"fcolor":null,"flnum":null,"bold":null,"italic":null,"dx":null,"dx_u":null,"dy":null,"dy_u":null},"geometry":{"type":"LineString","coordinates":[[131.934055,43.112815],[131.934162,43.111894],[131.934131,43.111566],[131.934118,43.111468],[131.934073,43.111426]]}},{"type":"Feature","properties":{"fid":101,"Layer":"15 - историческая планировочная структура","PaperSpace":null,"SubClasses":"AcDbEntity:AcDbPolyline","Linetype":"ByLayer","EntityHandle":"6CF","Text":null,"ogr_style":"PEN(c:#000000)","font":null,"angle":null,"size":null,"size_u":null,"anchor":null,"color":"#000000","underline":null,"plaintext":null,"fcolor":null,"flnum":null,"bold":null,"italic":null,"dx":null,"dx_u":null,"dy":null,"dy_u":null},"geometry":{"type":"LineString","coordinates":[[131.884119,43.115981],[131.884067,43.115823],[131.884054,43.115743],[131.884047,43.11559],[131.884055,43.115476],[131.884074,43.115393],[131.88412,43.115249],[131.884189,43.115129],[131.884255,43.115017],[131.88432,43.114924],[131.884373,43.114862]]}},{"type":"Feature","properties":{"fid":102,"Layer":"15 - историческая планировочная структура","PaperSpace":null,"SubClasses":"AcDbEntity:AcDbPolyline","Linetype":"ByLayer","EntityHandle":"6D0","Text":null,"ogr_style":"PEN(c:#000000)","font":null,"angle":null,"size":null,"size_u":null,"anchor":null,"color":"#000000","underline":null,"plaintext":null,"fcolor":null,"flnum":null,"bold":null,"italic":null,"dx":null,"dx_u":null,"dy":null,"dy_u":null},"geometry":{"type":"LineString","coordinates":[[131.884158,43.116114],[131.884167,43.116201],[131.884201,43.116313],[131.884247,43.116453],[131.884283,43.116593],[131.884294,43.11671],[131.884305,43.116831],[131.884309,43.116989],[131.88431,43.117077],[131.884301,43.11716],[131.884302,43.117204]]}},{"type":"Feature","properties":{"fid":103,"Layer":"15 - историческая планировочная структура","PaperSpace":null,"SubClasses":"AcDbEntity:AcDbPolyline","Linetype":"ByLayer","EntityHandle":"6D1","Text":null,"ogr_style":"PEN(c:#000000)","font":null,"angle":null,"size":null,"size_u":null,"anchor":null,"color":"#000000","underline":null,"plaintext":null,"fcolor":null,"flnum":null,"bold":null,"italic":null,"dx":null,"dx_u":null,"dy":null,"dy_u":null},"geometry":{"type":"LineString","coordinates":[[131.884272,43.117323],[131.884265,43.117465],[131.884256,43.117553],[131.884209,43.117704],[131.884162,43.117871],[131.884125,43.117981],[131.884053,43.118122],[131.883974,43.118248],[131.883919,43.118334],[131.883913,43.118365],[131.883919,43.118381],[131.88393,43.118402],[131.883945,43.118444]]}}]}