{"type":"FeatureCollection","name":"1_borders","crs":{"type":"name","properties":{"name":"urn:ogc:def:crs:OGC:1.3:CRS84"}},"features":[{"type":"Feature","properties":{"fid":1,"Layer":"1 - границы Достопримечательного места","PaperSpace":null,"SubClasses":"AcDbEntity:AcDbPolyline","Linetype":"ByLayer","EntityHandle":"2BD","Text":null,"ogr_style":"PEN(c:#000000)","font":null,"angle":null,"size":null,"size_u":null,"anchor":null,"color":"#000000","underline":null,"plaintext":null,"fcolor":null,"flnum":null,"bold":null,"italic":null,"dx":null,"dx_u":null,"dy":null,"dy_u":null},"geometry":{"type":"LineString","coordinates":[[131.843892,43.072971],[131.842934,43.072615],[131.840625,43.075237],[131.840122,43.076854],[131.841999,43.081863],[131.846422,43.084722],[131.846831,43.086824],[131.847689,43.087744],[131.85242,43.089219],[131.853803,43.090126],[131.854312,43.093321],[131.855327,43.095386],[131.857843,43.096071],[131.858923,43.097533],[131.85827,43.098348],[131.859965,43.099537],[131.861631,43.1019],[131.861003,43.103129],[131.860041,43.102986],[131.860057,43.103546],[131.860214,43.103831],[131.861452,43.104886],[131.862519,43.104946],[131.862856,43.104577],[131.871758,43.107146],[131.873096,43.108563],[131.871887,43.109357],[131.869437,43.112521],[131.869074,43.113304],[131.870057,43.114434],[131.871859,43.1145],[131.872998,43.115267],[131.875362,43.11735],[131.873956,43.120369],[131.874535,43.120731],[131.874705,43.122069],[131.875392,43.124422],[131.87578,43.125504],[131.875959,43.126096],[131.877502,43.125833],[131.877845,43.124728],[131.878555,43.124342],[131.878715,43.124058],[131.879268,43.124032],[131.879617,43.124107],[131.88049,43.124106],[131.881206,43.123949],[131.881774,43.123845],[131.881797,43.124022],[131.881801,43.1243],[131.881876,43.124299],[131.882685,43.124325],[131.882874,43.124274],[131.882954,43.124432],[131.883488,43.124304],[131.884662,43.124154],[131.884699,43.124298],[131.885505,43.124303],[131.885497,43.124629],[131.885672,43.125179],[131.885821,43.125652],[131.885885,43.125857],[131.886396,43.125771],[131.886522,43.125839],[131.886713,43.125805],[131.886834,43.125831],[131.887156,43.125777],[131.887334,43.125812],[131.887766,43.125727],[131.888327,43.125864],[131.888498,43.125876],[131.888919,43.125808],[131.888876,43.125681],[131.889477,43.125555],[131.889649,43.125514],[131.890172,43.12564],[131.890328,43.125755],[131.890402,43.125828],[131.891993,43.12774],[131.89233,43.127592],[131.89251,43.127514],[131.89274,43.127098],[131.893618,43.125445],[131.893878,43.125087],[131.894061,43.124858],[131.894243,43.124937],[131.894655,43.124421],[131.894499,43.124352],[131.894921,43.123776],[131.895905,43.124156],[131.895929,43.124124],[131.896115,43.123869],[131.896334,43.123571],[131.896386,43.1235],[131.896476,43.123378],[131.896518,43.123321],[131.89606,43.123171],[131.896194,43.123159],[131.896255,43.123153],[131.896498,43.123073],[131.896631,43.122974],[131.896692,43.122915],[131.896736,43.122873],[131.896975,43.122881],[131.897445,43.122886],[131.897975,43.123072],[131.898029,43.123158],[131.898767,43.123689],[131.898727,43.123746],[131.901739,43.124725],[131.901751,43.12468],[131.901752,43.124602],[131.901776,43.124504],[131.901816,43.124418],[131.901866,43.124335],[131.902032,43.12414],[131.902072,43.124055],[131.902239,43.123608],[131.902546,43.123388],[131.902177,43.122601],[131.901918,43.122356],[131.901391,43.121875],[131.901958,43.121471],[131.902324,43.121022],[131.902997,43.120231],[131.903334,43.119672],[131.904043,43.119945],[131.905274,43.120517],[131.905915,43.120333],[131.90618,43.120414],[131.906709,43.120621],[131.906906,43.120407],[131.90703,43.120294],[131.907325,43.120075],[131.907828,43.119948],[131.908158,43.119947],[131.908933,43.120125],[131.90923,43.120149],[131.909369,43.120118],[131.909679,43.120047],[131.909852,43.119904],[131.909981,43.119885],[131.910212,43.119853],[131.910485,43.119818],[131.911054,43.119701],[131.911591,43.119561],[131.914112,43.118802],[131.914154,43.118911],[131.914295,43.11913],[131.914328,43.119145],[131.914367,43.119237],[131.913873,43.119359],[131.913634,43.119387],[131.913612,43.119659],[131.913685,43.119712],[131.913826,43.119941],[131.913915,43.120044],[131.91404,43.12015],[131.914302,43.12033],[131.914564,43.120486],[131.915691,43.121179],[131.915677,43.121501],[131.915932,43.121847],[131.917303,43.122373],[131.918569,43.122483],[131.91931,43.12248],[131.920227,43.122236],[131.920615,43.121495],[131.920552,43.120926],[131.920163,43.120409],[131.919571,43.11963],[131.919452,43.119172],[131.919567,43.119097],[131.9195,43.118894],[131.919303,43.118927],[131.919263,43.118558],[131.919274,43.118276],[131.919957,43.1183],[131.920353,43.118328],[131.920588,43.118367],[131.921263,43.118541],[131.921496,43.118648],[131.923626,43.118782],[131.924116,43.118802],[131.924748,43.118724],[131.925117,43.118642],[131.925681,43.118345],[131.925359,43.118081],[131.92545,43.117243],[131.92535,43.116453],[131.925529,43.116111],[131.926531,43.116153],[131.927291,43.116146],[131.927125,43.115339],[131.926328,43.11532],[131.926314,43.114804],[131.926358,43.113993],[131.926394,43.113361],[131.927092,43.113404],[131.927094,43.113371],[131.927332,43.113328],[131.928041,43.11338],[131.928011,43.113668],[131.928447,43.113677],[131.928458,43.113748],[131.929539,43.113852],[131.930558,43.113952],[131.930458,43.114726],[131.931166,43.114781],[131.93154,43.114745],[131.931652,43.114119],[131.933671,43.114308],[131.934895,43.114318],[131.935405,43.114403],[131.936158,43.114444],[131.936122,43.115427],[131.936337,43.116152],[131.936766,43.11691],[131.936904,43.116866],[131.93717,43.117329],[131.937243,43.11741],[131.937478,43.118017],[131.937571,43.11835],[131.937586,43.118973],[131.93748,43.119663],[131.938154,43.121132],[131.938672,43.122081],[131.940237,43.124682],[131.940422,43.125315],[131.940729,43.125359],[131.942405,43.12523],[131.943103,43.124904],[131.943867,43.124245],[131.94468,43.123706],[131.945186,43.123721],[131.945935,43.123478],[131.945478,43.122726],[131.944923,43.121774],[131.944342,43.120598],[131.943432,43.119075],[131.94311,43.118942],[131.941982,43.119101],[131.941092,43.11916],[131.940842,43.118616],[131.940174,43.118716],[131.939853,43.117598],[131.939789,43.11743],[131.939243,43.116192],[131.938491,43.116131],[131.938427,43.115719],[131.938225,43.115677],[131.938132,43.115681],[131.937945,43.11559],[131.938523,43.114877],[131.938624,43.114445],[131.937885,43.114442],[131.937785,43.112889],[131.937744,43.112411],[131.937775,43.111901],[131.937962,43.111909],[131.937985,43.111695],[131.93782,43.111486],[131.937926,43.110408],[131.93804,43.110066],[131.936709,43.109409],[131.935384,43.110064],[131.934404,43.110064],[131.932762,43.109231],[131.932094,43.108996],[131.931671,43.108705],[131.931433,43.108099],[131.929741,43.108225],[131.928221,43.108573],[131.926864,43.108793],[131.926696,43.108281],[131.924024,43.108416],[131.919264,43.108809],[131.918969,43.108878],[131.918881,43.108715],[131.918728,43.108761],[131.918813,43.108912],[131.914729,43.110157],[131.912017,43.110568],[131.909917,43.110816],[131.907838,43.111653],[131.907142,43.111961],[131.906288,43.111966],[131.905587,43.112114],[131.901862,43.113071],[131.898131,43.112593],[131.898311,43.111851],[131.895718,43.111491],[131.893673,43.111564],[131.891867,43.112022],[131.889984,43.112526],[131.889244,43.112738],[131.88943,43.112259],[131.889408,43.112229],[131.887748,43.112723],[131.8853,43.113287],[131.885,43.113218],[131.883264,43.109956],[131.882917,43.110048],[131.882444,43.109203],[131.882034,43.107969],[131.879943,43.10672],[131.878774,43.105667],[131.879418,43.105151],[131.877151,43.103792],[131.873897,43.101814],[131.868915,43.098679],[131.873514,43.096839],[131.87413,43.095228],[131.869112,43.091016],[131.865999,43.088405],[131.863503,43.087135],[131.862681,43.087725],[131.861516,43.086533],[131.860597,43.086678],[131.858468,43.083964],[131.85858,43.083704],[131.858014,43.083244],[131.856992,43.082454],[131.856661,43.082064],[131.856016,43.081734],[131.854839,43.080551],[131.853958,43.080105],[131.848596,43.07931],[131.845969,43.079838],[131.845023,43.07986],[131.843333,43.079392],[131.843892,43.072971]]}},{"type":"Feature","properties":{"fid":2,"Layer":"1 - границы Достопримечательного места","PaperSpace":null,"SubClasses":"AcDbEntity:AcDbPolyline","Linetype":"ByLayer","EntityHandle":"2BF","Text":null,"ogr_style":"PEN(c:#000000)","font":null,"angle":null,"size":null,"size_u":null,"anchor":null,"color":"#000000","underline":null,"plaintext":null,"fcolor":null,"flnum":null,"bold":null,"italic":null,"dx":null,"dx_u":null,"dy":null,"dy_u":null},"geometry":{"type":"LineString","coordinates":[[131.892374,43.106273],[131.892008,43.106273]]}}]}