{"type":"FeatureCollection","name":"8_valued_development_XIX_XX","crs":{"type":"name","properties":{"name":"urn:ogc:def:crs:OGC:1.3:CRS84"}},"features":[{"type":"Feature","properties":{"fid":1,"Layer":"8 - ценная историческая застройка конец ХIX - начало ХХ века","PaperSpace":null,"SubClasses":"AcDbEntity:AcDbPolyline","Linetype":"ByLayer","EntityHandle":"545","Text":null,"ogr_style":"PEN(c:#000000)","font":null,"angle":null,"size":null,"size_u":null,"anchor":null,"color":"#000000","underline":null,"plaintext":null,"fcolor":null,"flnum":null,"bold":null,"italic":null,"dx":null,"dx_u":null,"dy":null,"dy_u":null},"geometry":{"type":"MultiPolygon","coordinates":[[[[131.868899,43.102641],[131.868769,43.102554],[131.868728,43.10253],[131.868587,43.102442],[131.868421,43.102348],[131.868261,43.102281],[131.868043,43.102211],[131.868899,43.102641]]]]}},{"type":"Feature","properties":{"fid":2,"Layer":"8 - ценная историческая застройка конец ХIX - начало ХХ века","PaperSpace":null,"SubClasses":"AcDbEntity:AcDbPolyline","Linetype":"ByLayer","EntityHandle":"546","Text":null,"ogr_style":"PEN(c:#000000)","font":null,"angle":null,"size":null,"size_u":null,"anchor":null,"color":"#000000","underline":null,"plaintext":null,"fcolor":null,"flnum":null,"bold":null,"italic":null,"dx":null,"dx_u":null,"dy":null,"dy_u":null},"geometry":{"type":"MultiPolygon","coordinates":[[[[131.877298,43.106669],[131.877148,43.106591],[131.877045,43.106512],[131.876656,43.106253],[131.876614,43.106229],[131.876473,43.106141],[131.876392,43.106111],[131.876219,43.106018],[131.87606,43.105949],[131.877298,43.106669]]]]}},{"type":"Feature","properties":{"fid":3,"Layer":"8 - ценная историческая застройка конец ХIX - начало ХХ века","PaperSpace":null,"SubClasses":"AcDbEntity:AcDbPolyline","Linetype":"ByLayer","EntityHandle":"547","Text":null,"ogr_style":"PEN(c:#000000)","font":null,"angle":null,"size":null,"size_u":null,"anchor":null,"color":"#000000","underline":null,"plaintext":null,"fcolor":null,"flnum":null,"bold":null,"italic":null,"dx":null,"dx_u":null,"dy":null,"dy_u":null},"geometry":{"type":"MultiPolygon","coordinates":[[[[131.878841,43.107744],[131.878375,43.107351],[131.878223,43.107228],[131.878841,43.107744]]]]}},{"type":"Feature","properties":{"fid":4,"Layer":"8 - ценная историческая застройка конец ХIX - начало ХХ века","PaperSpace":null,"SubClasses":"AcDbEntity:AcDbPolyline","Linetype":"ByLayer","EntityHandle":"548","Text":null,"ogr_style":"PEN(c:#000000)","font":null,"angle":null,"size":null,"size_u":null,"anchor":null,"color":"#000000","underline":null,"plaintext":null,"fcolor":null,"flnum":null,"bold":null,"italic":null,"dx":null,"dx_u":null,"dy":null,"dy_u":null},"geometry":{"type":"MultiPolygon","coordinates":[[[[131.879653,43.108401],[131.879269,43.108083],[131.87898,43.107841],[131.879653,43.108401]]]]}},{"type":"Feature","properties":{"fid":5,"Layer":"8 - ценная историческая застройка конец ХIX - начало ХХ века","PaperSpace":null,"SubClasses":"AcDbEntity:AcDbPolyline","Linetype":"ByLayer","EntityHandle":"549","Text":null,"ogr_style":"PEN(c:#000000)","font":null,"angle":null,"size":null,"size_u":null,"anchor":null,"color":"#000000","underline":null,"plaintext":null,"fcolor":null,"flnum":null,"bold":null,"italic":null,"dx":null,"dx_u":null,"dy":null,"dy_u":null},"geometry":{"type":"MultiPolygon","coordinates":[[[[131.875254,43.112368],[131.875368,43.112265],[131.875618,43.11241],[131.875254,43.112368]]]]}},{"type":"Feature","properties":{"fid":6,"Layer":"8 - ценная историческая застройка конец ХIX - начало ХХ века","PaperSpace":null,"SubClasses":"AcDbEntity:AcDbPolyline","Linetype":"ByLayer","EntityHandle":"54A","Text":null,"ogr_style":"PEN(c:#000000)","font":null,"angle":null,"size":null,"size_u":null,"anchor":null,"color":"#000000","underline":null,"plaintext":null,"fcolor":null,"flnum":null,"bold":null,"italic":null,"dx":null,"dx_u":null,"dy":null,"dy_u":null},"geometry":{"type":"MultiPolygon","coordinates":[]}},{"type":"Feature","properties":{"fid":7,"Layer":"8 - ценная историческая застройка конец ХIX - начало ХХ века","PaperSpace":null,"SubClasses":"AcDbEntity:AcDbPolyline","Linetype":"ByLayer","EntityHandle":"54B","Text":null,"ogr_style":"PEN(c:#000000)","font":null,"angle":null,"size":null,"size_u":null,"anchor":null,"color":"#000000","underline":null,"plaintext":null,"fcolor":null,"flnum":null,"bold":null,"italic":null,"dx":null,"dx_u":null,"dy":null,"dy_u":null},"geometry":{"type":"MultiPolygon","coordinates":[[[[131.89232,43.127597],[131.892209,43.127469],[131.892163,43.127416],[131.892017,43.127244],[131.891872,43.127065],[131.891763,43.126927],[131.891671,43.126813],[131.891567,43.126686],[131.891434,43.126537],[131.891285,43.126362],[131.89115,43.126201],[131.891021,43.126045],[131.89089,43.125886],[131.890739,43.125707],[131.890616,43.125575],[131.890423,43.125481],[131.890294,43.125434],[131.890122,43.125384],[131.89232,43.127597]]]]}},{"type":"Feature","properties":{"fid":8,"Layer":"8 - ценная историческая застройка конец ХIX - начало ХХ века","PaperSpace":null,"SubClasses":"AcDbEntity:AcDbPolyline","Linetype":"ByLayer","EntityHandle":"54C","Text":null,"ogr_style":"PEN(c:#000000)","font":null,"angle":null,"size":null,"size_u":null,"anchor":null,"color":"#000000","underline":null,"plaintext":null,"fcolor":null,"flnum":null,"bold":null,"italic":null,"dx":null,"dx_u":null,"dy":null,"dy_u":null},"geometry":{"type":"MultiPolygon","coordinates":[[[[131.888869,43.124573],[131.888993,43.124899],[131.889022,43.124961],[131.889047,43.125001],[131.889053,43.12501],[131.888869,43.124573]]]]}},{"type":"Feature","properties":{"fid":9,"Layer":"8 - ценная историческая застройка конец ХIX - начало ХХ века","PaperSpace":null,"SubClasses":"AcDbEntity:AcDbPolyline","Linetype":"ByLayer","EntityHandle":"54D","Text":null,"ogr_style":"PEN(c:#000000)","font":null,"angle":null,"size":null,"size_u":null,"anchor":null,"color":"#000000","underline":null,"plaintext":null,"fcolor":null,"flnum":null,"bold":null,"italic":null,"dx":null,"dx_u":null,"dy":null,"dy_u":null},"geometry":{"type":"MultiPolygon","coordinates":[[[[131.898599,43.11517],[131.898608,43.115152],[131.898437,43.115107],[131.898099,43.115029],[131.898599,43.11517]]]]}},{"type":"Feature","properties":{"fid":10,"Layer":"8 - ценная историческая застройка конец ХIX - начало ХХ века","PaperSpace":null,"SubClasses":"AcDbEntity:AcDbPolyline","Linetype":"ByLayer","EntityHandle":"54E","Text":null,"ogr_style":"PEN(c:#000000)","font":null,"angle":null,"size":null,"size_u":null,"anchor":null,"color":"#000000","underline":null,"plaintext":null,"fcolor":null,"flnum":null,"bold":null,"italic":null,"dx":null,"dx_u":null,"dy":null,"dy_u":null},"geometry":{"type":"MultiPolygon","coordinates":[[[[131.898556,43.115255],[131.898588,43.115192],[131.898418,43.115147],[131.898254,43.115111],[131.898556,43.115255]]]]}},{"type":"Feature","properties":{"fid":11,"Layer":"8 - ценная историческая застройка конец ХIX - начало ХХ века","PaperSpace":null,"SubClasses":"AcDbEntity:AcDbPolyline","Linetype":"ByLayer","EntityHandle":"54F","Text":null,"ogr_style":"PEN(c:#000000)","font":null,"angle":null,"size":null,"size_u":null,"anchor":null,"color":"#000000","underline":null,"plaintext":null,"fcolor":null,"flnum":null,"bold":null,"italic":null,"dx":null,"dx_u":null,"dy":null,"dy_u":null},"geometry":{"type":"MultiPolygon","coordinates":[[[[131.937472,43.119669],[131.937474,43.119672],[131.938091,43.119481],[131.938089,43.119479],[131.937472,43.119669]]]]}},{"type":"Feature","properties":{"fid":12,"Layer":"8 - ценная историческая застройка конец ХIX - начало ХХ века","PaperSpace":null,"SubClasses":"AcDbEntity:AcDbPolyline","Linetype":"ByLayer","EntityHandle":"550","Text":null,"ogr_style":"PEN(c:#000000)","font":null,"angle":null,"size":null,"size_u":null,"anchor":null,"color":"#000000","underline":null,"plaintext":null,"fcolor":null,"flnum":null,"bold":null,"italic":null,"dx":null,"dx_u":null,"dy":null,"dy_u":null},"geometry":{"type":"MultiPolygon","coordinates":[[[[131.945242,43.122352],[131.945232,43.122335],[131.945203,43.122285],[131.945147,43.122183],[131.945096,43.122102],[131.945009,43.121953],[131.94492,43.121789],[131.944901,43.121754],[131.945242,43.122352]]]]}},{"type":"Feature","properties":{"fid":13,"Layer":"8 - ценная историческая застройка конец ХIX - начало ХХ века","PaperSpace":null,"SubClasses":"AcDbEntity:AcDbPolyline","Linetype":"ByLayer","EntityHandle":"551","Text":null,"ogr_style":"PEN(c:#000000)","font":null,"angle":null,"size":null,"size_u":null,"anchor":null,"color":"#000000","underline":null,"plaintext":null,"fcolor":null,"flnum":null,"bold":null,"italic":null,"dx":null,"dx_u":null,"dy":null,"dy_u":null},"geometry":{"type":"MultiPolygon","coordinates":[[[[131.943877,43.12002],[131.943839,43.119962],[131.943782,43.119863],[131.943653,43.119644],[131.943538,43.119441],[131.943376,43.119167],[131.943877,43.12002]]]]}},{"type":"Feature","properties":{"fid":14,"Layer":"8 - ценная историческая застройка конец ХIX - начало ХХ века","PaperSpace":null,"SubClasses":"AcDbEntity:AcDbPolyline","Linetype":"ByLayer","EntityHandle":"552","Text":null,"ogr_style":"PEN(c:#000000)","font":null,"angle":null,"size":null,"size_u":null,"anchor":null,"color":"#000000","underline":null,"plaintext":null,"fcolor":null,"flnum":null,"bold":null,"italic":null,"dx":null,"dx_u":null,"dy":null,"dy_u":null},"geometry":{"type":"MultiPolygon","coordinates":[[[[131.892376,43.105149],[131.892376,43.105113],[131.892204,43.105113],[131.892204,43.105149],[131.892376,43.105149]]]]}},{"type":"Feature","properties":{"fid":15,"Layer":"8 - ценная историческая застройка конец ХIX - начало ХХ века","PaperSpace":null,"SubClasses":"AcDbEntity:AcDbPolyline","Linetype":"ByLayer","EntityHandle":"554","Text":null,"ogr_style":"PEN(c:#000000)","font":null,"angle":null,"size":null,"size_u":null,"anchor":null,"color":"#000000","underline":null,"plaintext":null,"fcolor":null,"flnum":null,"bold":null,"italic":null,"dx":null,"dx_u":null,"dy":null,"dy_u":null},"geometry":{"type":"MultiPolygon","coordinates":[[[[131.892752,43.12193],[131.892606,43.121957],[131.892637,43.12205],[131.892694,43.12204],[131.8927,43.122062],[131.892751,43.122051],[131.892755,43.122061],[131.892802,43.122052],[131.892789,43.122017],[131.892781,43.122019],[131.892752,43.12193]]]]}},{"type":"Feature","properties":{"fid":16,"Layer":"8 - ценная историческая застройка конец ХIX - начало ХХ века","PaperSpace":null,"SubClasses":"AcDbEntity:AcDbPolyline","Linetype":"ByLayer","EntityHandle":"556","Text":null,"ogr_style":"PEN(c:#000000)","font":null,"angle":null,"size":null,"size_u":null,"anchor":null,"color":"#000000","underline":null,"plaintext":null,"fcolor":null,"flnum":null,"bold":null,"italic":null,"dx":null,"dx_u":null,"dy":null,"dy_u":null},"geometry":{"type":"MultiPolygon","coordinates":[[[[131.89984,43.115971],[131.899922,43.11599],[131.899948,43.11593],[131.899958,43.115905],[131.899876,43.115887],[131.89984,43.115971]]]]}},{"type":"Feature","properties":{"fid":17,"Layer":"8 - ценная историческая застройка конец ХIX - начало ХХ века","PaperSpace":null,"SubClasses":"AcDbEntity:AcDbPolyline","Linetype":"ByLayer","EntityHandle":"558","Text":null,"ogr_style":"PEN(c:#000000)","font":null,"angle":null,"size":null,"size_u":null,"anchor":null,"color":"#000000","underline":null,"plaintext":null,"fcolor":null,"flnum":null,"bold":null,"italic":null,"dx":null,"dx_u":null,"dy":null,"dy_u":null},"geometry":{"type":"MultiPolygon","coordinates":[[[[131.880503,43.12209],[131.880285,43.122135],[131.880328,43.122251],[131.880547,43.122206],[131.880503,43.12209]]]]}},{"type":"Feature","properties":{"fid":18,"Layer":"8 - ценная историческая застройка конец ХIX - начало ХХ века","PaperSpace":null,"SubClasses":"AcDbEntity:AcDbPolyline","Linetype":"ByLayer","EntityHandle":"55A","Text":null,"ogr_style":"PEN(c:#000000)","font":null,"angle":null,"size":null,"size_u":null,"anchor":null,"color":"#000000","underline":null,"plaintext":null,"fcolor":null,"flnum":null,"bold":null,"italic":null,"dx":null,"dx_u":null,"dy":null,"dy_u":null},"geometry":{"type":"MultiPolygon","coordinates":[[[[131.909128,43.115966],[131.909005,43.116003],[131.909061,43.116104],[131.90918,43.11607],[131.909128,43.115966]]]]}},{"type":"Feature","properties":{"fid":19,"Layer":"8 - ценная историческая застройка конец ХIX - начало ХХ века","PaperSpace":null,"SubClasses":"AcDbEntity:AcDbPolyline","Linetype":"ByLayer","EntityHandle":"55C","Text":null,"ogr_style":"PEN(c:#000000)","font":null,"angle":null,"size":null,"size_u":null,"anchor":null,"color":"#000000","underline":null,"plaintext":null,"fcolor":null,"flnum":null,"bold":null,"italic":null,"dx":null,"dx_u":null,"dy":null,"dy_u":null},"geometry":{"type":"MultiPolygon","coordinates":[[[[131.909193,43.116107],[131.909138,43.116123],[131.909157,43.116157],[131.909076,43.116183],[131.909105,43.116233],[131.909243,43.116189],[131.909193,43.116107]]]]}},{"type":"Feature","properties":{"fid":20,"Layer":"8 - ценная историческая застройка конец ХIX - начало ХХ века","PaperSpace":null,"SubClasses":"AcDbEntity:AcDbPolyline","Linetype":"ByLayer","EntityHandle":"55E","Text":null,"ogr_style":"PEN(c:#000000)","font":null,"angle":null,"size":null,"size_u":null,"anchor":null,"color":"#000000","underline":null,"plaintext":null,"fcolor":null,"flnum":null,"bold":null,"italic":null,"dx":null,"dx_u":null,"dy":null,"dy_u":null},"geometry":{"type":"MultiPolygon","coordinates":[[[[131.910322,43.115091],[131.910349,43.115146],[131.910473,43.115115],[131.910446,43.115058],[131.910322,43.115091]]]]}},{"type":"Feature","properties":{"fid":21,"Layer":"8 - ценная историческая застройка конец ХIX - начало ХХ века","PaperSpace":null,"SubClasses":"AcDbEntity:AcDbPolyline","Linetype":"ByLayer","EntityHandle":"560","Text":null,"ogr_style":"PEN(c:#000000)","font":null,"angle":null,"size":null,"size_u":null,"anchor":null,"color":"#000000","underline":null,"plaintext":null,"fcolor":null,"flnum":null,"bold":null,"italic":null,"dx":null,"dx_u":null,"dy":null,"dy_u":null},"geometry":{"type":"MultiPolygon","coordinates":[[[[131.889091,43.121994],[131.889261,43.12196],[131.889267,43.121976],[131.889301,43.121969],[131.88926,43.121859],[131.889056,43.121899],[131.889067,43.121926],[131.889091,43.121994]]]]}},{"type":"Feature","properties":{"fid":22,"Layer":"8 - ценная историческая застройка конец ХIX - начало ХХ века","PaperSpace":null,"SubClasses":"AcDbEntity:AcDbPolyline","Linetype":"ByLayer","EntityHandle":"562","Text":null,"ogr_style":"PEN(c:#000000)","font":null,"angle":null,"size":null,"size_u":null,"anchor":null,"color":"#000000","underline":null,"plaintext":null,"fcolor":null,"flnum":null,"bold":null,"italic":null,"dx":null,"dx_u":null,"dy":null,"dy_u":null},"geometry":{"type":"MultiPolygon","coordinates":[[[[131.881779,43.121271],[131.88168,43.12129],[131.88172,43.121405],[131.881474,43.121455],[131.881497,43.121521],[131.881517,43.121517],[131.881519,43.121524],[131.881759,43.121476],[131.881753,43.121459],[131.881947,43.121422],[131.882076,43.121394],[131.882289,43.121348],[131.882262,43.121275],[131.881951,43.12134],[131.881954,43.121346],[131.881816,43.121373],[131.881779,43.121271]]]]}},{"type":"Feature","properties":{"fid":23,"Layer":"8 - ценная историческая застройка конец ХIX - начало ХХ века","PaperSpace":null,"SubClasses":"AcDbEntity:AcDbPolyline","Linetype":"ByLayer","EntityHandle":"564","Text":null,"ogr_style":"PEN(c:#000000)","font":null,"angle":null,"size":null,"size_u":null,"anchor":null,"color":"#000000","underline":null,"plaintext":null,"fcolor":null,"flnum":null,"bold":null,"italic":null,"dx":null,"dx_u":null,"dy":null,"dy_u":null},"geometry":{"type":"MultiPolygon","coordinates":[[[[131.884216,43.113911],[131.884482,43.11411],[131.884606,43.11402],[131.884334,43.113826],[131.884216,43.113911]]]]}},{"type":"Feature","properties":{"fid":24,"Layer":"8 - ценная историческая застройка конец ХIX - начало ХХ века","PaperSpace":null,"SubClasses":"AcDbEntity:AcDbPolyline","Linetype":"ByLayer","EntityHandle":"566","Text":null,"ogr_style":"PEN(c:#000000)","font":null,"angle":null,"size":null,"size_u":null,"anchor":null,"color":"#000000","underline":null,"plaintext":null,"fcolor":null,"flnum":null,"bold":null,"italic":null,"dx":null,"dx_u":null,"dy":null,"dy_u":null},"geometry":{"type":"MultiPolygon","coordinates":[[[[131.889088,43.117061],[131.889245,43.117031],[131.889148,43.116765],[131.888994,43.116795],[131.889088,43.117061]]]]}},{"type":"Feature","properties":{"fid":25,"Layer":"8 - ценная историческая застройка конец ХIX - начало ХХ века","PaperSpace":null,"SubClasses":"AcDbEntity:AcDbPolyline","Linetype":"ByLayer","EntityHandle":"568","Text":null,"ogr_style":"PEN(c:#000000)","font":null,"angle":null,"size":null,"size_u":null,"anchor":null,"color":"#000000","underline":null,"plaintext":null,"fcolor":null,"flnum":null,"bold":null,"italic":null,"dx":null,"dx_u":null,"dy":null,"dy_u":null},"geometry":{"type":"MultiPolygon","coordinates":[[[[131.925509,43.111301],[131.925335,43.111323],[131.925378,43.111508],[131.925551,43.111488],[131.925509,43.111301]]]]}},{"type":"Feature","properties":{"fid":26,"Layer":"8 - ценная историческая застройка конец ХIX - начало ХХ века","PaperSpace":null,"SubClasses":"AcDbEntity:AcDbPolyline","Linetype":"ByLayer","EntityHandle":"56A","Text":null,"ogr_style":"PEN(c:#000000)","font":null,"angle":null,"size":null,"size_u":null,"anchor":null,"color":"#000000","underline":null,"plaintext":null,"fcolor":null,"flnum":null,"bold":null,"italic":null,"dx":null,"dx_u":null,"dy":null,"dy_u":null},"geometry":{"type":"MultiPolygon","coordinates":[[[[131.926034,43.111528],[131.926303,43.111492],[131.926275,43.111381],[131.926249,43.111385],[131.926205,43.111211],[131.92599,43.111239],[131.926013,43.111334],[131.92598,43.111338],[131.925989,43.111373],[131.926021,43.111369],[131.926032,43.111415],[131.926006,43.111419],[131.926034,43.111528]]]]}},{"type":"Feature","properties":{"fid":27,"Layer":"8 - ценная историческая застройка конец ХIX - начало ХХ века","PaperSpace":null,"SubClasses":"AcDbEntity:AcDbPolyline","Linetype":"ByLayer","EntityHandle":"56C","Text":null,"ogr_style":"PEN(c:#000000)","font":null,"angle":null,"size":null,"size_u":null,"anchor":null,"color":"#000000","underline":null,"plaintext":null,"fcolor":null,"flnum":null,"bold":null,"italic":null,"dx":null,"dx_u":null,"dy":null,"dy_u":null},"geometry":{"type":"MultiPolygon","coordinates":[[[[131.881626,43.11365],[131.881816,43.113616],[131.881796,43.113565],[131.881766,43.113572],[131.881752,43.113537],[131.881768,43.113534],[131.881775,43.113551],[131.881811,43.113543],[131.881765,43.113425],[131.881562,43.113468],[131.881626,43.11365]]]]}},{"type":"Feature","properties":{"fid":28,"Layer":"8 - ценная историческая застройка конец ХIX - начало ХХ века","PaperSpace":null,"SubClasses":"AcDbEntity:AcDbPolyline","Linetype":"ByLayer","EntityHandle":"56E","Text":null,"ogr_style":"PEN(c:#000000)","font":null,"angle":null,"size":null,"size_u":null,"anchor":null,"color":"#000000","underline":null,"plaintext":null,"fcolor":null,"flnum":null,"bold":null,"italic":null,"dx":null,"dx_u":null,"dy":null,"dy_u":null},"geometry":{"type":"MultiPolygon","coordinates":[[[[131.910331,43.116461],[131.910307,43.116466],[131.910321,43.1165],[131.910418,43.116479],[131.910429,43.116507],[131.910536,43.116484],[131.910522,43.116448],[131.910491,43.116454],[131.910481,43.116429],[131.910439,43.116437],[131.910406,43.116354],[131.910382,43.116359],[131.910376,43.116342],[131.910293,43.116359],[131.910331,43.116461]]]]}},{"type":"Feature","properties":{"fid":29,"Layer":"8 - ценная историческая застройка конец ХIX - начало ХХ века","PaperSpace":null,"SubClasses":"AcDbEntity:AcDbPolyline","Linetype":"ByLayer","EntityHandle":"570","Text":null,"ogr_style":"PEN(c:#000000)","font":null,"angle":null,"size":null,"size_u":null,"anchor":null,"color":"#000000","underline":null,"plaintext":null,"fcolor":null,"flnum":null,"bold":null,"italic":null,"dx":null,"dx_u":null,"dy":null,"dy_u":null},"geometry":{"type":"MultiPolygon","coordinates":[[[[131.912201,43.118375],[131.912254,43.11837],[131.91225,43.118346],[131.912362,43.118331],[131.912336,43.118216],[131.912228,43.118228],[131.91223,43.118241],[131.912184,43.118245],[131.912188,43.118271],[131.912173,43.118272],[131.912201,43.118375]]]]}},{"type":"Feature","properties":{"fid":30,"Layer":"8 - ценная историческая застройка конец ХIX - начало ХХ века","PaperSpace":null,"SubClasses":"AcDbEntity:AcDbPolyline","Linetype":"ByLayer","EntityHandle":"572","Text":null,"ogr_style":"PEN(c:#000000)","font":null,"angle":null,"size":null,"size_u":null,"anchor":null,"color":"#000000","underline":null,"plaintext":null,"fcolor":null,"flnum":null,"bold":null,"italic":null,"dx":null,"dx_u":null,"dy":null,"dy_u":null},"geometry":{"type":"MultiPolygon","coordinates":[[[[131.89163,43.115645],[131.891748,43.115655],[131.891754,43.115629],[131.891989,43.115651],[131.891985,43.115671],[131.892091,43.115682],[131.89212,43.115508],[131.891729,43.115473],[131.89173,43.115469],[131.891664,43.115462],[131.89163,43.115645]]]]}},{"type":"Feature","properties":{"fid":31,"Layer":"8 - ценная историческая застройка конец ХIX - начало ХХ века","PaperSpace":null,"SubClasses":"AcDbEntity:AcDbPolyline","Linetype":"ByLayer","EntityHandle":"574","Text":null,"ogr_style":"PEN(c:#000000)","font":null,"angle":null,"size":null,"size_u":null,"anchor":null,"color":"#000000","underline":null,"plaintext":null,"fcolor":null,"flnum":null,"bold":null,"italic":null,"dx":null,"dx_u":null,"dy":null,"dy_u":null},"geometry":{"type":"MultiPolygon","coordinates":[[[[131.878403,43.121261],[131.878434,43.121348],[131.878993,43.121246],[131.878962,43.121159],[131.878403,43.121261]]]]}},{"type":"Feature","properties":{"fid":32,"Layer":"8 - ценная историческая застройка конец ХIX - начало ХХ века","PaperSpace":null,"SubClasses":"AcDbEntity:AcDbPolyline","Linetype":"ByLayer","EntityHandle":"576","Text":null,"ogr_style":"PEN(c:#000000)","font":null,"angle":null,"size":null,"size_u":null,"anchor":null,"color":"#000000","underline":null,"plaintext":null,"fcolor":null,"flnum":null,"bold":null,"italic":null,"dx":null,"dx_u":null,"dy":null,"dy_u":null},"geometry":{"type":"MultiPolygon","coordinates":[[[[131.89189,43.120175],[131.891715,43.120207],[131.89175,43.120309],[131.891723,43.120314],[131.891734,43.120347],[131.891761,43.120342],[131.891796,43.120443],[131.891783,43.120446],[131.891842,43.120629],[131.891994,43.120602],[131.891943,43.120446],[131.891957,43.120444],[131.891892,43.120247],[131.891911,43.120245],[131.89189,43.120175]]]]}},{"type":"Feature","properties":{"fid":33,"Layer":"8 - ценная историческая застройка конец ХIX - начало ХХ века","PaperSpace":null,"SubClasses":"AcDbEntity:AcDbPolyline","Linetype":"ByLayer","EntityHandle":"578","Text":null,"ogr_style":"PEN(c:#000000)","font":null,"angle":null,"size":null,"size_u":null,"anchor":null,"color":"#000000","underline":null,"plaintext":null,"fcolor":null,"flnum":null,"bold":null,"italic":null,"dx":null,"dx_u":null,"dy":null,"dy_u":null},"geometry":{"type":"MultiPolygon","coordinates":[]}},{"type":"Feature","properties":{"fid":34,"Layer":"8 - ценная историческая застройка конец ХIX - начало ХХ века","PaperSpace":null,"SubClasses":"AcDbEntity:AcDbPolyline","Linetype":"ByLayer","EntityHandle":"579","Text":null,"ogr_style":"PEN(c:#000000)","font":null,"angle":null,"size":null,"size_u":null,"anchor":null,"color":"#000000","underline":null,"plaintext":null,"fcolor":null,"flnum":null,"bold":null,"italic":null,"dx":null,"dx_u":null,"dy":null,"dy_u":null},"geometry":{"type":"MultiPolygon","coordinates":[[[[131.889784,43.119424],[131.889829,43.11953],[131.889853,43.119525],[131.889865,43.119553],[131.890001,43.119525],[131.889983,43.119479],[131.889965,43.119482],[131.889952,43.119448],[131.889999,43.119438],[131.890003,43.119448],[131.890045,43.11944],[131.890021,43.119369],[131.889915,43.11939],[131.889917,43.119396],[131.889784,43.119424]]]]}},{"type":"Feature","properties":{"fid":35,"Layer":"8 - ценная историческая застройка конец ХIX - начало ХХ века","PaperSpace":null,"SubClasses":"AcDbEntity:AcDbPolyline","Linetype":"ByLayer","EntityHandle":"57B","Text":null,"ogr_style":"PEN(c:#000000)","font":null,"angle":null,"size":null,"size_u":null,"anchor":null,"color":"#000000","underline":null,"plaintext":null,"fcolor":null,"flnum":null,"bold":null,"italic":null,"dx":null,"dx_u":null,"dy":null,"dy_u":null},"geometry":{"type":"MultiPolygon","coordinates":[]}},{"type":"Feature","properties":{"fid":36,"Layer":"8 - ценная историческая застройка конец ХIX - начало ХХ века","PaperSpace":null,"SubClasses":"AcDbEntity:AcDbPolyline","Linetype":"ByLayer","EntityHandle":"57C","Text":null,"ogr_style":"PEN(c:#000000)","font":null,"angle":null,"size":null,"size_u":null,"anchor":null,"color":"#000000","underline":null,"plaintext":null,"fcolor":null,"flnum":null,"bold":null,"italic":null,"dx":null,"dx_u":null,"dy":null,"dy_u":null},"geometry":{"type":"MultiPolygon","coordinates":[]}},{"type":"Feature","properties":{"fid":37,"Layer":"8 - ценная историческая застройка конец ХIX - начало ХХ века","PaperSpace":null,"SubClasses":"AcDbEntity:AcDbPolyline","Linetype":"ByLayer","EntityHandle":"57D","Text":null,"ogr_style":"PEN(c:#000000)","font":null,"angle":null,"size":null,"size_u":null,"anchor":null,"color":"#000000","underline":null,"plaintext":null,"fcolor":null,"flnum":null,"bold":null,"italic":null,"dx":null,"dx_u":null,"dy":null,"dy_u":null},"geometry":{"type":"MultiPolygon","coordinates":[]}},{"type":"Feature","properties":{"fid":38,"Layer":"8 - ценная историческая застройка конец ХIX - начало ХХ века","PaperSpace":null,"SubClasses":"AcDbEntity:AcDbPolyline","Linetype":"ByLayer","EntityHandle":"57E","Text":null,"ogr_style":"PEN(c:#000000)","font":null,"angle":null,"size":null,"size_u":null,"anchor":null,"color":"#000000","underline":null,"plaintext":null,"fcolor":null,"flnum":null,"bold":null,"italic":null,"dx":null,"dx_u":null,"dy":null,"dy_u":null},"geometry":{"type":"MultiPolygon","coordinates":[]}},{"type":"Feature","properties":{"fid":39,"Layer":"8 - ценная историческая застройка конец ХIX - начало ХХ века","PaperSpace":null,"SubClasses":"AcDbEntity:AcDbPolyline","Linetype":"ByLayer","EntityHandle":"57F","Text":null,"ogr_style":"PEN(c:#000000)","font":null,"angle":null,"size":null,"size_u":null,"anchor":null,"color":"#000000","underline":null,"plaintext":null,"fcolor":null,"flnum":null,"bold":null,"italic":null,"dx":null,"dx_u":null,"dy":null,"dy_u":null},"geometry":{"type":"MultiPolygon","coordinates":[[[[131.920139,43.109586],[131.92081,43.109555],[131.920799,43.10943],[131.920128,43.109461],[131.920139,43.109586]]]]}},{"type":"Feature","properties":{"fid":40,"Layer":"8 - ценная историческая застройка конец ХIX - начало ХХ века","PaperSpace":null,"SubClasses":"AcDbEntity:AcDbPolyline","Linetype":"ByLayer","EntityHandle":"581","Text":null,"ogr_style":"PEN(c:#000000)","font":null,"angle":null,"size":null,"size_u":null,"anchor":null,"color":"#000000","underline":null,"plaintext":null,"fcolor":null,"flnum":null,"bold":null,"italic":null,"dx":null,"dx_u":null,"dy":null,"dy_u":null},"geometry":{"type":"MultiPolygon","coordinates":[[[[131.92081,43.109555],[131.921061,43.109543],[131.92105,43.109419],[131.920799,43.10943],[131.92081,43.109555]]]]}},{"type":"Feature","properties":{"fid":41,"Layer":"8 - ценная историческая застройка конец ХIX - начало ХХ века","PaperSpace":null,"SubClasses":"AcDbEntity:AcDbPolyline","Linetype":"ByLayer","EntityHandle":"583","Text":null,"ogr_style":"PEN(c:#000000)","font":null,"angle":null,"size":null,"size_u":null,"anchor":null,"color":"#000000","underline":null,"plaintext":null,"fcolor":null,"flnum":null,"bold":null,"italic":null,"dx":null,"dx_u":null,"dy":null,"dy_u":null},"geometry":{"type":"MultiPolygon","coordinates":[[[[131.92105,43.109419],[131.921061,43.109543],[131.921577,43.109512],[131.921563,43.109391],[131.92105,43.109419]]]]}},{"type":"Feature","properties":{"fid":42,"Layer":"8 - ценная историческая застройка конец ХIX - начало ХХ века","PaperSpace":null,"SubClasses":"AcDbEntity:AcDbPolyline","Linetype":"ByLayer","EntityHandle":"585","Text":null,"ogr_style":"PEN(c:#000000)","font":null,"angle":null,"size":null,"size_u":null,"anchor":null,"color":"#000000","underline":null,"plaintext":null,"fcolor":null,"flnum":null,"bold":null,"italic":null,"dx":null,"dx_u":null,"dy":null,"dy_u":null},"geometry":{"type":"MultiPolygon","coordinates":[[[[131.921564,43.109396],[131.921577,43.109512],[131.922084,43.10949],[131.922073,43.109371],[131.921564,43.109396]]]]}},{"type":"Feature","properties":{"fid":43,"Layer":"8 - ценная историческая застройка конец ХIX - начало ХХ века","PaperSpace":null,"SubClasses":"AcDbEntity:AcDbPolyline","Linetype":"ByLayer","EntityHandle":"587","Text":null,"ogr_style":"PEN(c:#000000)","font":null,"angle":null,"size":null,"size_u":null,"anchor":null,"color":"#000000","underline":null,"plaintext":null,"fcolor":null,"flnum":null,"bold":null,"italic":null,"dx":null,"dx_u":null,"dy":null,"dy_u":null},"geometry":{"type":"MultiPolygon","coordinates":[[[[131.922244,43.10974],[131.923205,43.109691],[131.923194,43.109572],[131.922232,43.109621],[131.922244,43.10974]]]]}},{"type":"Feature","properties":{"fid":44,"Layer":"8 - ценная историческая застройка конец ХIX - начало ХХ века","PaperSpace":null,"SubClasses":"AcDbEntity:AcDbPolyline","Linetype":"ByLayer","EntityHandle":"589","Text":null,"ogr_style":"PEN(c:#000000)","font":null,"angle":null,"size":null,"size_u":null,"anchor":null,"color":"#000000","underline":null,"plaintext":null,"fcolor":null,"flnum":null,"bold":null,"italic":null,"dx":null,"dx_u":null,"dy":null,"dy_u":null},"geometry":{"type":"MultiPolygon","coordinates":[[[[131.923367,43.109277],[131.92338,43.109412],[131.923807,43.109391],[131.923795,43.109256],[131.923367,43.109277]]]]}},{"type":"Feature","properties":{"fid":45,"Layer":"8 - ценная историческая застройка конец ХIX - начало ХХ века","PaperSpace":null,"SubClasses":"AcDbEntity:AcDbPolyline","Linetype":"ByLayer","EntityHandle":"58B","Text":null,"ogr_style":"PEN(c:#000000)","font":null,"angle":null,"size":null,"size_u":null,"anchor":null,"color":"#000000","underline":null,"plaintext":null,"fcolor":null,"flnum":null,"bold":null,"italic":null,"dx":null,"dx_u":null,"dy":null,"dy_u":null},"geometry":{"type":"MultiPolygon","coordinates":[[[[131.922219,43.109483],[131.923181,43.109436],[131.92317,43.109316],[131.922208,43.109363],[131.922219,43.109483]]]]}},{"type":"Feature","properties":{"fid":46,"Layer":"8 - ценная историческая застройка конец ХIX - начало ХХ века","PaperSpace":null,"SubClasses":"AcDbEntity:AcDbPolyline","Linetype":"ByLayer","EntityHandle":"58D","Text":null,"ogr_style":"PEN(c:#000000)","font":null,"angle":null,"size":null,"size_u":null,"anchor":null,"color":"#000000","underline":null,"plaintext":null,"fcolor":null,"flnum":null,"bold":null,"italic":null,"dx":null,"dx_u":null,"dy":null,"dy_u":null},"geometry":{"type":"MultiPolygon","coordinates":[[[[131.883342,43.119572],[131.883412,43.119768],[131.88353,43.119745],[131.883458,43.119549],[131.883342,43.119572]]]]}},{"type":"Feature","properties":{"fid":47,"Layer":"8 - ценная историческая застройка конец ХIX - начало ХХ века","PaperSpace":null,"SubClasses":"AcDbEntity:AcDbPolyline","Linetype":"ByLayer","EntityHandle":"58F","Text":null,"ogr_style":"PEN(c:#000000)","font":null,"angle":null,"size":null,"size_u":null,"anchor":null,"color":"#000000","underline":null,"plaintext":null,"fcolor":null,"flnum":null,"bold":null,"italic":null,"dx":null,"dx_u":null,"dy":null,"dy_u":null},"geometry":{"type":"MultiPolygon","coordinates":[[[[131.882884,43.118828],[131.88257,43.118896],[131.882615,43.119009],[131.882887,43.11895],[131.882918,43.118921],[131.882908,43.118893],[131.882954,43.118882],[131.883017,43.118826],[131.883007,43.118801],[131.882884,43.118828]]]]}},{"type":"Feature","properties":{"fid":48,"Layer":"8 - ценная историческая застройка конец ХIX - начало ХХ века","PaperSpace":null,"SubClasses":"AcDbEntity:AcDbPolyline","Linetype":"ByLayer","EntityHandle":"591","Text":null,"ogr_style":"PEN(c:#000000)","font":null,"angle":null,"size":null,"size_u":null,"anchor":null,"color":"#000000","underline":null,"plaintext":null,"fcolor":null,"flnum":null,"bold":null,"italic":null,"dx":null,"dx_u":null,"dy":null,"dy_u":null},"geometry":{"type":"MultiPolygon","coordinates":[[[[131.882148,43.118982],[131.882194,43.119092],[131.882226,43.119085],[131.882231,43.119097],[131.882318,43.119077],[131.882314,43.119065],[131.88245,43.119037],[131.882458,43.119057],[131.882511,43.119045],[131.882504,43.119028],[131.882612,43.119005],[131.88257,43.118896],[131.88253,43.118905],[131.882528,43.118901],[131.882148,43.118982]]]]}},{"type":"Feature","properties":{"fid":49,"Layer":"8 - ценная историческая застройка конец ХIX - начало ХХ века","PaperSpace":null,"SubClasses":"AcDbEntity:AcDbPolyline","Linetype":"ByLayer","EntityHandle":"593","Text":null,"ogr_style":"PEN(c:#000000)","font":null,"angle":null,"size":null,"size_u":null,"anchor":null,"color":"#000000","underline":null,"plaintext":null,"fcolor":null,"flnum":null,"bold":null,"italic":null,"dx":null,"dx_u":null,"dy":null,"dy_u":null},"geometry":{"type":"MultiPolygon","coordinates":[[[[131.881916,43.121051],[131.882166,43.121001],[131.882127,43.120889],[131.881873,43.120937],[131.881916,43.121051]]]]}},{"type":"Feature","properties":{"fid":50,"Layer":"8 - ценная историческая застройка конец ХIX - начало ХХ века","PaperSpace":null,"SubClasses":"AcDbEntity:AcDbPolyline","Linetype":"ByLayer","EntityHandle":"595","Text":null,"ogr_style":"PEN(c:#000000)","font":null,"angle":null,"size":null,"size_u":null,"anchor":null,"color":"#000000","underline":null,"plaintext":null,"fcolor":null,"flnum":null,"bold":null,"italic":null,"dx":null,"dx_u":null,"dy":null,"dy_u":null},"geometry":{"type":"MultiPolygon","coordinates":[[[[131.887479,43.120054],[131.88754,43.120223],[131.887721,43.120188],[131.887707,43.120144],[131.887686,43.120148],[131.887664,43.12008],[131.887626,43.120087],[131.887606,43.120031],[131.887479,43.120054]]]]}},{"type":"Feature","properties":{"fid":51,"Layer":"8 - ценная историческая застройка конец ХIX - начало ХХ века","PaperSpace":null,"SubClasses":"AcDbEntity:AcDbPolyline","Linetype":"ByLayer","EntityHandle":"597","Text":null,"ogr_style":"PEN(c:#000000)","font":null,"angle":null,"size":null,"size_u":null,"anchor":null,"color":"#000000","underline":null,"plaintext":null,"fcolor":null,"flnum":null,"bold":null,"italic":null,"dx":null,"dx_u":null,"dy":null,"dy_u":null},"geometry":{"type":"MultiPolygon","coordinates":[[[[131.887642,43.1203],[131.887537,43.120323],[131.887544,43.120341],[131.88756,43.120337],[131.887573,43.120373],[131.887796,43.120316],[131.887772,43.120267],[131.887642,43.1203]]]]}},{"type":"Feature","properties":{"fid":52,"Layer":"8 - ценная историческая застройка конец ХIX - начало ХХ века","PaperSpace":null,"SubClasses":"AcDbEntity:AcDbPolyline","Linetype":"ByLayer","EntityHandle":"599","Text":null,"ogr_style":"PEN(c:#000000)","font":null,"angle":null,"size":null,"size_u":null,"anchor":null,"color":"#000000","underline":null,"plaintext":null,"fcolor":null,"flnum":null,"bold":null,"italic":null,"dx":null,"dx_u":null,"dy":null,"dy_u":null},"geometry":{"type":"MultiPolygon","coordinates":[[[[131.887544,43.120341],[131.887535,43.120319],[131.887462,43.120334],[131.887487,43.120399],[131.887559,43.120384],[131.887558,43.12038],[131.887575,43.120376],[131.88756,43.120337],[131.887544,43.120341]]]]}},{"type":"Feature","properties":{"fid":53,"Layer":"8 - ценная историческая застройка конец ХIX - начало ХХ века","PaperSpace":null,"SubClasses":"AcDbEntity:AcDbPolyline","Linetype":"ByLayer","EntityHandle":"59B","Text":null,"ogr_style":"PEN(c:#000000)","font":null,"angle":null,"size":null,"size_u":null,"anchor":null,"color":"#000000","underline":null,"plaintext":null,"fcolor":null,"flnum":null,"bold":null,"italic":null,"dx":null,"dx_u":null,"dy":null,"dy_u":null},"geometry":{"type":"MultiPolygon","coordinates":[[[[131.887962,43.120476],[131.888038,43.120458],[131.888032,43.120445],[131.888093,43.120431],[131.888016,43.120265],[131.887852,43.120307],[131.887869,43.120345],[131.887875,43.120343],[131.887899,43.120395],[131.88792,43.12039],[131.887962,43.120476]]]]}},{"type":"Feature","properties":{"fid":54,"Layer":"8 - ценная историческая застройка конец ХIX - начало ХХ века","PaperSpace":null,"SubClasses":"AcDbEntity:AcDbPolyline","Linetype":"ByLayer","EntityHandle":"59D","Text":null,"ogr_style":"PEN(c:#000000)","font":null,"angle":null,"size":null,"size_u":null,"anchor":null,"color":"#000000","underline":null,"plaintext":null,"fcolor":null,"flnum":null,"bold":null,"italic":null,"dx":null,"dx_u":null,"dy":null,"dy_u":null},"geometry":{"type":"MultiPolygon","coordinates":[[[[131.885405,43.118605],[131.885378,43.118522],[131.885286,43.118537],[131.885312,43.118622],[131.885405,43.118605]]]]}},{"type":"Feature","properties":{"fid":55,"Layer":"8 - ценная историческая застройка конец ХIX - начало ХХ века","PaperSpace":null,"SubClasses":"AcDbEntity:AcDbPolyline","Linetype":"ByLayer","EntityHandle":"59F","Text":null,"ogr_style":"PEN(c:#000000)","font":null,"angle":null,"size":null,"size_u":null,"anchor":null,"color":"#000000","underline":null,"plaintext":null,"fcolor":null,"flnum":null,"bold":null,"italic":null,"dx":null,"dx_u":null,"dy":null,"dy_u":null},"geometry":{"type":"MultiPolygon","coordinates":[[[[131.885058,43.118809],[131.884837,43.118807],[131.884835,43.118894],[131.885056,43.118896],[131.885058,43.118809]]]]}},{"type":"Feature","properties":{"fid":56,"Layer":"8 - ценная историческая застройка конец ХIX - начало ХХ века","PaperSpace":null,"SubClasses":"AcDbEntity:AcDbPolyline","Linetype":"ByLayer","EntityHandle":"5A1","Text":null,"ogr_style":"PEN(c:#000000)","font":null,"angle":null,"size":null,"size_u":null,"anchor":null,"color":"#000000","underline":null,"plaintext":null,"fcolor":null,"flnum":null,"bold":null,"italic":null,"dx":null,"dx_u":null,"dy":null,"dy_u":null},"geometry":{"type":"MultiPolygon","coordinates":[[[[131.884583,43.11926],[131.884667,43.119272],[131.884719,43.119094],[131.884674,43.119087],[131.884665,43.119113],[131.884627,43.119108],[131.884583,43.11926]]]]}},{"type":"Feature","properties":{"fid":57,"Layer":"8 - ценная историческая застройка конец ХIX - начало ХХ века","PaperSpace":null,"SubClasses":"AcDbEntity:AcDbPolyline","Linetype":"ByLayer","EntityHandle":"5A3","Text":null,"ogr_style":"PEN(c:#000000)","font":null,"angle":null,"size":null,"size_u":null,"anchor":null,"color":"#000000","underline":null,"plaintext":null,"fcolor":null,"flnum":null,"bold":null,"italic":null,"dx":null,"dx_u":null,"dy":null,"dy_u":null},"geometry":{"type":"MultiPolygon","coordinates":[[[[131.884986,43.118895],[131.884932,43.119101],[131.885025,43.119115],[131.885083,43.118898],[131.884986,43.118895]]]]}},{"type":"Feature","properties":{"fid":58,"Layer":"8 - ценная историческая застройка конец ХIX - начало ХХ века","PaperSpace":null,"SubClasses":"AcDbEntity:AcDbPolyline","Linetype":"ByLayer","EntityHandle":"5A5","Text":null,"ogr_style":"PEN(c:#000000)","font":null,"angle":null,"size":null,"size_u":null,"anchor":null,"color":"#000000","underline":null,"plaintext":null,"fcolor":null,"flnum":null,"bold":null,"italic":null,"dx":null,"dx_u":null,"dy":null,"dy_u":null},"geometry":{"type":"MultiPolygon","coordinates":[[[[131.884595,43.119018],[131.884909,43.119027],[131.884917,43.11893],[131.8846,43.118922],[131.884595,43.119018]]]]}},{"type":"Feature","properties":{"fid":59,"Layer":"8 - ценная историческая застройка конец ХIX - начало ХХ века","PaperSpace":null,"SubClasses":"AcDbEntity:AcDbPolyline","Linetype":"ByLayer","EntityHandle":"5A7","Text":null,"ogr_style":"PEN(c:#000000)","font":null,"angle":null,"size":null,"size_u":null,"anchor":null,"color":"#000000","underline":null,"plaintext":null,"fcolor":null,"flnum":null,"bold":null,"italic":null,"dx":null,"dx_u":null,"dy":null,"dy_u":null},"geometry":{"type":"MultiPolygon","coordinates":[[[[131.884446,43.119259],[131.884519,43.11927],[131.884585,43.119054],[131.884508,43.119042],[131.884446,43.119259]]]]}},{"type":"Feature","properties":{"fid":60,"Layer":"8 - ценная историческая застройка конец ХIX - начало ХХ века","PaperSpace":null,"SubClasses":"AcDbEntity:AcDbPolyline","Linetype":"ByLayer","EntityHandle":"5A9","Text":null,"ogr_style":"PEN(c:#000000)","font":null,"angle":null,"size":null,"size_u":null,"anchor":null,"color":"#000000","underline":null,"plaintext":null,"fcolor":null,"flnum":null,"bold":null,"italic":null,"dx":null,"dx_u":null,"dy":null,"dy_u":null},"geometry":{"type":"MultiPolygon","coordinates":[]}},{"type":"Feature","properties":{"fid":61,"Layer":"8 - ценная историческая застройка конец ХIX - начало ХХ века","PaperSpace":null,"SubClasses":"AcDbEntity:AcDbPolyline","Linetype":"ByLayer","EntityHandle":"5AA","Text":null,"ogr_style":"PEN(c:#000000)","font":null,"angle":null,"size":null,"size_u":null,"anchor":null,"color":"#000000","underline":null,"plaintext":null,"fcolor":null,"flnum":null,"bold":null,"italic":null,"dx":null,"dx_u":null,"dy":null,"dy_u":null},"geometry":{"type":"MultiPolygon","coordinates":[]}},{"type":"Feature","properties":{"fid":62,"Layer":"8 - ценная историческая застройка конец ХIX - начало ХХ века","PaperSpace":null,"SubClasses":"AcDbEntity:AcDbPolyline","Linetype":"ByLayer","EntityHandle":"5AB","Text":null,"ogr_style":"PEN(c:#000000)","font":null,"angle":null,"size":null,"size_u":null,"anchor":null,"color":"#000000","underline":null,"plaintext":null,"fcolor":null,"flnum":null,"bold":null,"italic":null,"dx":null,"dx_u":null,"dy":null,"dy_u":null},"geometry":{"type":"MultiPolygon","coordinates":[]}},{"type":"Feature","properties":{"fid":63,"Layer":"8 - ценная историческая застройка конец ХIX - начало ХХ века","PaperSpace":null,"SubClasses":"AcDbEntity:AcDbPolyline","Linetype":"ByLayer","EntityHandle":"5AC","Text":null,"ogr_style":"PEN(c:#000000)","font":null,"angle":null,"size":null,"size_u":null,"anchor":null,"color":"#000000","underline":null,"plaintext":null,"fcolor":null,"flnum":null,"bold":null,"italic":null,"dx":null,"dx_u":null,"dy":null,"dy_u":null},"geometry":{"type":"MultiPolygon","coordinates":[]}},{"type":"Feature","properties":{"fid":64,"Layer":"8 - ценная историческая застройка конец ХIX - начало ХХ века","PaperSpace":null,"SubClasses":"AcDbEntity:AcDbPolyline","Linetype":"ByLayer","EntityHandle":"5AD","Text":null,"ogr_style":"PEN(c:#000000)","font":null,"angle":null,"size":null,"size_u":null,"anchor":null,"color":"#000000","underline":null,"plaintext":null,"fcolor":null,"flnum":null,"bold":null,"italic":null,"dx":null,"dx_u":null,"dy":null,"dy_u":null},"geometry":{"type":"MultiPolygon","coordinates":[]}},{"type":"Feature","properties":{"fid":65,"Layer":"8 - ценная историческая застройка конец ХIX - начало ХХ века","PaperSpace":null,"SubClasses":"AcDbEntity:AcDbPolyline","Linetype":"ByLayer","EntityHandle":"5AE","Text":null,"ogr_style":"PEN(c:#000000)","font":null,"angle":null,"size":null,"size_u":null,"anchor":null,"color":"#000000","underline":null,"plaintext":null,"fcolor":null,"flnum":null,"bold":null,"italic":null,"dx":null,"dx_u":null,"dy":null,"dy_u":null},"geometry":{"type":"MultiPolygon","coordinates":[]}},{"type":"Feature","properties":{"fid":66,"Layer":"8 - ценная историческая застройка конец ХIX - начало ХХ века","PaperSpace":null,"SubClasses":"AcDbEntity:AcDbPolyline","Linetype":"ByLayer","EntityHandle":"5AF","Text":null,"ogr_style":"PEN(c:#000000)","font":null,"angle":null,"size":null,"size_u":null,"anchor":null,"color":"#000000","underline":null,"plaintext":null,"fcolor":null,"flnum":null,"bold":null,"italic":null,"dx":null,"dx_u":null,"dy":null,"dy_u":null},"geometry":{"type":"MultiPolygon","coordinates":[]}},{"type":"Feature","properties":{"fid":67,"Layer":"8 - ценная историческая застройка конец ХIX - начало ХХ века","PaperSpace":null,"SubClasses":"AcDbEntity:AcDbPolyline","Linetype":"ByLayer","EntityHandle":"5B0","Text":null,"ogr_style":"PEN(c:#000000)","font":null,"angle":null,"size":null,"size_u":null,"anchor":null,"color":"#000000","underline":null,"plaintext":null,"fcolor":null,"flnum":null,"bold":null,"italic":null,"dx":null,"dx_u":null,"dy":null,"dy_u":null},"geometry":{"type":"MultiPolygon","coordinates":[]}},{"type":"Feature","properties":{"fid":68,"Layer":"8 - ценная историческая застройка конец ХIX - начало ХХ века","PaperSpace":null,"SubClasses":"AcDbEntity:AcDbPolyline","Linetype":"ByLayer","EntityHandle":"5B1","Text":null,"ogr_style":"PEN(c:#000000)","font":null,"angle":null,"size":null,"size_u":null,"anchor":null,"color":"#000000","underline":null,"plaintext":null,"fcolor":null,"flnum":null,"bold":null,"italic":null,"dx":null,"dx_u":null,"dy":null,"dy_u":null},"geometry":{"type":"MultiPolygon","coordinates":[]}},{"type":"Feature","properties":{"fid":69,"Layer":"8 - ценная историческая застройка конец ХIX - начало ХХ века","PaperSpace":null,"SubClasses":"AcDbEntity:AcDbPolyline","Linetype":"ByLayer","EntityHandle":"5B2","Text":null,"ogr_style":"PEN(c:#000000)","font":null,"angle":null,"size":null,"size_u":null,"anchor":null,"color":"#000000","underline":null,"plaintext":null,"fcolor":null,"flnum":null,"bold":null,"italic":null,"dx":null,"dx_u":null,"dy":null,"dy_u":null},"geometry":{"type":"MultiPolygon","coordinates":[]}},{"type":"Feature","properties":{"fid":70,"Layer":"8 - ценная историческая застройка конец ХIX - начало ХХ века","PaperSpace":null,"SubClasses":"AcDbEntity:AcDbPolyline","Linetype":"ByLayer","EntityHandle":"5B3","Text":null,"ogr_style":"PEN(c:#000000)","font":null,"angle":null,"size":null,"size_u":null,"anchor":null,"color":"#000000","underline":null,"plaintext":null,"fcolor":null,"flnum":null,"bold":null,"italic":null,"dx":null,"dx_u":null,"dy":null,"dy_u":null},"geometry":{"type":"MultiPolygon","coordinates":[[[[131.910253,43.11503],[131.910305,43.115016],[131.910318,43.115042],[131.910442,43.115008],[131.910428,43.114979],[131.910395,43.114987],[131.910313,43.114822],[131.910361,43.114809],[131.910346,43.114781],[131.910206,43.11482],[131.910217,43.114842],[131.910168,43.114857],[131.910253,43.11503]]]]}},{"type":"Feature","properties":{"fid":71,"Layer":"8 - ценная историческая застройка конец ХIX - начало ХХ века","PaperSpace":null,"SubClasses":"AcDbEntity:AcDbPolyline","Linetype":"ByLayer","EntityHandle":"5B5","Text":null,"ogr_style":"PEN(c:#000000)","font":null,"angle":null,"size":null,"size_u":null,"anchor":null,"color":"#000000","underline":null,"plaintext":null,"fcolor":null,"flnum":null,"bold":null,"italic":null,"dx":null,"dx_u":null,"dy":null,"dy_u":null},"geometry":{"type":"MultiPolygon","coordinates":[]}},{"type":"Feature","properties":{"fid":72,"Layer":"8 - ценная историческая застройка конец ХIX - начало ХХ века","PaperSpace":null,"SubClasses":"AcDbEntity:AcDbPolyline","Linetype":"ByLayer","EntityHandle":"5B6","Text":null,"ogr_style":"PEN(c:#000000)","font":null,"angle":null,"size":null,"size_u":null,"anchor":null,"color":"#000000","underline":null,"plaintext":null,"fcolor":null,"flnum":null,"bold":null,"italic":null,"dx":null,"dx_u":null,"dy":null,"dy_u":null},"geometry":{"type":"MultiPolygon","coordinates":[]}},{"type":"Feature","properties":{"fid":73,"Layer":"8 - ценная историческая застройка конец ХIX - начало ХХ века","PaperSpace":null,"SubClasses":"AcDbEntity:AcDbPolyline","Linetype":"ByLayer","EntityHandle":"5B7","Text":null,"ogr_style":"PEN(c:#000000)","font":null,"angle":null,"size":null,"size_u":null,"anchor":null,"color":"#000000","underline":null,"plaintext":null,"fcolor":null,"flnum":null,"bold":null,"italic":null,"dx":null,"dx_u":null,"dy":null,"dy_u":null},"geometry":{"type":"MultiPolygon","coordinates":[]}},{"type":"Feature","properties":{"fid":74,"Layer":"8 - ценная историческая застройка конец ХIX - начало ХХ века","PaperSpace":null,"SubClasses":"AcDbEntity:AcDbPolyline","Linetype":"ByLayer","EntityHandle":"5B8","Text":null,"ogr_style":"PEN(c:#000000)","font":null,"angle":null,"size":null,"size_u":null,"anchor":null,"color":"#000000","underline":null,"plaintext":null,"fcolor":null,"flnum":null,"bold":null,"italic":null,"dx":null,"dx_u":null,"dy":null,"dy_u":null},"geometry":{"type":"MultiPolygon","coordinates":[]}},{"type":"Feature","properties":{"fid":75,"Layer":"8 - ценная историческая застройка конец ХIX - начало ХХ века","PaperSpace":null,"SubClasses":"AcDbEntity:AcDbPolyline","Linetype":"ByLayer","EntityHandle":"5B9","Text":null,"ogr_style":"PEN(c:#000000)","font":null,"angle":null,"size":null,"size_u":null,"anchor":null,"color":"#000000","underline":null,"plaintext":null,"fcolor":null,"flnum":null,"bold":null,"italic":null,"dx":null,"dx_u":null,"dy":null,"dy_u":null},"geometry":{"type":"MultiPolygon","coordinates":[]}},{"type":"Feature","properties":{"fid":76,"Layer":"8 - ценная историческая застройка конец ХIX - начало ХХ века","PaperSpace":null,"SubClasses":"AcDbEntity:AcDbPolyline","Linetype":"ByLayer","EntityHandle":"5BA","Text":null,"ogr_style":"PEN(c:#000000)","font":null,"angle":null,"size":null,"size_u":null,"anchor":null,"color":"#000000","underline":null,"plaintext":null,"fcolor":null,"flnum":null,"bold":null,"italic":null,"dx":null,"dx_u":null,"dy":null,"dy_u":null},"geometry":{"type":"MultiPolygon","coordinates":[]}},{"type":"Feature","properties":{"fid":77,"Layer":"8 - ценная историческая застройка конец ХIX - начало ХХ века","PaperSpace":null,"SubClasses":"AcDbEntity:AcDbPolyline","Linetype":"ByLayer","EntityHandle":"5BB","Text":null,"ogr_style":"PEN(c:#000000)","font":null,"angle":null,"size":null,"size_u":null,"anchor":null,"color":"#000000","underline":null,"plaintext":null,"fcolor":null,"flnum":null,"bold":null,"italic":null,"dx":null,"dx_u":null,"dy":null,"dy_u":null},"geometry":{"type":"MultiPolygon","coordinates":[[[[131.881029,43.121853],[131.88091,43.121879],[131.880935,43.121945],[131.880832,43.121967],[131.880854,43.122029],[131.880874,43.122025],[131.880911,43.122129],[131.88109,43.122091],[131.881112,43.122069],[131.881029,43.121853]]]]}},{"type":"Feature","properties":{"fid":78,"Layer":"8 - ценная историческая застройка конец ХIX - начало ХХ века","PaperSpace":null,"SubClasses":"AcDbEntity:AcDbPolyline","Linetype":"ByLayer","EntityHandle":"5BD","Text":null,"ogr_style":"PEN(c:#000000)","font":null,"angle":null,"size":null,"size_u":null,"anchor":null,"color":"#000000","underline":null,"plaintext":null,"fcolor":null,"flnum":null,"bold":null,"italic":null,"dx":null,"dx_u":null,"dy":null,"dy_u":null},"geometry":{"type":"MultiPolygon","coordinates":[[[[131.920477,43.11043],[131.920893,43.110398],[131.920879,43.110296],[131.920462,43.110327],[131.920477,43.11043]]]]}},{"type":"Feature","properties":{"fid":79,"Layer":"8 - ценная историческая застройка конец ХIX - начало ХХ века","PaperSpace":null,"SubClasses":"AcDbEntity:AcDbPolyline","Linetype":"ByLayer","EntityHandle":"5BF","Text":null,"ogr_style":"PEN(c:#000000)","font":null,"angle":null,"size":null,"size_u":null,"anchor":null,"color":"#000000","underline":null,"plaintext":null,"fcolor":null,"flnum":null,"bold":null,"italic":null,"dx":null,"dx_u":null,"dy":null,"dy_u":null},"geometry":{"type":"MultiPolygon","coordinates":[[[[131.89025,43.120115],[131.890081,43.120143],[131.890139,43.120313],[131.890306,43.120283],[131.89025,43.120115]]]]}},{"type":"Feature","properties":{"fid":80,"Layer":"8 - ценная историческая застройка конец ХIX - начало ХХ века","PaperSpace":null,"SubClasses":"AcDbEntity:AcDbPolyline","Linetype":"ByLayer","EntityHandle":"5C1","Text":null,"ogr_style":"PEN(c:#000000)","font":null,"angle":null,"size":null,"size_u":null,"anchor":null,"color":"#000000","underline":null,"plaintext":null,"fcolor":null,"flnum":null,"bold":null,"italic":null,"dx":null,"dx_u":null,"dy":null,"dy_u":null},"geometry":{"type":"MultiPolygon","coordinates":[[[[131.908673,43.116552],[131.908709,43.11662],[131.908738,43.116611],[131.908746,43.116626],[131.908825,43.116602],[131.90878,43.116519],[131.908673,43.116552]]]]}},{"type":"Feature","properties":{"fid":81,"Layer":"8 - ценная историческая застройка конец ХIX - начало ХХ века","PaperSpace":null,"SubClasses":"AcDbEntity:AcDbPolyline","Linetype":"ByLayer","EntityHandle":"5C3","Text":null,"ogr_style":"PEN(c:#000000)","font":null,"angle":null,"size":null,"size_u":null,"anchor":null,"color":"#000000","underline":null,"plaintext":null,"fcolor":null,"flnum":null,"bold":null,"italic":null,"dx":null,"dx_u":null,"dy":null,"dy_u":null},"geometry":{"type":"MultiPolygon","coordinates":[[[[131.909847,43.117295],[131.909764,43.117318],[131.909739,43.117263],[131.909729,43.117259],[131.909679,43.117269],[131.909674,43.117277],[131.909676,43.117283],[131.909635,43.117292],[131.909655,43.11734],[131.909682,43.117335],[131.909705,43.117392],[131.909784,43.117374],[131.90979,43.117385],[131.909879,43.117359],[131.909847,43.117295]]]]}},{"type":"Feature","properties":{"fid":82,"Layer":"8 - ценная историческая застройка конец ХIX - начало ХХ века","PaperSpace":null,"SubClasses":"AcDbEntity:AcDbPolyline","Linetype":"ByLayer","EntityHandle":"5C5","Text":null,"ogr_style":"PEN(c:#000000)","font":null,"angle":null,"size":null,"size_u":null,"anchor":null,"color":"#000000","underline":null,"plaintext":null,"fcolor":null,"flnum":null,"bold":null,"italic":null,"dx":null,"dx_u":null,"dy":null,"dy_u":null},"geometry":{"type":"MultiPolygon","coordinates":[[[[131.91018,43.116862],[131.910061,43.116898],[131.910118,43.117],[131.910237,43.116965],[131.91018,43.116862]]]]}},{"type":"Feature","properties":{"fid":83,"Layer":"8 - ценная историческая застройка конец ХIX - начало ХХ века","PaperSpace":null,"SubClasses":"AcDbEntity:AcDbPolyline","Linetype":"ByLayer","EntityHandle":"5C7","Text":null,"ogr_style":"PEN(c:#000000)","font":null,"angle":null,"size":null,"size_u":null,"anchor":null,"color":"#000000","underline":null,"plaintext":null,"fcolor":null,"flnum":null,"bold":null,"italic":null,"dx":null,"dx_u":null,"dy":null,"dy_u":null},"geometry":{"type":"MultiPolygon","coordinates":[[[[131.913004,43.116393],[131.913086,43.116489],[131.913327,43.11637],[131.913352,43.116397],[131.91342,43.11636],[131.913366,43.11631],[131.913339,43.116326],[131.913278,43.116268],[131.913187,43.11631],[131.913201,43.116325],[131.913116,43.116366],[131.9131,43.116348],[131.913004,43.116393]]]]}},{"type":"Feature","properties":{"fid":84,"Layer":"8 - ценная историческая застройка конец ХIX - начало ХХ века","PaperSpace":null,"SubClasses":"AcDbEntity:AcDbPolyline","Linetype":"ByLayer","EntityHandle":"5C9","Text":null,"ogr_style":"PEN(c:#000000)","font":null,"angle":null,"size":null,"size_u":null,"anchor":null,"color":"#000000","underline":null,"plaintext":null,"fcolor":null,"flnum":null,"bold":null,"italic":null,"dx":null,"dx_u":null,"dy":null,"dy_u":null},"geometry":{"type":"MultiPolygon","coordinates":[[[[131.911775,43.115553],[131.912025,43.115488],[131.91197,43.115377],[131.911721,43.11544],[131.911775,43.115553]]]]}},{"type":"Feature","properties":{"fid":85,"Layer":"8 - ценная историческая застройка конец ХIX - начало ХХ века","PaperSpace":null,"SubClasses":"AcDbEntity:AcDbPolyline","Linetype":"ByLayer","EntityHandle":"5CB","Text":null,"ogr_style":"PEN(c:#000000)","font":null,"angle":null,"size":null,"size_u":null,"anchor":null,"color":"#000000","underline":null,"plaintext":null,"fcolor":null,"flnum":null,"bold":null,"italic":null,"dx":null,"dx_u":null,"dy":null,"dy_u":null},"geometry":{"type":"MultiPolygon","coordinates":[[[[131.899822,43.114725],[131.899969,43.114761],[131.899996,43.114698],[131.900024,43.114704],[131.900027,43.114699],[131.900059,43.114706],[131.900109,43.11459],[131.899911,43.114546],[131.899898,43.114574],[131.899884,43.114571],[131.899822,43.114725]]]]}},{"type":"Feature","properties":{"fid":86,"Layer":"8 - ценная историческая застройка конец ХIX - начало ХХ века","PaperSpace":null,"SubClasses":"AcDbEntity:AcDbPolyline","Linetype":"ByLayer","EntityHandle":"5CD","Text":null,"ogr_style":"PEN(c:#000000)","font":null,"angle":null,"size":null,"size_u":null,"anchor":null,"color":"#000000","underline":null,"plaintext":null,"fcolor":null,"flnum":null,"bold":null,"italic":null,"dx":null,"dx_u":null,"dy":null,"dy_u":null},"geometry":{"type":"MultiPolygon","coordinates":[[[[131.894649,43.1175],[131.894726,43.117711],[131.894882,43.117681],[131.894806,43.117469],[131.894649,43.1175]]]]}},{"type":"Feature","properties":{"fid":87,"Layer":"8 - ценная историческая застройка конец ХIX - начало ХХ века","PaperSpace":null,"SubClasses":"AcDbEntity:AcDbPolyline","Linetype":"ByLayer","EntityHandle":"5CF","Text":null,"ogr_style":"PEN(c:#000000)","font":null,"angle":null,"size":null,"size_u":null,"anchor":null,"color":"#000000","underline":null,"plaintext":null,"fcolor":null,"flnum":null,"bold":null,"italic":null,"dx":null,"dx_u":null,"dy":null,"dy_u":null},"geometry":{"type":"MultiPolygon","coordinates":[[[[131.887602,43.118637],[131.887679,43.118664],[131.887666,43.118683],[131.887705,43.118696],[131.887714,43.118683],[131.887813,43.118717],[131.887876,43.118619],[131.887662,43.118545],[131.887602,43.118637]]]]}},{"type":"Feature","properties":{"fid":88,"Layer":"8 - ценная историческая застройка конец ХIX - начало ХХ века","PaperSpace":null,"SubClasses":"AcDbEntity:AcDbPolyline","Linetype":"ByLayer","EntityHandle":"5D1","Text":null,"ogr_style":"PEN(c:#000000)","font":null,"angle":null,"size":null,"size_u":null,"anchor":null,"color":"#000000","underline":null,"plaintext":null,"fcolor":null,"flnum":null,"bold":null,"italic":null,"dx":null,"dx_u":null,"dy":null,"dy_u":null},"geometry":{"type":"MultiPolygon","coordinates":[[[[131.890066,43.1184],[131.890113,43.118443],[131.890104,43.118448],[131.890141,43.118483],[131.89015,43.118478],[131.890185,43.11851],[131.890435,43.118365],[131.890302,43.118241],[131.890251,43.118271],[131.890266,43.118284],[131.890158,43.118347],[131.890143,43.118333],[131.890094,43.118362],[131.890108,43.118375],[131.890066,43.1184]]]]}},{"type":"Feature","properties":{"fid":89,"Layer":"8 - ценная историческая застройка конец ХIX - начало ХХ века","PaperSpace":null,"SubClasses":"AcDbEntity:AcDbPolyline","Linetype":"ByLayer","EntityHandle":"5D3","Text":null,"ogr_style":"PEN(c:#000000)","font":null,"angle":null,"size":null,"size_u":null,"anchor":null,"color":"#000000","underline":null,"plaintext":null,"fcolor":null,"flnum":null,"bold":null,"italic":null,"dx":null,"dx_u":null,"dy":null,"dy_u":null},"geometry":{"type":"MultiPolygon","coordinates":[[[[131.890095,43.118583],[131.889997,43.118468],[131.889841,43.118539],[131.889939,43.118654],[131.890095,43.118583]]]]}},{"type":"Feature","properties":{"fid":90,"Layer":"8 - ценная историческая застройка конец ХIX - начало ХХ века","PaperSpace":null,"SubClasses":"AcDbEntity:AcDbPolyline","Linetype":"ByLayer","EntityHandle":"5D5","Text":null,"ogr_style":"PEN(c:#000000)","font":null,"angle":null,"size":null,"size_u":null,"anchor":null,"color":"#000000","underline":null,"plaintext":null,"fcolor":null,"flnum":null,"bold":null,"italic":null,"dx":null,"dx_u":null,"dy":null,"dy_u":null},"geometry":{"type":"MultiPolygon","coordinates":[[[[131.889738,43.117502],[131.889759,43.117451],[131.889774,43.117454],[131.889799,43.117395],[131.889774,43.117384],[131.889786,43.117368],[131.889635,43.117336],[131.889583,43.117467],[131.889738,43.117502]]]]}},{"type":"Feature","properties":{"fid":91,"Layer":"8 - ценная историческая застройка конец ХIX - начало ХХ века","PaperSpace":null,"SubClasses":"AcDbEntity:AcDbPolyline","Linetype":"ByLayer","EntityHandle":"5D7","Text":null,"ogr_style":"PEN(c:#000000)","font":null,"angle":null,"size":null,"size_u":null,"anchor":null,"color":"#000000","underline":null,"plaintext":null,"fcolor":null,"flnum":null,"bold":null,"italic":null,"dx":null,"dx_u":null,"dy":null,"dy_u":null},"geometry":{"type":"MultiPolygon","coordinates":[[[[131.889463,43.117336],[131.889423,43.117439],[131.889581,43.117473],[131.889622,43.117369],[131.889463,43.117336]]]]}},{"type":"Feature","properties":{"fid":92,"Layer":"8 - ценная историческая застройка конец ХIX - начало ХХ века","PaperSpace":null,"SubClasses":"AcDbEntity:AcDbPolyline","Linetype":"ByLayer","EntityHandle":"5D9","Text":null,"ogr_style":"PEN(c:#000000)","font":null,"angle":null,"size":null,"size_u":null,"anchor":null,"color":"#000000","underline":null,"plaintext":null,"fcolor":null,"flnum":null,"bold":null,"italic":null,"dx":null,"dx_u":null,"dy":null,"dy_u":null},"geometry":{"type":"MultiPolygon","coordinates":[]}},{"type":"Feature","properties":{"fid":93,"Layer":"8 - ценная историческая застройка конец ХIX - начало ХХ века","PaperSpace":null,"SubClasses":"AcDbEntity:AcDbPolyline","Linetype":"ByLayer","EntityHandle":"5DA","Text":null,"ogr_style":"PEN(c:#000000)","font":null,"angle":null,"size":null,"size_u":null,"anchor":null,"color":"#000000","underline":null,"plaintext":null,"fcolor":null,"flnum":null,"bold":null,"italic":null,"dx":null,"dx_u":null,"dy":null,"dy_u":null},"geometry":{"type":"MultiPolygon","coordinates":[[[[131.909902,43.114977],[131.91003,43.114938],[131.909938,43.11477],[131.909863,43.114791],[131.909916,43.114882],[131.909859,43.1149],[131.909902,43.114977]]]]}},{"type":"Feature","properties":{"fid":94,"Layer":"8 - ценная историческая застройка конец ХIX - начало ХХ века","PaperSpace":null,"SubClasses":"AcDbEntity:AcDbPolyline","Linetype":"ByLayer","EntityHandle":"5DC","Text":null,"ogr_style":"PEN(c:#000000)","font":null,"angle":null,"size":null,"size_u":null,"anchor":null,"color":"#000000","underline":null,"plaintext":null,"fcolor":null,"flnum":null,"bold":null,"italic":null,"dx":null,"dx_u":null,"dy":null,"dy_u":null},"geometry":{"type":"MultiPolygon","coordinates":[[[[131.879191,43.121563],[131.880111,43.121384],[131.880152,43.121489],[131.880221,43.121475],[131.880281,43.121425],[131.880216,43.12125],[131.879154,43.12146],[131.879191,43.121563]]]]}},{"type":"Feature","properties":{"fid":95,"Layer":"8 - ценная историческая застройка конец ХIX - начало ХХ века","PaperSpace":null,"SubClasses":"AcDbEntity:AcDbPolyline","Linetype":"ByLayer","EntityHandle":"5DE","Text":null,"ogr_style":"PEN(c:#000000)","font":null,"angle":null,"size":null,"size_u":null,"anchor":null,"color":"#000000","underline":null,"plaintext":null,"fcolor":null,"flnum":null,"bold":null,"italic":null,"dx":null,"dx_u":null,"dy":null,"dy_u":null},"geometry":{"type":"MultiPolygon","coordinates":[]}},{"type":"Feature","properties":{"fid":96,"Layer":"8 - ценная историческая застройка конец ХIX - начало ХХ века","PaperSpace":null,"SubClasses":"AcDbEntity:AcDbPolyline","Linetype":"ByLayer","EntityHandle":"5DF","Text":null,"ogr_style":"PEN(c:#000000)","font":null,"angle":null,"size":null,"size_u":null,"anchor":null,"color":"#000000","underline":null,"plaintext":null,"fcolor":null,"flnum":null,"bold":null,"italic":null,"dx":null,"dx_u":null,"dy":null,"dy_u":null},"geometry":{"type":"MultiPolygon","coordinates":[]}},{"type":"Feature","properties":{"fid":97,"Layer":"8 - ценная историческая застройка конец ХIX - начало ХХ века","PaperSpace":null,"SubClasses":"AcDbEntity:AcDbPolyline","Linetype":"ByLayer","EntityHandle":"5E0","Text":null,"ogr_style":"PEN(c:#000000)","font":null,"angle":null,"size":null,"size_u":null,"anchor":null,"color":"#000000","underline":null,"plaintext":null,"fcolor":null,"flnum":null,"bold":null,"italic":null,"dx":null,"dx_u":null,"dy":null,"dy_u":null},"geometry":{"type":"MultiPolygon","coordinates":[[[[131.877701,43.113447],[131.877694,43.11344],[131.877684,43.113438],[131.877701,43.113447]]]]}},{"type":"Feature","properties":{"fid":98,"Layer":"8 - ценная историческая застройка конец ХIX - начало ХХ века","PaperSpace":null,"SubClasses":"AcDbEntity:AcDbPolyline","Linetype":"ByLayer","EntityHandle":"5E1","Text":null,"ogr_style":"PEN(c:#000000)","font":null,"angle":null,"size":null,"size_u":null,"anchor":null,"color":"#000000","underline":null,"plaintext":null,"fcolor":null,"flnum":null,"bold":null,"italic":null,"dx":null,"dx_u":null,"dy":null,"dy_u":null},"geometry":{"type":"MultiPolygon","coordinates":[]}},{"type":"Feature","properties":{"fid":99,"Layer":"8 - ценная историческая застройка конец ХIX - начало ХХ века","PaperSpace":null,"SubClasses":"AcDbEntity:AcDbPolyline","Linetype":"ByLayer","EntityHandle":"5E2","Text":null,"ogr_style":"PEN(c:#000000)","font":null,"angle":null,"size":null,"size_u":null,"anchor":null,"color":"#000000","underline":null,"plaintext":null,"fcolor":null,"flnum":null,"bold":null,"italic":null,"dx":null,"dx_u":null,"dy":null,"dy_u":null},"geometry":{"type":"MultiPolygon","coordinates":[[[[131.877489,43.113475],[131.877482,43.113478],[131.877477,43.113483],[131.877476,43.113489],[131.877479,43.113495],[131.877489,43.113475]]]]}},{"type":"Feature","properties":{"fid":100,"Layer":"8 - ценная историческая застройка конец ХIX - начало ХХ века","PaperSpace":null,"SubClasses":"AcDbEntity:AcDbPolyline","Linetype":"ByLayer","EntityHandle":"5E3","Text":null,"ogr_style":"PEN(c:#000000)","font":null,"angle":null,"size":null,"size_u":null,"anchor":null,"color":"#000000","underline":null,"plaintext":null,"fcolor":null,"flnum":null,"bold":null,"italic":null,"dx":null,"dx_u":null,"dy":null,"dy_u":null},"geometry":{"type":"MultiPolygon","coordinates":[]}},{"type":"Feature","properties":{"fid":101,"Layer":"8 - ценная историческая застройка конец ХIX - начало ХХ века","PaperSpace":null,"SubClasses":"AcDbEntity:AcDbPolyline","Linetype":"ByLayer","EntityHandle":"5E4","Text":null,"ogr_style":"PEN(c:#000000)","font":null,"angle":null,"size":null,"size_u":null,"anchor":null,"color":"#000000","underline":null,"plaintext":null,"fcolor":null,"flnum":null,"bold":null,"italic":null,"dx":null,"dx_u":null,"dy":null,"dy_u":null},"geometry":{"type":"MultiPolygon","coordinates":[[[[131.878054,43.113401],[131.878008,43.113271],[131.877757,43.113317],[131.877791,43.113414],[131.877769,43.113419],[131.877783,43.113461],[131.87787,43.113444],[131.877857,43.113406],[131.877963,43.113385],[131.877974,43.113416],[131.878054,43.113401]]]]}},{"type":"Feature","properties":{"fid":102,"Layer":"8 - ценная историческая застройка конец ХIX - начало ХХ века","PaperSpace":null,"SubClasses":"AcDbEntity:AcDbPolyline","Linetype":"ByLayer","EntityHandle":"5E6","Text":null,"ogr_style":"PEN(c:#000000)","font":null,"angle":null,"size":null,"size_u":null,"anchor":null,"color":"#000000","underline":null,"plaintext":null,"fcolor":null,"flnum":null,"bold":null,"italic":null,"dx":null,"dx_u":null,"dy":null,"dy_u":null},"geometry":{"type":"MultiPolygon","coordinates":[[[[131.831611,43.074625],[131.831611,43.074589],[131.831439,43.074589],[131.831439,43.074625],[131.831611,43.074625]]]]}},{"type":"Feature","properties":{"fid":103,"Layer":"8 - ценная историческая застройка конец ХIX - начало ХХ века","PaperSpace":null,"SubClasses":"AcDbEntity:AcDbPolyline","Linetype":"ByLayer","EntityHandle":"5E8","Text":null,"ogr_style":"PEN(c:#000000)","font":null,"angle":null,"size":null,"size_u":null,"anchor":null,"color":"#000000","underline":null,"plaintext":null,"fcolor":null,"flnum":null,"bold":null,"italic":null,"dx":null,"dx_u":null,"dy":null,"dy_u":null},"geometry":{"type":"MultiPolygon","coordinates":[[[[131.879749,43.111236],[131.879556,43.111272],[131.879646,43.111533],[131.879839,43.111497],[131.879812,43.111419],[131.879816,43.111418],[131.87978,43.111311],[131.879775,43.111312],[131.879749,43.111236]]]]}},{"type":"Feature","properties":{"fid":104,"Layer":"8 - ценная историческая застройка конец ХIX - начало ХХ века","PaperSpace":null,"SubClasses":"AcDbEntity:AcDbPolyline","Linetype":"ByLayer","EntityHandle":"5EA","Text":null,"ogr_style":"PEN(c:#000000)","font":null,"angle":null,"size":null,"size_u":null,"anchor":null,"color":"#000000","underline":null,"plaintext":null,"fcolor":null,"flnum":null,"bold":null,"italic":null,"dx":null,"dx_u":null,"dy":null,"dy_u":null},"geometry":{"type":"MultiPolygon","coordinates":[[[[131.880812,43.114231],[131.881518,43.114098],[131.88151,43.114073],[131.880804,43.114208],[131.880812,43.114231]]]]}},{"type":"Feature","properties":{"fid":105,"Layer":"8 - ценная историческая застройка конец ХIX - начало ХХ века","PaperSpace":null,"SubClasses":"AcDbEntity:AcDbPolyline","Linetype":"ByLayer","EntityHandle":"5EC","Text":null,"ogr_style":"PEN(c:#000000)","font":null,"angle":null,"size":null,"size_u":null,"anchor":null,"color":"#000000","underline":null,"plaintext":null,"fcolor":null,"flnum":null,"bold":null,"italic":null,"dx":null,"dx_u":null,"dy":null,"dy_u":null},"geometry":{"type":"MultiPolygon","coordinates":[[[[131.881222,43.113761],[131.881274,43.113914],[131.881303,43.113909],[131.881314,43.113943],[131.880909,43.114016],[131.880959,43.114166],[131.881214,43.114118],[131.881227,43.114126],[131.881261,43.114119],[131.881268,43.114108],[131.881329,43.114096],[131.881333,43.114106],[131.88151,43.114072],[131.8814,43.11373],[131.881222,43.113761]]]]}},{"type":"Feature","properties":{"fid":106,"Layer":"8 - ценная историческая застройка конец ХIX - начало ХХ века","PaperSpace":null,"SubClasses":"AcDbEntity:AcDbPolyline","Linetype":"ByLayer","EntityHandle":"5EE","Text":null,"ogr_style":"PEN(c:#000000)","font":null,"angle":null,"size":null,"size_u":null,"anchor":null,"color":"#000000","underline":null,"plaintext":null,"fcolor":null,"flnum":null,"bold":null,"italic":null,"dx":null,"dx_u":null,"dy":null,"dy_u":null},"geometry":{"type":"MultiPolygon","coordinates":[[[[131.828626,43.075176],[131.828626,43.07514],[131.828455,43.075139],[131.828454,43.075175],[131.828626,43.075176]]]]}},{"type":"Feature","properties":{"fid":107,"Layer":"8 - ценная историческая застройка конец ХIX - начало ХХ века","PaperSpace":null,"SubClasses":"AcDbEntity:AcDbPolyline","Linetype":"ByLayer","EntityHandle":"5F0","Text":null,"ogr_style":"PEN(c:#000000)","font":null,"angle":null,"size":null,"size_u":null,"anchor":null,"color":"#000000","underline":null,"plaintext":null,"fcolor":null,"flnum":null,"bold":null,"italic":null,"dx":null,"dx_u":null,"dy":null,"dy_u":null},"geometry":{"type":"MultiPolygon","coordinates":[[[[131.866599,43.100455],[131.866504,43.100395],[131.866452,43.10044],[131.866429,43.10046],[131.866471,43.100486],[131.866526,43.100518],[131.866599,43.100455]]]]}},{"type":"Feature","properties":{"fid":108,"Layer":"8 - ценная историческая застройка конец ХIX - начало ХХ века","PaperSpace":null,"SubClasses":"AcDbEntity:AcDbPolyline","Linetype":"ByLayer","EntityHandle":"5F2","Text":null,"ogr_style":"PEN(c:#000000)","font":null,"angle":null,"size":null,"size_u":null,"anchor":null,"color":"#000000","underline":null,"plaintext":null,"fcolor":null,"flnum":null,"bold":null,"italic":null,"dx":null,"dx_u":null,"dy":null,"dy_u":null},"geometry":{"type":"MultiPolygon","coordinates":[[[[131.879767,43.109611],[131.879876,43.109591],[131.879857,43.109533],[131.879949,43.109516],[131.879809,43.109103],[131.879678,43.109124],[131.879656,43.109059],[131.879589,43.109068],[131.879668,43.109308],[131.879767,43.109611]]]]}},{"type":"Feature","properties":{"fid":109,"Layer":"8 - ценная историческая застройка конец ХIX - начало ХХ века","PaperSpace":null,"SubClasses":"AcDbEntity:AcDbPolyline","Linetype":"ByLayer","EntityHandle":"5F4","Text":null,"ogr_style":"PEN(c:#000000)","font":null,"angle":null,"size":null,"size_u":null,"anchor":null,"color":"#000000","underline":null,"plaintext":null,"fcolor":null,"flnum":null,"bold":null,"italic":null,"dx":null,"dx_u":null,"dy":null,"dy_u":null},"geometry":{"type":"MultiPolygon","coordinates":[[[[131.880156,43.110114],[131.879997,43.109669],[131.879802,43.109704],[131.879958,43.110149],[131.880156,43.110114]]]]}},{"type":"Feature","properties":{"fid":110,"Layer":"8 - ценная историческая застройка конец ХIX - начало ХХ века","PaperSpace":null,"SubClasses":"AcDbEntity:AcDbPolyline","Linetype":"ByLayer","EntityHandle":"5F6","Text":null,"ogr_style":"PEN(c:#000000)","font":null,"angle":null,"size":null,"size_u":null,"anchor":null,"color":"#000000","underline":null,"plaintext":null,"fcolor":null,"flnum":null,"bold":null,"italic":null,"dx":null,"dx_u":null,"dy":null,"dy_u":null},"geometry":{"type":"MultiPolygon","coordinates":[[[[131.884216,43.113911],[131.884482,43.11411],[131.884606,43.11402],[131.884334,43.113826],[131.884216,43.113911]]]]}},{"type":"Feature","properties":{"fid":111,"Layer":"8 - ценная историческая застройка конец ХIX - начало ХХ века","PaperSpace":null,"SubClasses":"AcDbEntity:AcDbPolyline","Linetype":"ByLayer","EntityHandle":"5F8","Text":null,"ogr_style":"PEN(c:#000000)","font":null,"angle":null,"size":null,"size_u":null,"anchor":null,"color":"#000000","underline":null,"plaintext":null,"fcolor":null,"flnum":null,"bold":null,"italic":null,"dx":null,"dx_u":null,"dy":null,"dy_u":null},"geometry":{"type":"MultiPolygon","coordinates":[[[[131.865998,43.100194],[131.86586,43.100105],[131.865779,43.100173],[131.865759,43.10019],[131.865828,43.100234],[131.865896,43.100278],[131.865998,43.100194]]]]}},{"type":"Feature","properties":{"fid":112,"Layer":"8 - ценная историческая застройка конец ХIX - начало ХХ века","PaperSpace":null,"SubClasses":"AcDbEntity:AcDbPolyline","Linetype":"ByLayer","EntityHandle":"5FA","Text":null,"ogr_style":"PEN(c:#000000)","font":null,"angle":null,"size":null,"size_u":null,"anchor":null,"color":"#000000","underline":null,"plaintext":null,"fcolor":null,"flnum":null,"bold":null,"italic":null,"dx":null,"dx_u":null,"dy":null,"dy_u":null},"geometry":{"type":"MultiPolygon","coordinates":[[[[131.881626,43.11365],[131.881816,43.113616],[131.881796,43.113565],[131.881766,43.113572],[131.881752,43.113537],[131.881768,43.113534],[131.881775,43.113551],[131.881811,43.113543],[131.881765,43.113425],[131.881562,43.113468],[131.881626,43.11365]]]]}},{"type":"Feature","properties":{"fid":113,"Layer":"8 - ценная историческая застройка конец ХIX - начало ХХ века","PaperSpace":null,"SubClasses":"AcDbEntity:AcDbPolyline","Linetype":"ByLayer","EntityHandle":"5FC","Text":null,"ogr_style":"PEN(c:#000000)","font":null,"angle":null,"size":null,"size_u":null,"anchor":null,"color":"#000000","underline":null,"plaintext":null,"fcolor":null,"flnum":null,"bold":null,"italic":null,"dx":null,"dx_u":null,"dy":null,"dy_u":null},"geometry":{"type":"MultiPolygon","coordinates":[[[[131.879078,43.10835],[131.879552,43.108776],[131.879709,43.108685],[131.879234,43.108257],[131.879078,43.10835]]]]}},{"type":"Feature","properties":{"fid":114,"Layer":"8 - ценная историческая застройка конец ХIX - начало ХХ века","PaperSpace":null,"SubClasses":"AcDbEntity:AcDbPolyline","Linetype":"ByLayer","EntityHandle":"5FE","Text":null,"ogr_style":"PEN(c:#000000)","font":null,"angle":null,"size":null,"size_u":null,"anchor":null,"color":"#000000","underline":null,"plaintext":null,"fcolor":null,"flnum":null,"bold":null,"italic":null,"dx":null,"dx_u":null,"dy":null,"dy_u":null},"geometry":{"type":"MultiPolygon","coordinates":[[[[131.869202,43.102391],[131.869469,43.10258],[131.869565,43.102507],[131.869298,43.102318],[131.869202,43.102391]]]]}},{"type":"Feature","properties":{"fid":115,"Layer":"8 - ценная историческая застройка конец ХIX - начало ХХ века","PaperSpace":null,"SubClasses":"AcDbEntity:AcDbPolyline","Linetype":"ByLayer","EntityHandle":"600","Text":null,"ogr_style":"PEN(c:#000000)","font":null,"angle":null,"size":null,"size_u":null,"anchor":null,"color":"#000000","underline":null,"plaintext":null,"fcolor":null,"flnum":null,"bold":null,"italic":null,"dx":null,"dx_u":null,"dy":null,"dy_u":null},"geometry":{"type":"MultiPolygon","coordinates":[[[[131.876559,43.110955],[131.87643,43.11098],[131.876449,43.111031],[131.876409,43.111039],[131.876428,43.11109],[131.876468,43.111082],[131.876486,43.111131],[131.876615,43.111106],[131.876559,43.110955]]]]}},{"type":"Feature","properties":{"fid":116,"Layer":"8 - ценная историческая застройка конец ХIX - начало ХХ века","PaperSpace":null,"SubClasses":"AcDbEntity:AcDbPolyline","Linetype":"ByLayer","EntityHandle":"602","Text":null,"ogr_style":"PEN(c:#000000)","font":null,"angle":null,"size":null,"size_u":null,"anchor":null,"color":"#000000","underline":null,"plaintext":null,"fcolor":null,"flnum":null,"bold":null,"italic":null,"dx":null,"dx_u":null,"dy":null,"dy_u":null},"geometry":{"type":"MultiPolygon","coordinates":[[[[131.881387,43.110738],[131.881551,43.110703],[131.881535,43.110663],[131.881372,43.110698],[131.881387,43.110738]]]]}},{"type":"Feature","properties":{"fid":117,"Layer":"8 - ценная историческая застройка конец ХIX - начало ХХ века","PaperSpace":null,"SubClasses":"AcDbEntity:AcDbPolyline","Linetype":"ByLayer","EntityHandle":"604","Text":null,"ogr_style":"PEN(c:#000000)","font":null,"angle":null,"size":null,"size_u":null,"anchor":null,"color":"#000000","underline":null,"plaintext":null,"fcolor":null,"flnum":null,"bold":null,"italic":null,"dx":null,"dx_u":null,"dy":null,"dy_u":null},"geometry":{"type":"MultiPolygon","coordinates":[[[[131.881423,43.11062],[131.881508,43.110602],[131.881466,43.110496],[131.88138,43.110514],[131.881423,43.11062]]]]}},{"type":"Feature","properties":{"fid":118,"Layer":"8 - ценная историческая застройка конец ХIX - начало ХХ века","PaperSpace":null,"SubClasses":"AcDbEntity:AcDbPolyline","Linetype":"ByLayer","EntityHandle":"606","Text":null,"ogr_style":"PEN(c:#000000)","font":null,"angle":null,"size":null,"size_u":null,"anchor":null,"color":"#000000","underline":null,"plaintext":null,"fcolor":null,"flnum":null,"bold":null,"italic":null,"dx":null,"dx_u":null,"dy":null,"dy_u":null},"geometry":{"type":"MultiPolygon","coordinates":[[[[131.877125,43.110019],[131.877151,43.110096],[131.877201,43.110087],[131.877234,43.110081],[131.877223,43.110046],[131.877203,43.109972],[131.877279,43.109959],[131.877257,43.109892],[131.877092,43.109921],[131.877125,43.110019]]]]}},{"type":"Feature","properties":{"fid":119,"Layer":"8 - ценная историческая застройка конец ХIX - начало ХХ века","PaperSpace":null,"SubClasses":"AcDbEntity:AcDbPolyline","Linetype":"ByLayer","EntityHandle":"608","Text":null,"ogr_style":"PEN(c:#000000)","font":null,"angle":null,"size":null,"size_u":null,"anchor":null,"color":"#000000","underline":null,"plaintext":null,"fcolor":null,"flnum":null,"bold":null,"italic":null,"dx":null,"dx_u":null,"dy":null,"dy_u":null},"geometry":{"type":"MultiPolygon","coordinates":[[[[131.876827,43.11155],[131.877013,43.111515],[131.877,43.111476],[131.87698,43.111479],[131.876927,43.11133],[131.876948,43.111326],[131.876932,43.111284],[131.876714,43.111325],[131.876738,43.111387],[131.876766,43.111382],[131.876808,43.111495],[131.876789,43.111498],[131.876804,43.111535],[131.876822,43.111533],[131.876827,43.11155]]]]}},{"type":"Feature","properties":{"fid":120,"Layer":"8 - ценная историческая застройка конец ХIX - начало ХХ века","PaperSpace":null,"SubClasses":"AcDbEntity:AcDbPolyline","Linetype":"ByLayer","EntityHandle":"60A","Text":null,"ogr_style":"PEN(c:#000000)","font":null,"angle":null,"size":null,"size_u":null,"anchor":null,"color":"#000000","underline":null,"plaintext":null,"fcolor":null,"flnum":null,"bold":null,"italic":null,"dx":null,"dx_u":null,"dy":null,"dy_u":null},"geometry":{"type":"MultiPolygon","coordinates":[[[[131.877134,43.111217],[131.877175,43.111345],[131.877315,43.111323],[131.877306,43.111288],[131.8773,43.111289],[131.877284,43.111239],[131.877299,43.111236],[131.877283,43.111191],[131.877134,43.111217]]]]}},{"type":"Feature","properties":{"fid":121,"Layer":"8 - ценная историческая застройка конец ХIX - начало ХХ века","PaperSpace":null,"SubClasses":"AcDbEntity:AcDbPolyline","Linetype":"ByLayer","EntityHandle":"60C","Text":null,"ogr_style":"PEN(c:#000000)","font":null,"angle":null,"size":null,"size_u":null,"anchor":null,"color":"#000000","underline":null,"plaintext":null,"fcolor":null,"flnum":null,"bold":null,"italic":null,"dx":null,"dx_u":null,"dy":null,"dy_u":null},"geometry":{"type":"MultiPolygon","coordinates":[[[[131.864295,43.100436],[131.864555,43.100664],[131.864759,43.100539],[131.864242,43.100086],[131.864038,43.100211],[131.864289,43.100431],[131.864295,43.100436]]]]}},{"type":"Feature","properties":{"fid":122,"Layer":"8 - ценная историческая застройка конец ХIX - начало ХХ века","PaperSpace":null,"SubClasses":"AcDbEntity:AcDbPolyline","Linetype":"ByLayer","EntityHandle":"60E","Text":null,"ogr_style":"PEN(c:#000000)","font":null,"angle":null,"size":null,"size_u":null,"anchor":null,"color":"#000000","underline":null,"plaintext":null,"fcolor":null,"flnum":null,"bold":null,"italic":null,"dx":null,"dx_u":null,"dy":null,"dy_u":null},"geometry":{"type":"MultiPolygon","coordinates":[[[[131.875364,43.112299],[131.875244,43.112414],[131.87531,43.112451],[131.875359,43.112405],[131.875449,43.112456],[131.875517,43.112387],[131.875364,43.112299]]]]}},{"type":"Feature","properties":{"fid":123,"Layer":"8 - ценная историческая застройка конец ХIX - начало ХХ века","PaperSpace":null,"SubClasses":"AcDbEntity:AcDbPolyline","Linetype":"ByLayer","EntityHandle":"610","Text":null,"ogr_style":"PEN(c:#000000)","font":null,"angle":null,"size":null,"size_u":null,"anchor":null,"color":"#000000","underline":null,"plaintext":null,"fcolor":null,"flnum":null,"bold":null,"italic":null,"dx":null,"dx_u":null,"dy":null,"dy_u":null},"geometry":{"type":"MultiPolygon","coordinates":[[[[131.876058,43.11278],[131.876097,43.112811],[131.876224,43.112785],[131.876143,43.112721],[131.876058,43.11278],[131.876058,43.11278]]]]}},{"type":"Feature","properties":{"fid":124,"Layer":"8 - ценная историческая застройка конец ХIX - начало ХХ века","PaperSpace":null,"SubClasses":"AcDbEntity:AcDbPolyline","Linetype":"ByLayer","EntityHandle":"612","Text":null,"ogr_style":"PEN(c:#000000)","font":null,"angle":null,"size":null,"size_u":null,"anchor":null,"color":"#000000","underline":null,"plaintext":null,"fcolor":null,"flnum":null,"bold":null,"italic":null,"dx":null,"dx_u":null,"dy":null,"dy_u":null},"geometry":{"type":"MultiPolygon","coordinates":[[[[131.901931,43.116302],[131.901936,43.116313],[131.901947,43.116322],[131.901964,43.116325],[131.90198,43.116322],[131.901992,43.116314],[131.901996,43.116302],[131.901992,43.11629],[131.90198,43.116281],[131.901964,43.116278],[131.901948,43.116281],[131.901936,43.11629],[131.901931,43.116302]]]]}}]}