{
  "type": "FeatureCollection",
  "name": "borders",
  "crs": {
    "type": "name",
    "properties": {
      "name": "urn:ogc:def:crs:OGC:1.3:CRS84"
    }
  },
  "features": [
    {
      "type": "Feature",
      "properties": {
        "fid": 6015,
        "Layer": "0 . 11 - границы ДМ проект",
        "PaperSpace": null,
        "SubClasses": "AcDbEntity:AcDbPolyline",
        "Linetype": "DASHEDX2",
        "EntityHandle": "1EB8",
        "Text": null,
        "ogr_style": "PEN(c:#000000,w:1g,p:\"9g 4.5g\")",
        "font": null,
        "angle": null,
        "size": null,
        "size_u": null,
        "anchor": null,
        "color": "#000000",
        "underline": null,
        "plaintext": null,
        "fcolor": null,
        "flnum": null,
        "bold": null,
        "italic": null,
        "dx": null,
        "dx_u": null,
        "dy": null,
        "dy_u": null
      },
      "geometry": {
        "type": "LineString",
        "coordinates": [
          [
            126.007154995925887,
            43.302427949915774
          ],
          [
            126.005996010260333,
            43.30878802146735
          ],
          [
            126.007639841163382,
            43.309337574567607
          ],
          [
            126.008585916913304,
            43.309363533764106
          ],
          [
            126.011258994967363,
            43.308970018216733
          ],
          [
            126.016538493007786,
            43.310029519865992
          ],
          [
            126.017376373580348,
            43.310518050970927
          ],
          [
            126.018441490106525,
            43.311753781647568
          ],
          [
            126.019054107092558,
            43.312114007927647
          ],
          [
            126.019348879754546,
            43.312518851596401
          ],
          [
            126.020295225106807,
            43.313355480319075
          ],
          [
            126.020817398025684,
            43.313841830509631
          ],
          [
            126.020680928052386,
            43.314094537754166
          ],
          [
            126.022552501772509,
            43.31690172474616
          ],
          [
            126.023483587687664,
            43.316803766847741
          ],
          [
            126.024535700635354,
            43.318047636307107
          ],
          [
            126.025412168922969,
            43.317501844452131
          ],
          [
            126.027785728603547,
            43.31889038758942
          ],
          [
            126.030649007003092,
            43.321643966704237
          ],
          [
            126.035265460766425,
            43.326086092656489
          ],
          [
            126.034499223793674,
            43.327658075614032
          ],
          [
            126.029734620576079,
            43.329257450246111
          ],
          [
            126.034414974738539,
            43.332626506455654
          ],
          [
            126.037479823697836,
            43.334756917999925
          ],
          [
            126.039615208881855,
            43.336223353081827
          ],
          [
            126.038924077493746,
            43.336703558098925
          ],
          [
            126.039992970435677,
            43.337810233443477
          ],
          [
            126.041963332998279,
            43.339157746274154
          ],
          [
            126.04225706541402,
            43.340405930930089
          ],
          [
            126.042650102149992,
            43.34127045399616
          ],
          [
            126.043005418561876,
            43.341196346502635
          ],
          [
            126.044433464682754,
            43.344528133603966
          ],
          [
            126.044726577609708,
            43.344612479027568
          ],
          [
            126.047224027920095,
            43.344173581865874
          ],
          [
            126.048928112002073,
            43.343765895875102
          ],
          [
            126.048947133990865,
            43.343796318773713
          ],
          [
            126.048716561074102,
            43.344263968157243
          ],
          [
            126.049475738924073,
            43.344089728401528
          ],
          [
            126.051403510428926,
            43.343683196190675
          ],
          [
            126.053250172228104,
            43.343318178508
          ],
          [
            126.055298667480756,
            43.343347794107594
          ],
          [
            126.057854271572083,
            43.343835883219462
          ],
          [
            126.057605089633284,
            43.344565160753888
          ],
          [
            126.061286007261685,
            43.34522762326624
          ],
          [
            126.065096532246784,
            43.344462983265487
          ],
          [
            126.065809850263378,
            43.344351276841536
          ],
          [
            126.066663237803127,
            43.34438887278943
          ],
          [
            126.067388010605342,
            43.344117347168158
          ],
          [
            126.069542157998143,
            43.343389217975314
          ],
          [
            126.071663180905958,
            43.343247220419578
          ],
          [
            126.074409491755532,
            43.342974460801265
          ],
          [
            126.078605051369649,
            43.341941028774137
          ],
          [
            126.078534279368725,
            43.341786766119178
          ],
          [
            126.078691952404256,
            43.341748232206122
          ],
          [
            126.0787644851941,
            43.341915065103507
          ],
          [
            126.079065444582909,
            43.341860956412418
          ],
          [
            126.083856338234355,
            43.341709351021358
          ],
          [
            126.086537827745019,
            43.341708765428244
          ],
          [
            126.086657506758016,
            43.342226515672003
          ],
          [
            126.088033531956953,
            43.342076022689739
          ],
          [
            126.089583461217885,
            43.341805793248732
          ],
          [
            126.091285859351132,
            43.341765133451716
          ],
          [
            126.091466225878378,
            43.342380175443175
          ],
          [
            126.091861718441322,
            43.342690433074438
          ],
          [
            126.092506644500077,
            43.342958145821093
          ],
          [
            126.094068513555186,
            43.343869125571345
          ],
          [
            126.095046675831028,
            43.343918823972047
          ],
          [
            126.096431759871436,
            43.343332878538888
          ],
          [
            126.097699978144206,
            43.34405359023738
          ],
          [
            126.097553755741814,
            43.344388347125836
          ],
          [
            126.09734608560764,
            43.345455754657912
          ],
          [
            126.097491667230173,
            43.345671441010275
          ],
          [
            126.097448257799655,
            43.345882834700177
          ],
          [
            126.097262977644988,
            43.345865526378866
          ],
          [
            126.097183460755716,
            43.346372038387187
          ],
          [
            126.097179625559946,
            43.346849890623439
          ],
          [
            126.097134525133882,
            43.348399245923872
          ],
          [
            126.097871388514605,
            43.348439828018464
          ],
          [
            126.097730789454815,
            43.348864281315571
          ],
          [
            126.097086184476794,
            43.349544826737151
          ],
          [
            126.097263996632194,
            43.349644894237947
          ],
          [
            126.097358198362755,
            43.349645206008596
          ],
          [
            126.097555107382334,
            43.349697130947256
          ],
          [
            126.097580825098746,
            43.350110273682368
          ],
          [
            126.09832628589929,
            43.350209172786847
          ],
          [
            126.098755205945935,
            43.351467444287479
          ],
          [
            126.098803735355233,
            43.351638258825766
          ],
          [
            126.09901865341908,
            43.352766083416547
          ],
          [
            126.099695889069793,
            43.352700719540508
          ],
          [
            126.09989441433305,
            43.353254123229632
          ],
          [
            126.100788331735217,
            43.353240572836455
          ],
          [
            126.101930344481474,
            43.353138847151151
          ],
          [
            126.102239194364046,
            43.35328759112214
          ],
          [
            126.103005417755398,
            43.354848212114796
          ],
          [
            126.103475091458847,
            43.356047202202802
          ],
          [
            126.103939422003322,
            43.357022560559145
          ],
          [
            126.104325593666886,
            43.357793036165788
          ],
          [
            126.103554694096871,
            43.357997178655324
          ],
          [
            126.103050622651992,
            43.357956882829093
          ],
          [
            126.102187764223487,
            43.358452726187799
          ],
          [
            126.101363559372302,
            43.359069424690873
          ],
          [
            126.100635880735297,
            43.359358614439444
          ],
          [
            126.098949701882574,
            43.359403292535973
          ],
          [
            126.09864740294087,
            43.359343695727134
          ],
          [
            126.098521688545986,
            43.358704597894906
          ],
          [
            126.097203354874793,
            43.356038762082903
          ],
          [
            126.096774824343584,
            43.35506909414628
          ],
          [
            126.096239251214129,
            43.353573704078165
          ],
          [
            126.096410285098813,
            43.352892022038596
          ],
          [
            126.096453164226332,
            43.352271980922652
          ],
          [
            126.096392307445882,
            43.351935647721888
          ],
          [
            126.09621433946468,
            43.351320528647641
          ],
          [
            126.09614904710952,
            43.351236148646059
          ],
          [
            126.095926992706453,
            43.350762316956725
          ],
          [
            126.095785222500027,
            43.350798844786091
          ],
          [
            126.095427775826167,
            43.350022589536927
          ],
          [
            126.095281030801829,
            43.349291015504228
          ],
          [
            126.095408690904108,
            43.348314535754767
          ],
          [
            126.094661162758939,
            43.348236735330666
          ],
          [
            126.094159722957002,
            43.348126562090826
          ],
          [
            126.092938189439266,
            43.348054442029508
          ],
          [
            126.090938898294482,
            43.347765849667866
          ],
          [
            126.090768605634793,
            43.348382368620712
          ],
          [
            126.090391495852131,
            43.348399312333441
          ],
          [
            126.089690166607213,
            43.348309026729893
          ],
          [
            126.089861976735975,
            43.347544320552473
          ],
          [
            126.088854181271742,
            43.347393946251671
          ],
          [
            126.087784410973427,
            43.347236097758511
          ],
          [
            126.087779996901034,
            43.347164371393852
          ],
          [
            126.087345092414509,
            43.347134153337727
          ],
          [
            126.08740269875112,
            43.346848838382591
          ],
          [
            126.086698567843527,
            43.346761590868006
          ],
          [
            126.086457762243882,
            43.346792907166886
          ],
          [
            126.086451717448341,
            43.346825454032526
          ],
          [
            126.085759112221183,
            43.346747198794844
          ],
          [
            126.085663868675937,
            43.347374644502032
          ],
          [
            126.085543843863093,
            43.348179027805699
          ],
          [
            126.08550958724723,
            43.348693525535253
          ],
          [
            126.086303490187419,
            43.348751894539582
          ],
          [
            126.086393981607571,
            43.349562817540075
          ],
          [
            126.085634366027449,
            43.349531713956289
          ],
          [
            126.084637099764976,
            43.349439572613306
          ],
          [
            126.084425868049891,
            43.349770858909665
          ],
          [
            126.084452041385418,
            43.350562603706798
          ],
          [
            126.084282565488934,
            43.351391121508563
          ],
          [
            126.084578946725642,
            43.351670112115308
          ],
          [
            126.083988081965529,
            43.35193683113264
          ],
          [
            126.083611833121083,
            43.351999893239942
          ],
          [
            126.082973387867597,
            43.352045895026137
          ],
          [
            126.0824855417181,
            43.352001594348671
          ],
          [
            126.08037092195724,
            43.351761935311849
          ],
          [
            126.080148495077225,
            43.351643851008319
          ],
          [
            126.07949061635864,
            43.351436018824927
          ],
          [
            126.07925994223389,
            43.351385822322136
          ],
          [
            126.078866751369233,
            43.351338044682066
          ],
          [
            126.078187349750593,
            43.35128020593266
          ],
          [
            126.078149183473045,
            43.35155976704619
          ],
          [
            126.078154734397557,
            43.351929145453269
          ],
          [
            126.078354500112582,
            43.351906342642188
          ],
          [
            126.078402518225602,
            43.352111301782244
          ],
          [
            126.078280869224201,
            43.352179994221579
          ],
          [
            126.078356161525065,
            43.352641761108679
          ],
          [
            126.078874646594116,
            43.353446882047621
          ],
          [
            126.07921479073056,
            43.353980772710294
          ],
          [
            126.079224521822212,
            43.354549917920991
          ],
          [
            126.078767553378839,
            43.355267250201294
          ],
          [
            126.077828167120117,
            43.355464529959249
          ],
          [
            126.07708764589934,
            43.355430225579418
          ],
          [
            126.075833860236415,
            43.355256795867177
          ],
          [
            126.074513766277406,
            43.354665291912063
          ],
          [
            126.074291878460315,
            43.354307840376634
          ],
          [
            126.074336187745388,
            43.353988306024128
          ],
          [
            126.073275865759655,
            43.353242702380705
          ],
          [
            126.073028426178638,
            43.353073963538712
          ],
          [
            126.072783602895655,
            43.352882025933262
          ],
          [
            126.07266951006369,
            43.352770343368519
          ],
          [
            126.072590060006789,
            43.352663119490003
          ],
          [
            126.072470760767658,
            43.352428331918794
          ],
          [
            126.072402320445804,
            43.352371677612481
          ],
          [
            126.072449792803866,
            43.352102292421186
          ],
          [
            126.072691076877973,
            43.352086005312643
          ],
          [
            126.073196232258823,
            43.351990149950787
          ],
          [
            126.073166428052346,
            43.351896112719743
          ],
          [
            126.073134244726404,
            43.351880091219179
          ],
          [
            126.073014097249839,
            43.35165491257618
          ],
          [
            126.072982196120336,
            43.351544432739459
          ],
          [
            126.070393765922248,
            43.352173100291971
          ],
          [
            126.069844309145992,
            43.352284797022961
          ],
          [
            126.069264612306,
            43.352372635521469
          ],
          [
            126.068988931813024,
            43.352394197685243
          ],
          [
            126.068755121803221,
            43.352414280060891
          ],
          [
            126.068625007951923,
            43.352426356806028
          ],
          [
            126.068438589232102,
            43.352560502600554
          ],
          [
            126.068122357159041,
            43.352615407015094
          ],
          [
            126.067980290566396,
            43.352639057330066
          ],
          [
            126.067686412542457,
            43.352600926359898
          ],
          [
            126.06692833599574,
            43.352384307735271
          ],
          [
            126.066599341777319,
            43.352369403630391
          ],
          [
            126.066084419257564,
            43.352470503182708
          ],
          [
            126.065769727135958,
            43.35267270024309
          ],
          [
            126.065634960099956,
            43.352779866572391
          ],
          [
            126.065418685214013,
            43.35298202935325
          ],
          [
            126.064909215732669,
            43.352750136005312
          ],
          [
            126.06465268699705,
            43.352655682845018
          ],
          [
            126.063994957786576,
            43.352806720915858
          ],
          [
            126.06281917398212,
            43.352175950613315
          ],
          [
            126.062136512716549,
            43.351868736450214
          ],
          [
            126.061747957311113,
            43.352408387405063
          ],
          [
            126.061001129417008,
            43.353160766624946
          ],
          [
            126.060594030579963,
            43.35358990883811
          ],
          [
            126.059989574240063,
            43.353963358976571
          ],
          [
            126.06047068493217,
            43.354468476343243
          ],
          [
            126.06070642984065,
            43.354725245026501
          ],
          [
            126.061001063539649,
            43.35552619065988
          ],
          [
            126.060674012405343,
            43.355730127558871
          ],
          [
            126.060464978796645,
            43.356165731994501
          ],
          [
            126.060417115063728,
            43.356248853990664
          ],
          [
            126.060233464670077,
            43.356434421072514
          ],
          [
            126.06017539602577,
            43.356513989847763
          ],
          [
            126.060127819458728,
            43.356598201797503
          ],
          [
            126.060094672900519,
            43.356693685784769
          ],
          [
            126.060085876319079,
            43.356771624889923
          ],
          [
            126.060069506809214,
            43.356815824540718
          ],
          [
            126.057153982652764,
            43.355690504395511
          ],
          [
            126.057199100664704,
            43.355635851914826
          ],
          [
            126.056511647474665,
            43.35507044773837
          ],
          [
            126.056465884491985,
            43.354982594540118
          ],
          [
            126.055954091423516,
            43.354770432943205
          ],
          [
            126.055484988863412,
            43.354741831401903
          ],
          [
            126.055247598365284,
            43.354721909947486
          ],
          [
            126.055199251000232,
            43.354762135147929
          ],
          [
            126.055132765704982,
            43.354817545579266
          ],
          [
            126.054990986135749,
            43.354909498119945
          ],
          [
            126.054740303751785,
            43.35497696623942
          ],
          [
            126.054679271463272,
            43.354979382158454
          ],
          [
            126.054543985295666,
            43.354984764378102
          ],
          [
            126.054987598838167,
            43.355156637101757
          ],
          [
            126.054940508785478,
            43.355211294045318
          ],
          [
            126.054839071309004,
            43.355328677317651
          ],
          [
            126.054780117956255,
            43.355396972316562
          ],
          [
            126.054534041538645,
            43.355682146199719
          ],
          [
            126.054323715639597,
            43.355925872436146
          ],
          [
            126.054296732323465,
            43.355957153194062
          ],
          [
            126.053349546429985,
            43.355529799482298
          ],
          [
            126.052874128829913,
            43.356081569823232
          ],
          [
            126.05302367812115,
            43.356158171853849
          ],
          [
            126.052563656227264,
            43.356650877941512
          ],
          [
            126.052389580755701,
            43.356562776485966
          ],
          [
            126.0521850879651,
            43.356781871088074
          ],
          [
            126.051892046935905,
            43.35712448635396
          ],
          [
            126.050859465848802,
            43.35872461820744
          ],
          [
            126.050590755515685,
            43.359127063109405
          ],
          [
            126.050403867043613,
            43.359195424158735
          ],
          [
            126.050053475622875,
            43.359326249113366
          ],
          [
            126.048644136782855,
            43.35734454675255
          ],
          [
            126.04857695023955,
            43.357268153572328
          ],
          [
            126.048432556212433,
            43.357145335610745
          ],
          [
            126.047921425969946,
            43.356993870649511
          ],
          [
            126.047746487734926,
            43.357026489679114
          ],
          [
            126.047134392590323,
            43.357121458159206
          ],
          [
            126.047165085200021,
            43.357249754586817
          ],
          [
            126.046738603045554,
            43.357296807269762
          ],
          [
            126.046568366456881,
            43.357275433804553
          ],
          [
            126.046021577140849,
            43.357111174039176
          ],
          [
            126.045582010726562,
            43.357174028585561
          ],
          [
            126.045407427863793,
            43.357130187903344
          ],
          [
            126.045080999731312,
            43.357167727079549
          ],
          [
            126.044962287117201,
            43.3571360993909
          ],
          [
            126.044768904465698,
            43.357160447083501
          ],
          [
            126.044649083865437,
            43.35708600474333
          ],
          [
            126.044131131763535,
            43.357146333627263
          ],
          [
            126.044085947624396,
            43.35693958224077
          ],
          [
            126.043981364630042,
            43.356461250725687
          ],
          [
            126.043858337280298,
            43.355905508566217
          ],
          [
            126.043897126835873,
            43.35558132372784
          ],
          [
            126.043092733082375,
            43.355535720503916
          ],
          [
            126.043069791183072,
            43.355390356318502
          ],
          [
            126.041883288802367,
            43.355480718392975
          ],
          [
            126.041337052826336,
            43.355581259963643
          ],
          [
            126.041272176461618,
            43.355420283250687
          ],
          [
            126.041078970722396,
            43.355461979594892
          ],
          [
            126.040273376276829,
            43.355394735864621
          ],
          [
            126.04019851716447,
            43.355392634983815
          ],
          [
            126.040220223134952,
            43.355115669834497
          ],
          [
            126.040214214425347,
            43.354938535108033
          ],
          [
            126.039636992004503,
            43.355013827488236
          ],
          [
            126.038907485709558,
            43.355133956614345
          ],
          [
            126.03803534705375,
            43.355090469161283
          ],
          [
            126.037694239847468,
            43.354998505454951
          ],
          [
            126.03713893367653,
            43.354997003077159
          ],
          [
            126.036952726758201,
            43.355271235855319
          ],
          [
            126.036207667797242,
            43.355619295676682
          ],
          [
            126.035761862402879,
            43.356701314750502
          ],
          [
            126.034196267392545,
            43.356885735832002
          ],
          [
            126.034072506773057,
            43.356288387946222
          ],
          [
            126.033786502887907,
            43.355192010402689
          ],
          [
            126.033321362518706,
            43.352816410097212
          ],
          [
            126.033277331868291,
            43.351477677988413
          ],
          [
            126.032733237784129,
            43.351087789974031
          ],
          [
            126.03442110952443,
            43.34815552298172
          ],
          [
            126.032255479379089,
            43.345964814682937
          ],
          [
            126.031190228474841,
            43.345144485229724
          ],
          [
            126.029397076051012,
            43.344988401375495
          ],
          [
            126.028521209982941,
            43.343814387972834
          ],
          [
            126.028957059995108,
            43.343053762919489
          ],
          [
            126.031700787867692,
            43.340029741124233
          ],
          [
            126.032982472106781,
            43.339299917732049
          ],
          [
            126.031779144140032,
            43.337823231085409
          ],
          [
            126.023130498609589,
            43.334820885375336
          ],
          [
            126.022758837544899,
            43.335171439436486
          ],
          [
            126.021699562527118,
            43.335058315649867
          ],
          [
            126.020562310411279,
            43.333946069525226
          ],
          [
            126.020432481045901,
            43.333655449282794
          ],
          [
            126.020468202313694,
            43.333096981466923
          ],
          [
            126.0214154709101,
            43.333287356749686
          ],
          [
            126.022158617249715,
            43.332096112424743
          ],
          [
            126.020716091700535,
            43.3296625832646
          ],
          [
            126.019135274087489,
            43.328394669697353
          ],
          [
            126.019863764828656,
            43.327616207675405
          ],
          [
            126.018922099012741,
            43.326108228679615
          ],
          [
            126.016473807358949,
            43.32529996509232
          ],
          [
            126.015653848178829,
            43.323195033512931
          ],
          [
            126.015444592339094,
            43.319991245830366
          ],
          [
            126.014149059583488,
            43.319019682911566
          ],
          [
            126.009563228374915,
            43.317314328978924
          ],
          [
            126.008792474092488,
            43.316356955584475
          ],
          [
            126.008581372630999,
            43.314245312289529
          ],
          [
            126.004431854868159,
            43.311179295337247
          ],
          [
            126.003027265250083,
            43.306101844566093
          ],
          [
            126.00368103060454,
            43.304518777271589
          ],
          [
            126.006231794658945,
            43.302026021165716
          ],
          [
            126.007154995925887,
            43.302427949915774
          ]
        ]
      }
    },
    {
      "type": "Feature",
      "properties": {
        "fid": 8436,
        "Layer": "0 . 11 - границы ДМ проект",
        "PaperSpace": null,
        "SubClasses": "AcDbEntity:AcDbPolyline",
        "Linetype": "DASHEDX2",
        "EntityHandle": "35BF",
        "Text": null,
        "ogr_style": "PEN(c:#000000,w:1g,p:\"9g 4.5g\")",
        "font": null,
        "angle": null,
        "size": null,
        "size_u": null,
        "anchor": null,
        "color": "#000000",
        "underline": null,
        "plaintext": null,
        "fcolor": null,
        "flnum": null,
        "bold": null,
        "italic": null,
        "dx": null,
        "dx_u": null,
        "dy": null,
        "dy_u": null
      },
      "geometry": {
        "type": "LineString",
        "coordinates": [
          [
            126.052449236109737,
            43.337989314503098
          ],
          [
            126.05208295824869,
            43.337970568048263
          ]
        ]
      }
    }
  ]
}