{
  "type": "FeatureCollection",
  "name": "granicy",
  "crs": {
    "type": "name",
    "properties": {
      "name": "urn:ogc:def:crs:OGC:1.3:CRS84"
    }
  },
  "features": [
    {
      "type": "Feature",
      "properties": {
        "fid": 1,
        "Layer": "0",
        "EntityHandle": "2F",
        "Text": null,
        "size_u": null,
        "anchor": null,
        "color": "#000000",
        "underline": null,
        "plaintext": null
      },
      "geometry": {
        "type": "LineString",
        "coordinates": [
          [
            131.842801105125289,
            43.07266469395956
          ],
          [
            131.842241995388861,
            43.079085544919884
          ],
          [
            131.8439319435127,
            43.079552537018635
          ],
          [
            131.844877921858171,
            43.079531602196269
          ],
          [
            131.847504934715516,
            43.079003589054921
          ],
          [
            131.85286680911085,
            43.079797654594294
          ],
          [
            131.853747765815797,
            43.08024462840438
          ],
          [
            131.854924666121889,
            43.081427550703964
          ],
          [
            131.855569689319111,
            43.081757592755444
          ],
          [
            131.855900608357928,
            43.082147555743468
          ],
          [
            131.856922552721699,
            43.082936582257105
          ],
          [
            131.85748861599069,
            43.083397555810912
          ],
          [
            131.857376638831568,
            43.083656553121848
          ],
          [
            131.859505515666058,
            43.086371547071252
          ],
          [
            131.86042447778263,
            43.086226538569157
          ],
          [
            131.861589388413392,
            43.087418511671132
          ],
          [
            131.86241139978992,
            43.08682854414284
          ],
          [
            131.864907352672105,
            43.088098508065713
          ],
          [
            131.868020239259295,
            43.090709490580544
          ],
          [
            131.873037997484658,
            43.094921431963037
          ],
          [
            131.872422000591143,
            43.096532364400723
          ],
          [
            131.867823088269915,
            43.09837227663354
          ],
          [
            131.872804988070243,
            43.101507247260741
          ],
          [
            131.876058768857064,
            43.103484256478488
          ],
          [
            131.878324724461265,
            43.104844193198424
          ],
          [
            131.877681792887699,
            43.105359187905933
          ],
          [
            131.87885069570811,
            43.106413223932648
          ],
          [
            131.88094064236455,
            43.107662202613497
          ],
          [
            131.88135162743302,
            43.108896112319805
          ],
          [
            131.881823557792472,
            43.10974109503659
          ],
          [
            131.882171575211572,
            43.10964916026856
          ],
          [
            131.883907436597553,
            43.112911080258662
          ],
          [
            131.884207419780239,
            43.112980117700495
          ],
          [
            131.886655458173522,
            43.112416128776808
          ],
          [
            131.888315429535908,
            43.111922087421334
          ],
          [
            131.888337379396177,
            43.111952106102059
          ],
          [
            131.888151420211187,
            43.112431154845197
          ],
          [
            131.888891403003271,
            43.112219162390971
          ],
          [
            131.890774268292517,
            43.11171515062329
          ],
          [
            131.892580216417826,
            43.111257173600769
          ],
          [
            131.894625226437455,
            43.111184201359542
          ],
          [
            131.89721811606168,
            43.111543170716146
          ],
          [
            131.897038160628682,
            43.112286172016667
          ],
          [
            131.900767986548402,
            43.112763210442886
          ],
          [
            131.904493986642166,
            43.111807203644226
          ],
          [
            131.905194970267871,
            43.111659237928883
          ],
          [
            131.906048849636505,
            43.111654235077978
          ],
          [
            131.906744884501364,
            43.111346273066388
          ],
          [
            131.908823823583759,
            43.110509317000066
          ],
          [
            131.910923844316613,
            43.11026032021288
          ],
          [
            131.913634731367381,
            43.109850348147226
          ],
          [
            131.917719572584616,
            43.108605453434429
          ],
          [
            131.917634677869387,
            43.108454407224038
          ],
          [
            131.917787587085627,
            43.108408427011462
          ],
          [
            131.917875663991111,
            43.10857141106726
          ],
          [
            131.918170629644038,
            43.108502426375907
          ],
          [
            131.922930484851605,
            43.108109493167511
          ],
          [
            131.925602382095491,
            43.107974450000142
          ],
          [
            131.92577044517887,
            43.108486452675962
          ],
          [
            131.92712741378017,
            43.10826652098428
          ],
          [
            131.928647322612875,
            43.107918472883625
          ],
          [
            131.930339290814089,
            43.107792525101431
          ],
          [
            131.930577308302787,
            43.10839846937769
          ],
          [
            131.931000240998742,
            43.108688494889236
          ],
          [
            131.93166830320078,
            43.108924520102462
          ],
          [
            131.933310245769832,
            43.109757488576605
          ],
          [
            131.93429011935234,
            43.109757505815161
          ],
          [
            131.935615089217805,
            43.109101534428802
          ],
          [
            131.936946112504529,
            43.109759542448067
          ],
          [
            131.936832142658915,
            43.110101536627283
          ],
          [
            131.936726034387817,
            43.111179460285541
          ],
          [
            131.936891128602781,
            43.111388503538258
          ],
          [
            131.936868085395304,
            43.111601443382789
          ],
          [
            131.936681061960485,
            43.111593446688289
          ],
          [
            131.936650057178696,
            43.112104495110025
          ],
          [
            131.936691004103409,
            43.112582462599782
          ],
          [
            131.936791008546408,
            43.114134431574698
          ],
          [
            131.937529976871389,
            43.114138429944674
          ],
          [
            131.937428971602941,
            43.114570386289707
          ],
          [
            131.936851066063412,
            43.115283400666563
          ],
          [
            131.937038030022308,
            43.115374387040333
          ],
          [
            131.937130959288567,
            43.115370425438769
          ],
          [
            131.937333044317654,
            43.115412374523316
          ],
          [
            131.937397015445043,
            43.115824388441737
          ],
          [
            131.938148933328279,
            43.115885401041844
          ],
          [
            131.938694989400233,
            43.117122339574472
          ],
          [
            131.938758926444962,
            43.117291325689038
          ],
          [
            131.939079979458199,
            43.118408341524336
          ],
          [
            131.939747893869082,
            43.118309303002682
          ],
          [
            131.939997838413944,
            43.118853351985635
          ],
          [
            131.940887844112723,
            43.118794326639055
          ],
          [
            131.942015819792687,
            43.118635355035813
          ],
          [
            131.942337815278023,
            43.118768361252648
          ],
          [
            131.943247749082843,
            43.120291300872346
          ],
          [
            131.943828732960441,
            43.121467262551079
          ],
          [
            131.944383757351233,
            43.122419284647393
          ],
          [
            131.944840671271038,
            43.123171274783452
          ],
          [
            131.944091663308541,
            43.123414238951582
          ],
          [
            131.943585712128396,
            43.12339923358455
          ],
          [
            131.942771706715348,
            43.12393820891554
          ],
          [
            131.942008725262099,
            43.124596255233989
          ],
          [
            131.941310742860594,
            43.124922183935603
          ],
          [
            131.939634873081133,
            43.125052172719002
          ],
          [
            131.939327875147796,
            43.125007208585927
          ],
          [
            131.939142862917492,
            43.124374165134391
          ],
          [
            131.937577863378436,
            43.121774285397123
          ],
          [
            131.937059995312779,
            43.120825254047382
          ],
          [
            131.936385963869952,
            43.119356276754694
          ],
          [
            131.936492035927245,
            43.118665308618667
          ],
          [
            131.936475992876694,
            43.118043329913107
          ],
          [
            131.936383984454409,
            43.117710373370087
          ],
          [
            131.936149044184219,
            43.117103329345859
          ],
          [
            131.936076050559734,
            43.117022378162595
          ],
          [
            131.935810063925004,
            43.116559320407902
          ],
          [
            131.935671976551561,
            43.116603366540559
          ],
          [
            131.935243099940379,
            43.11584437933422
          ],
          [
            131.93502809624286,
            43.115120377292314
          ],
          [
            131.935064106102914,
            43.114136362892623
          ],
          [
            131.93431115581123,
            43.114096403321746
          ],
          [
            131.933801069968411,
            43.114011370622144
          ],
          [
            131.932577153955918,
            43.114000351574603
          ],
          [
            131.930558269538949,
            43.113812425710464
          ],
          [
            131.93044618388339,
            43.114438375443889
          ],
          [
            131.930072269355378,
            43.114473395138411
          ],
          [
            131.929364233312185,
            43.114418345007444
          ],
          [
            131.929464211482809,
            43.113645358018665
          ],
          [
            131.928445321633035,
            43.113545351419369
          ],
          [
            131.927364313001505,
            43.113441402566984
          ],
          [
            131.927353309019594,
            43.113369330839532
          ],
          [
            131.926917367285739,
            43.113361341618941
          ],
          [
            131.926947320892225,
            43.113073352198619
          ],
          [
            131.926237398313305,
            43.113021362971885
          ],
          [
            131.926000389752488,
            43.11306437297069
          ],
          [
            131.925997353353807,
            43.11309734879638
          ],
          [
            131.925300367056252,
            43.11305340794474
          ],
          [
            131.925264417881237,
            43.113686379327525
          ],
          [
            131.925220298380168,
            43.114497297045872
          ],
          [
            131.925234386702613,
            43.115013356558407
          ],
          [
            131.926031282258151,
            43.115032299037409
          ],
          [
            131.926197297253765,
            43.115838295259344
          ],
          [
            131.925437270701877,
            43.115845337412885
          ],
          [
            131.924435339726926,
            43.115803262562402
          ],
          [
            131.92425531197847,
            43.11614531122558
          ],
          [
            131.924356382605481,
            43.116936243680151
          ],
          [
            131.924265354374597,
            43.117774208741409
          ],
          [
            131.924587304198724,
            43.118038230228649
          ],
          [
            131.924023379037379,
            43.118334195202486
          ],
          [
            131.923654292943013,
            43.11841621827319
          ],
          [
            131.923022308227104,
            43.118494261706196
          ],
          [
            131.922532419110553,
            43.118475213337952
          ],
          [
            131.920402417239472,
            43.118341205575668
          ],
          [
            131.920169447261657,
            43.118234204125862
          ],
          [
            131.919494413232457,
            43.118059212370781
          ],
          [
            131.919259479244715,
            43.118021177470119
          ],
          [
            131.918863415304855,
            43.117993206239952
          ],
          [
            131.918180530468419,
            43.11796923621052
          ],
          [
            131.918168477495357,
            43.118251184522386
          ],
          [
            131.918209487231792,
            43.118620155425774
          ],
          [
            131.918406418229068,
            43.118587213622824
          ],
          [
            131.918473424056174,
            43.118790202712688
          ],
          [
            131.918358514206204,
            43.118864227889034
          ],
          [
            131.918477467772675,
            43.119323200173461
          ],
          [
            131.91906948341429,
            43.120102138115023
          ],
          [
            131.919458430499986,
            43.120619118277872
          ],
          [
            131.919521431881435,
            43.121188129797645
          ],
          [
            131.91913340478078,
            43.121929121194263
          ],
          [
            131.918216479453093,
            43.122173140737935
          ],
          [
            131.917475461671074,
            43.12217606003059
          ],
          [
            131.916209517085832,
            43.122066116090949
          ],
          [
            131.914838505710804,
            43.121540061735992
          ],
          [
            131.9145835453389,
            43.121194122438403
          ],
          [
            131.91459753636363,
            43.120872099830187
          ],
          [
            131.913470534014778,
            43.120179115307785
          ],
          [
            131.913208598210844,
            43.120023077154912
          ],
          [
            131.912946565856089,
            43.119843096713353
          ],
          [
            131.912821628008061,
            43.11973711092476
          ],
          [
            131.912732628687735,
            43.119634169682975
          ],
          [
            131.912591655833012,
            43.119405127403361
          ],
          [
            131.912518621018705,
            43.11935215475485
          ],
          [
            131.912540599484998,
            43.119080094431048
          ],
          [
            131.912779634568693,
            43.119051132712272
          ],
          [
            131.913273553682131,
            43.118930124932987
          ],
          [
            131.913234654732804,
            43.118838181363984
          ],
          [
            131.913201554978428,
            43.118823135798358
          ],
          [
            131.913060655869685,
            43.118604174429912
          ],
          [
            131.913018598851068,
            43.118495161878386
          ],
          [
            131.910497681694011,
            43.119254086768414
          ],
          [
            131.909960730279607,
            43.119393083370667
          ],
          [
            131.909391648174818,
            43.119510089902263
          ],
          [
            131.90911871188419,
            43.11954614864338
          ],
          [
            131.908887717488994,
            43.119578079271257
          ],
          [
            131.908758682228637,
            43.119596075681685
          ],
          [
            131.908585770468108,
            43.119740093189385
          ],
          [
            131.908275789003341,
            43.119811099735301
          ],
          [
            131.908136787192632,
            43.119841080584344
          ],
          [
            131.907839725410469,
            43.119818070835507
          ],
          [
            131.907063753388371,
            43.119639106029751
          ],
          [
            131.906734739068582,
            43.119641088632598
          ],
          [
            131.906231825073064,
            43.119768102379517
          ],
          [
            131.905936852700506,
            43.119986113108062
          ],
          [
            131.905812746663827,
            43.12010009577147
          ],
          [
            131.905615849308361,
            43.120313035813723
          ],
          [
            131.905086822701776,
            43.120107098370134
          ],
          [
            131.904821794264592,
            43.120025061432507
          ],
          [
            131.904180901113989,
            43.120210025350644
          ],
          [
            131.902949836974386,
            43.119638090469856
          ],
          [
            131.902239890616073,
            43.119365067769841
          ],
          [
            131.901903935699096,
            43.119924001185105
          ],
          [
            131.901229859152949,
            43.120713980449153
          ],
          [
            131.900864877843816,
            43.121164028948954
          ],
          [
            131.900297977049746,
            43.121568009962182
          ],
          [
            131.900824932570544,
            43.122048971853253
          ],
          [
            131.901083893248995,
            43.122293999137014
          ],
          [
            131.901452847418938,
            43.123081007787199
          ],
          [
            131.901145837043231,
            43.123300930949
          ],
          [
            131.900978846293469,
            43.123746949475048
          ],
          [
            131.900938849049425,
            43.123832963090138
          ],
          [
            131.900772911188227,
            43.124027932259942
          ],
          [
            131.900722882213358,
            43.124109909156537
          ],
          [
            131.900682903476678,
            43.124196912597149
          ],
          [
            131.900658846509259,
            43.124293922394408
          ],
          [
            131.900657913328615,
            43.124372960902271
          ],
          [
            131.900645877670883,
            43.124417910473845
          ],
          [
            131.897633984302473,
            43.123437956092921
          ],
          [
            131.897673948200463,
            43.123381917329418
          ],
          [
            131.896936024046283,
            43.122849921591978
          ],
          [
            131.896882044362485,
            43.122764968830268
          ],
          [
            131.896352036615042,
            43.122577903303267
          ],
          [
            131.895882053883724,
            43.12257293719928
          ],
          [
            131.895643024908907,
            43.122564959407349
          ],
          [
            131.895598998856144,
            43.122607897851694
          ],
          [
            131.895538079013647,
            43.1226669421415
          ],
          [
            131.895405059723828,
            43.122765973648228
          ],
          [
            131.895162066570322,
            43.122845975576993
          ],
          [
            131.895101090685785,
            43.122850924131015
          ],
          [
            131.894967033263327,
            43.122863916150202
          ],
          [
            131.89542503868401,
            43.123012935582352
          ],
          [
            131.895383001689737,
            43.123069895025381
          ],
          [
            131.895293082062011,
            43.123192965105027
          ],
          [
            131.895240991028459,
            43.123263889624482
          ],
          [
            131.895022087294564,
            43.12356191760621
          ],
          [
            131.894836006540459,
            43.123815952261374
          ],
          [
            131.894812062149498,
            43.12384887249798
          ],
          [
            131.89382811729223,
            43.123468896646528
          ],
          [
            131.893406128378899,
            43.124044891844555
          ],
          [
            131.893562035387049,
            43.124113856118946
          ],
          [
            131.893150072825023,
            43.124629890471468
          ],
          [
            131.89296804353657,
            43.124550843058543
          ],
          [
            131.892785036596564,
            43.124779909953403
          ],
          [
            131.892525114310018,
            43.125137851428661
          ],
          [
            131.891646045283977,
            43.126789836624006
          ],
          [
            131.891417098905805,
            43.127206773986984
          ],
          [
            131.891237067267184,
            43.127283780789526
          ],
          [
            131.890900132694213,
            43.12743278563412
          ],
          [
            131.889309192583369,
            43.125520817213506
          ],
          [
            131.889235174212985,
            43.12544785757381
          ],
          [
            131.889079229595581,
            43.125331812522909
          ],
          [
            131.888556184069699,
            43.12520683657872
          ],
          [
            131.88838419220923,
            43.125247842535636
          ],
          [
            131.887783235510739,
            43.12537379899274
          ],
          [
            131.887826210596643,
            43.125500813377734
          ],
          [
            131.887405277508407,
            43.125568848614968
          ],
          [
            131.88723421992637,
            43.125555837227999
          ],
          [
            131.886673221237601,
            43.125418819585363
          ],
          [
            131.886241304823557,
            43.125503794747651
          ],
          [
            131.886063316000502,
            43.125468799990664
          ],
          [
            131.885741280967238,
            43.125522766757967
          ],
          [
            131.885620256104204,
            43.125497810417095
          ],
          [
            131.885429326632533,
            43.125531804612493
          ],
          [
            131.885303285102594,
            43.125462794236576
          ],
          [
            131.884792268122624,
            43.125549832009042
          ],
          [
            131.884728276346635,
            43.125344812269098
          ],
          [
            131.884579311799229,
            43.124871799741122
          ],
          [
            131.884404309145282,
            43.124321824060729
          ],
          [
            131.88441236187208,
            43.123995815231503
          ],
          [
            131.88360628782911,
            43.123990808167115
          ],
          [
            131.883569370725354,
            43.123845818348613
          ],
          [
            131.882395388026737,
            43.123995861556381
          ],
          [
            131.88186033362237,
            43.124123815728986
          ],
          [
            131.881781413254345,
            43.123966831698226
          ],
          [
            131.881592406177532,
            43.124017811830534
          ],
          [
            131.880783458086228,
            43.123990851664118
          ],
          [
            131.880708414240218,
            43.123992785331716
          ],
          [
            131.880704371579583,
            43.123714785167998
          ],
          [
            131.880681477386247,
            43.123537788140226
          ],
          [
            131.880113405588531,
            43.123641767326291
          ],
          [
            131.879397405546769,
            43.123798822950491
          ],
          [
            131.878524458229549,
            43.123798780149485
          ],
          [
            131.87817555149303,
            43.123724824073157
          ],
          [
            131.877621481329982,
            43.123750789972028
          ],
          [
            131.877462559316996,
            43.124034764277127
          ],
          [
            131.876752575413548,
            43.124419737977718
          ],
          [
            131.876409475061081,
            43.125524760260035
          ],
          [
            131.874866584420346,
            43.125787737397793
          ],
          [
            131.874687574296473,
            43.125196742763727
          ],
          [
            131.874299624879143,
            43.124114786532878
          ],
          [
            131.873612589479507,
            43.121760769519007
          ],
          [
            131.873442650167107,
            43.120423856318858
          ],
          [
            131.87286371149105,
            43.120060846462522
          ],
          [
            131.874269742588638,
            43.117042897907154
          ],
          [
            131.871905778274169,
            43.114959921142514
          ],
          [
            131.870766795186682,
            43.114192916813842
          ],
          [
            131.868964894515045,
            43.114126918886186
          ],
          [
            131.867981929585284,
            43.112995933682981
          ],
          [
            131.868344916133481,
            43.112212971065617
          ],
          [
            131.870794848728195,
            43.109050073225106
          ],
          [
            131.872003883703599,
            43.108256130906696
          ],
          [
            131.870665960722988,
            43.106839097823354
          ],
          [
            131.861764234809755,
            43.104270075912915
          ],
          [
            131.861426171104,
            43.104639081317444
          ],
          [
            131.860360253603289,
            43.104579082852815
          ],
          [
            131.859122262460829,
            43.103523116613339
          ],
          [
            131.85896527297237,
            43.10323908077406
          ],
          [
            131.858948350427937,
            43.102679114417754
          ],
          [
            131.859911224622181,
            43.102821165200183
          ],
          [
            131.860539265746553,
            43.101592185482659
          ],
          [
            131.858873295977332,
            43.099230210347194
          ],
          [
            131.857178378451863,
            43.098041246235482
          ],
          [
            131.857831434700273,
            43.097226259755509
          ],
          [
            131.856751428170526,
            43.095764272840654
          ],
          [
            131.854235575195759,
            43.095079309722365
          ],
          [
            131.853220566209387,
            43.093014291245723
          ],
          [
            131.852710636931789,
            43.089819385579347
          ],
          [
            131.851328702243734,
            43.088912378404864
          ],
          [
            131.846597773594226,
            43.087436393443333
          ],
          [
            131.845739901202819,
            43.086517390963863
          ],
          [
            131.845330922387262,
            43.084415443489739
          ],
          [
            131.840908104277418,
            43.081556495506049
          ],
          [
            131.839031204479767,
            43.076547632537412
          ],
          [
            131.839534201980484,
            43.074930601543819
          ],
          [
            131.841843178175282,
            43.072308672926525
          ],
          [
            131.842801105125289,
            43.07266469395956
          ]
        ]
      }
    }
  ]
}